{
"type": "FeatureCollection",
"name": "commuter_stations",
"xy_coordinate_resolution": 1e-05,
"features": [
{ "type": "Feature", "properties": { "label": "Wareham Village — Wareham" }, "geometry": { "type": "Point", "coordinates": [ -70.7171, 41.7604 ] } },
{ "type": "Feature", "properties": { "label": "Buzzards Bay — Bourne" }, "geometry": { "type": "Point", "coordinates": [ -70.61623, 41.7448 ] } },
{ "type": "Feature", "properties": { "label": "Bourne — Bourne" }, "geometry": { "type": "Point", "coordinates": [ -70.58877, 41.7465 ] } },
{ "type": "Feature", "properties": { "label": "Hyannis — Barnstable" }, "geometry": { "type": "Point", "coordinates": [ -70.27658, 41.66022 ] } },
{ "type": "Feature", "properties": { "label": "Readville — Boston" }, "geometry": { "type": "Point", "coordinates": [ -71.13325, 42.23841 ] } },
{ "type": "Feature", "properties": { "label": "Fairmount — Boston" }, "geometry": { "type": "Point", "coordinates": [ -71.11927, 42.25364 ] } },
{ "type": "Feature", "properties": { "label": "Blue Hill Avenue — Boston" }, "geometry": { "type": "Point", "coordinates": [ -71.09578, 42.27147 ] } },
{ "type": "Feature", "properties": { "label": "Morton Street — Boston" }, "geometry": { "type": "Point", "coordinates": [ -71.08548, 42.28099 ] } },
{ "type": "Feature", "properties": { "label": "Talbot Avenue — Boston" }, "geometry": { "type": "Point", "coordinates": [ -71.07814, 42.29225 ] } },
{ "type": "Feature", "properties": { "label": "Four Corners/Geneva — Boston" }, "geometry": { "type": "Point", "coordinates": [ -71.07683, 42.30504 ] } },
{ "type": "Feature", "properties": { "label": "Uphams Corner — Boston" }, "geometry": { "type": "Point", "coordinates": [ -71.06863, 42.31912 ] } },
{ "type": "Feature", "properties": { "label": "Newmarket — Boston" }, "geometry": { "type": "Point", "coordinates": [ -71.06567, 42.32742 ] } },
{ "type": "Feature", "properties": { "label": "River Works — Lynn" }, "geometry": { "type": "Point", "coordinates": [ -70.96985, 42.44993 ] } },
{ "type": "Feature", "properties": { "label": "Lynn Interim — Lynn" }, "geometry": { "type": "Point", "coordinates": [ -70.94043, 42.46529 ] } },
{ "type": "Feature", "properties": { "label": "Swampscott — Swampscott" }, "geometry": { "type": "Point", "coordinates": [ -70.92254, 42.47374 ] } },
{ "type": "Feature", "properties": { "label": "Salem — Salem" }, "geometry": { "type": "Point", "coordinates": [ -70.89588, 42.52479 ] } },
{ "type": "Feature", "properties": { "label": "Beverly — Beverly" }, "geometry": { "type": "Point", "coordinates": [ -70.88543, 42.54728 ] } },
{ "type": "Feature", "properties": { "label": "North Beverly — Beverly" }, "geometry": { "type": "Point", "coordinates": [ -70.88385, 42.58378 ] } },
{ "type": "Feature", "properties": { "label": "Hamilton/Wenham — Hamilton" }, "geometry": { "type": "Point", "coordinates": [ -70.8748, 42.60921 ] } },
{ "type": "Feature", "properties": { "label": "Ipswich — Ipswich" }, "geometry": { "type": "Point", "coordinates": [ -70.84059, 42.67692 ] } },
{ "type": "Feature", "properties": { "label": "Rowley — Rowley" }, "geometry": { "type": "Point", "coordinates": [ -70.85903, 42.72684 ] } },
{ "type": "Feature", "properties": { "label": "Newburyport — Newburyport" }, "geometry": { "type": "Point", "coordinates": [ -70.87797, 42.79784 ] } },
{ "type": "Feature", "properties": { "label": "Endicott — Dedham" }, "geometry": { "type": "Point", "coordinates": [ -71.15865, 42.23325 ] } },
{ "type": "Feature", "properties": { "label": "Dedham Corporate Center — Dedham" }, "geometry": { "type": "Point", "coordinates": [ -71.17425, 42.22708 ] } },
{ "type": "Feature", "properties": { "label": "Islington — Westwood" }, "geometry": { "type": "Point", "coordinates": [ -71.18396, 42.22105 ] } },
{ "type": "Feature", "properties": { "label": "Norwood Depot — Norwood" }, "geometry": { "type": "Point", "coordinates": [ -71.19669, 42.19686 ] } },
{ "type": "Feature", "properties": { "label": "Norwood Central — Norwood" }, "geometry": { "type": "Point", "coordinates": [ -71.19966, 42.18877 ] } },
{ "type": "Feature", "properties": { "label": "Windsor Gardens — Norwood" }, "geometry": { "type": "Point", "coordinates": [ -71.21937, 42.17213 ] } },
{ "type": "Feature", "properties": { "label": "Walpole — Walpole" }, "geometry": { "type": "Point", "coordinates": [ -71.25779, 42.14548 ] } },
{ "type": "Feature", "properties": { "label": "Norfolk — Norfolk" }, "geometry": { "type": "Point", "coordinates": [ -71.32522, 42.12069 ] } },
{ "type": "Feature", "properties": { "label": "Franklin — Franklin" }, "geometry": { "type": "Point", "coordinates": [ -71.3961, 42.08324 ] } },
{ "type": "Feature", "properties": { "label": "Forge Park/495 — Franklin" }, "geometry": { "type": "Point", "coordinates": [ -71.43902, 42.08994 ] } },
{ "type": "Feature", "properties": { "label": "Belmont — Belmont" }, "geometry": { "type": "Point", "coordinates": [ -71.17619, 42.3959 ] } },
{ "type": "Feature", "properties": { "label": "Waverley — Belmont" }, "geometry": { "type": "Point", "coordinates": [ -71.19074, 42.3876 ] } },
{ "type": "Feature", "properties": { "label": "Waltham — Waltham" }, "geometry": { "type": "Point", "coordinates": [ -71.23561, 42.3743 ] } },
{ "type": "Feature", "properties": { "label": "Brandeis/Roberts — Waltham" }, "geometry": { "type": "Point", "coordinates": [ -71.26006, 42.3619 ] } },
{ "type": "Feature", "properties": { "label": "Kendal Green — Weston" }, "geometry": { "type": "Point", "coordinates": [ -71.28241, 42.37897 ] } },
{ "type": "Feature", "properties": { "label": "Silver Hill — Weston" }, "geometry": { "type": "Point", "coordinates": [ -71.30236, 42.39563 ] } },
{ "type": "Feature", "properties": { "label": "Lincoln — Lincoln" }, "geometry": { "type": "Point", "coordinates": [ -71.32551, 42.41364 ] } },
{ "type": "Feature", "properties": { "label": "Concord — Concord" }, "geometry": { "type": "Point", "coordinates": [ -71.35768, 42.45656 ] } },
{ "type": "Feature", "properties": { "label": "West Concord — Concord" }, "geometry": { "type": "Point", "coordinates": [ -71.39289, 42.45704 ] } },
{ "type": "Feature", "properties": { "label": "South Acton — Acton" }, "geometry": { "type": "Point", "coordinates": [ -71.45774, 42.46037 ] } },
{ "type": "Feature", "properties": { "label": "Littleton/Route 495 — Littleton" }, "geometry": { "type": "Point", "coordinates": [ -71.50264, 42.51924 ] } },
{ "type": "Feature", "properties": { "label": "Ayer — Ayer" }, "geometry": { "type": "Point", "coordinates": [ -71.58848, 42.55907 ] } },
{ "type": "Feature", "properties": { "label": "Shirley — Shirley" }, "geometry": { "type": "Point", "coordinates": [ -71.648, 42.54509 ] } },
{ "type": "Feature", "properties": { "label": "North Leominster — Leominster" }, "geometry": { "type": "Point", "coordinates": [ -71.73919, 42.53902 ] } },
{ "type": "Feature", "properties": { "label": "Fitchburg — Fitchburg" }, "geometry": { "type": "Point", "coordinates": [ -71.79261, 42.58072 ] } },
{ "type": "Feature", "properties": { "label": "Wachusett — Fitchburg" }, "geometry": { "type": "Point", "coordinates": [ -71.84849, 42.55348 ] } },
{ "type": "Feature", "properties": { "label": "Freetown — Freetown" }, "geometry": { "type": "Point", "coordinates": [ -71.09073, 41.77367 ] } },
{ "type": "Feature", "properties": { "label": "Fall River Depot — Fall River" }, "geometry": { "type": "Point", "coordinates": [ -71.15418, 41.71398 ] } },
{ "type": "Feature", "properties": { "label": "Foxboro — Foxborough" }, "geometry": { "type": "Point", "coordinates": [ -71.26151, 42.0951 ] } },
{ "type": "Feature", "properties": { "label": "Montserrat — Beverly" }, "geometry": { "type": "Point", "coordinates": [ -70.86925, 42.56217 ] } },
{ "type": "Feature", "properties": { "label": "Beverly Farms — Beverly" }, "geometry": { "type": "Point", "coordinates": [ -70.8114, 42.56165 ] } },
{ "type": "Feature", "properties": { "label": "Manchester — Manchester-by-the-Sea" }, "geometry": { "type": "Point", "coordinates": [ -70.77009, 42.57369 ] } },
{ "type": "Feature", "properties": { "label": "West Gloucester — Gloucester" }, "geometry": { "type": "Point", "coordinates": [ -70.70542, 42.61193 ] } },
{ "type": "Feature", "properties": { "label": "Gloucester — Gloucester" }, "geometry": { "type": "Point", "coordinates": [ -70.66835, 42.6168 ] } },
{ "type": "Feature", "properties": { "label": "Rockport — Rockport" }, "geometry": { "type": "Point", "coordinates": [ -70.62705, 42.65549 ] } },
{ "type": "Feature", "properties": { "label": "Weymouth Landing/East Braintree — Weymouth" }, "geometry": { "type": "Point", "coordinates": [ -70.96815, 42.2215 ] } },
{ "type": "Feature", "properties": { "label": "East Weymouth — Weymouth" }, "geometry": { "type": "Point", "coordinates": [ -70.9214, 42.2191 ] } },
{ "type": "Feature", "properties": { "label": "West Hingham — Hingham" }, "geometry": { "type": "Point", "coordinates": [ -70.90271, 42.23584 ] } },
{ "type": "Feature", "properties": { "label": "Nantasket Junction — Hingham" }, "geometry": { "type": "Point", "coordinates": [ -70.8692, 42.24496 ] } },
{ "type": "Feature", "properties": { "label": "Cohasset — Cohasset" }, "geometry": { "type": "Point", "coordinates": [ -70.83753, 42.24421 ] } },
{ "type": "Feature", "properties": { "label": "North Scituate — Scituate" }, "geometry": { "type": "Point", "coordinates": [ -70.7886, 42.21953 ] } },
{ "type": "Feature", "properties": { "label": "Greenbush — Scituate" }, "geometry": { "type": "Point", "coordinates": [ -70.74664, 42.17878 ] } },
{ "type": "Feature", "properties": { "label": "Kingston — Kingston" }, "geometry": { "type": "Point", "coordinates": [ -70.72171, 41.97762 ] } },
{ "type": "Feature", "properties": { "label": "Middleborough — Middleborough" }, "geometry": { "type": "Point", "coordinates": [ -70.92321, 41.887 ] } },
{ "type": "Feature", "properties": { "label": "Holbrook/Randolph — Randolph" }, "geometry": { "type": "Point", "coordinates": [ -71.02737, 42.15634 ] } },
{ "type": "Feature", "properties": { "label": "Montello — Brockton" }, "geometry": { "type": "Point", "coordinates": [ -71.022, 42.10656 ] } },
{ "type": "Feature", "properties": { "label": "Brockton — Brockton" }, "geometry": { "type": "Point", "coordinates": [ -71.01653, 42.08466 ] } },
{ "type": "Feature", "properties": { "label": "Campello — Brockton" }, "geometry": { "type": "Point", "coordinates": [ -71.011, 42.06095 ] } },
{ "type": "Feature", "properties": { "label": "Bridgewater — Bridgewater" }, "geometry": { "type": "Point", "coordinates": [ -70.96537, 41.98492 ] } },
{ "type": "Feature", "properties": { "label": "Lakeville — Lakeville" }, "geometry": { "type": "Point", "coordinates": [ -70.91844, 41.87821 ] } },
{ "type": "Feature", "properties": { "label": "Roslindale Village — Boston" }, "geometry": { "type": "Point", "coordinates": [ -71.13028, 42.28744 ] } },
{ "type": "Feature", "properties": { "label": "Bellevue — Boston" }, "geometry": { "type": "Point", "coordinates": [ -71.14556, 42.28659 ] } },
{ "type": "Feature", "properties": { "label": "Highland — Boston" }, "geometry": { "type": "Point", "coordinates": [ -71.15394, 42.28497 ] } },
{ "type": "Feature", "properties": { "label": "West Roxbury — Boston" }, "geometry": { "type": "Point", "coordinates": [ -71.16007, 42.28136 ] } },
{ "type": "Feature", "properties": { "label": "Hersey — Needham" }, "geometry": { "type": "Point", "coordinates": [ -71.21553, 42.27565 ] } },
{ "type": "Feature", "properties": { "label": "Needham Junction — Needham" }, "geometry": { "type": "Point", "coordinates": [ -71.23556, 42.27319 ] } },
{ "type": "Feature", "properties": { "label": "Needham Center — Needham" }, "geometry": { "type": "Point", "coordinates": [ -71.23769, 42.28077 ] } },
{ "type": "Feature", "properties": { "label": "Needham Heights — Needham" }, "geometry": { "type": "Point", "coordinates": [ -71.23603, 42.29344 ] } },
{ "type": "Feature", "properties": { "label": "East Taunton — Taunton" }, "geometry": { "type": "Point", "coordinates": [ -71.06169, 41.8682 ] } },
{ "type": "Feature", "properties": { "label": "Church Street — New Bedford" }, "geometry": { "type": "Point", "coordinates": [ -70.93932, 41.67431 ] } },
{ "type": "Feature", "properties": { "label": "New Bedford — New Bedford" }, "geometry": { "type": "Point", "coordinates": [ -70.9252, 41.6437 ] } },
{ "type": "Feature", "properties": { "label": "Wickford Junction — North Kingstown" }, "geometry": { "type": "Point", "coordinates": [ -71.49115, 41.58129 ] } },
{ "type": "Feature", "properties": { "label": "TF Green Airport — Warwick" }, "geometry": { "type": "Point", "coordinates": [ -71.44245, 41.7266 ] } },
{ "type": "Feature", "properties": { "label": "Providence — Providence" }, "geometry": { "type": "Point", "coordinates": [ -71.4133, 41.82929 ] } },
{ "type": "Feature", "properties": { "label": "Pawtucket/Central Falls — Pawtucket" }, "geometry": { "type": "Point", "coordinates": [ -71.392, 41.87876 ] } },
{ "type": "Feature", "properties": { "label": "South Attleboro — Attleboro" }, "geometry": { "type": "Point", "coordinates": [ -71.35462, 41.89794 ] } },
{ "type": "Feature", "properties": { "label": "Attleboro — Attleboro" }, "geometry": { "type": "Point", "coordinates": [ -71.28509, 41.94074 ] } },
{ "type": "Feature", "properties": { "label": "Mansfield — Mansfield" }, "geometry": { "type": "Point", "coordinates": [ -71.21992, 42.03279 ] } },
{ "type": "Feature", "properties": { "label": "Sharon — Sharon" }, "geometry": { "type": "Point", "coordinates": [ -71.18447, 42.12455 ] } },
{ "type": "Feature", "properties": { "label": "Canton Junction — Canton" }, "geometry": { "type": "Point", "coordinates": [ -71.15376, 42.1632 ] } },
{ "type": "Feature", "properties": { "label": "Route 128 — Westwood" }, "geometry": { "type": "Point", "coordinates": [ -71.14713, 42.21031 ] } },
{ "type": "Feature", "properties": { "label": "Hyde Park — Boston" }, "geometry": { "type": "Point", "coordinates": [ -71.12553, 42.25503 ] } },
{ "type": "Feature", "properties": { "label": "West Medford — Medford" }, "geometry": { "type": "Point", "coordinates": [ -71.13334, 42.42178 ] } },
{ "type": "Feature", "properties": { "label": "Wedgemere — Winchester" }, "geometry": { "type": "Point", "coordinates": [ -71.14017, 42.44495 ] } },
{ "type": "Feature", "properties": { "label": "Winchester Center — Winchester" }, "geometry": { "type": "Point", "coordinates": [ -71.13783, 42.45109 ] } },
{ "type": "Feature", "properties": { "label": "Anderson/Woburn — Woburn" }, "geometry": { "type": "Point", "coordinates": [ -71.14447, 42.51699 ] } },
{ "type": "Feature", "properties": { "label": "Wilmington — Wilmington" }, "geometry": { "type": "Point", "coordinates": [ -71.17433, 42.54662 ] } },
{ "type": "Feature", "properties": { "label": "North Billerica — Billerica" }, "geometry": { "type": "Point", "coordinates": [ -71.281, 42.59325 ] } },
{ "type": "Feature", "properties": { "label": "Lowell — Lowell" }, "geometry": { "type": "Point", "coordinates": [ -71.31454, 42.63535 ] } },
{ "type": "Feature", "properties": { "label": "South Weymouth — Weymouth" }, "geometry": { "type": "Point", "coordinates": [ -70.9533, 42.15503 ] } },
{ "type": "Feature", "properties": { "label": "Abington — Abington" }, "geometry": { "type": "Point", "coordinates": [ -70.9344, 42.10716 ] } },
{ "type": "Feature", "properties": { "label": "Whitman — Whitman" }, "geometry": { "type": "Point", "coordinates": [ -70.92341, 42.08275 ] } },
{ "type": "Feature", "properties": { "label": "Hanson — Hanson" }, "geometry": { "type": "Point", "coordinates": [ -70.88244, 42.04397 ] } },
{ "type": "Feature", "properties": { "label": "Halifax — Halifax" }, "geometry": { "type": "Point", "coordinates": [ -70.82426, 42.01474 ] } },
{ "type": "Feature", "properties": { "label": "Canton Center — Canton" }, "geometry": { "type": "Point", "coordinates": [ -71.14628, 42.15709 ] } },
{ "type": "Feature", "properties": { "label": "Stoughton — Stoughton" }, "geometry": { "type": "Point", "coordinates": [ -71.10363, 42.12408 ] } },
{ "type": "Feature", "properties": { "label": "Lansdowne — Boston" }, "geometry": { "type": "Point", "coordinates": [ -71.09997, 42.34758 ] } },
{ "type": "Feature", "properties": { "label": "Boston Landing — Boston" }, "geometry": { "type": "Point", "coordinates": [ -71.13988, 42.35729 ] } },
{ "type": "Feature", "properties": { "label": "Newtonville — Newton" }, "geometry": { "type": "Point", "coordinates": [ -71.20541, 42.3517 ] } },
{ "type": "Feature", "properties": { "label": "West Newton — Newton" }, "geometry": { "type": "Point", "coordinates": [ -71.23053, 42.34788 ] } },
{ "type": "Feature", "properties": { "label": "Auburndale — Newton" }, "geometry": { "type": "Point", "coordinates": [ -71.25037, 42.34583 ] } },
{ "type": "Feature", "properties": { "label": "Wellesley Farms — Wellesley" }, "geometry": { "type": "Point", "coordinates": [ -71.27229, 42.32361 ] } },
{ "type": "Feature", "properties": { "label": "Wellesley Hills — Wellesley" }, "geometry": { "type": "Point", "coordinates": [ -71.27704, 42.31037 ] } },
{ "type": "Feature", "properties": { "label": "Wellesley Square — Wellesley" }, "geometry": { "type": "Point", "coordinates": [ -71.29417, 42.29753 ] } },
{ "type": "Feature", "properties": { "label": "Natick Center — Natick" }, "geometry": { "type": "Point", "coordinates": [ -71.34713, 42.28572 ] } },
{ "type": "Feature", "properties": { "label": "West Natick — Natick" }, "geometry": { "type": "Point", "coordinates": [ -71.3918, 42.28306 ] } },
{ "type": "Feature", "properties": { "label": "Framingham — Framingham" }, "geometry": { "type": "Point", "coordinates": [ -71.42006, 42.27611 ] } },
{ "type": "Feature", "properties": { "label": "Ashland — Ashland" }, "geometry": { "type": "Point", "coordinates": [ -71.48216, 42.26149 ] } },
{ "type": "Feature", "properties": { "label": "Southborough — Southborough" }, "geometry": { "type": "Point", "coordinates": [ -71.52437, 42.26702 ] } },
{ "type": "Feature", "properties": { "label": "Westborough — Westborough" }, "geometry": { "type": "Point", "coordinates": [ -71.64708, 42.26964 ] } },
{ "type": "Feature", "properties": { "label": "Grafton — Grafton" }, "geometry": { "type": "Point", "coordinates": [ -71.68533, 42.2466 ] } },
{ "type": "Feature", "properties": { "label": "Worcester — Worcester" }, "geometry": { "type": "Point", "coordinates": [ -71.79181, 42.26183 ] } },
{ "type": "Feature", "properties": { "label": "Wyoming Hill — Melrose" }, "geometry": { "type": "Point", "coordinates": [ -71.06938, 42.45173 ] } },
{ "type": "Feature", "properties": { "label": "Melrose/Cedar Park — Melrose" }, "geometry": { "type": "Point", "coordinates": [ -71.06979, 42.45877 ] } },
{ "type": "Feature", "properties": { "label": "Melrose Highlands — Melrose" }, "geometry": { "type": "Point", "coordinates": [ -71.0683, 42.46946 ] } },
{ "type": "Feature", "properties": { "label": "Greenwood — Wakefield" }, "geometry": { "type": "Point", "coordinates": [ -71.06725, 42.483 ] } },
{ "type": "Feature", "properties": { "label": "Wakefield — Wakefield" }, "geometry": { "type": "Point", "coordinates": [ -71.07557, 42.50213 ] } },
{ "type": "Feature", "properties": { "label": "Reading — Reading" }, "geometry": { "type": "Point", "coordinates": [ -71.10829, 42.52221 ] } },
{ "type": "Feature", "properties": { "label": "North Wilmington — Wilmington" }, "geometry": { "type": "Point", "coordinates": [ -71.1597, 42.56966 ] } },
{ "type": "Feature", "properties": { "label": "Ballardvale — Andover" }, "geometry": { "type": "Point", "coordinates": [ -71.15996, 42.62736 ] } },
{ "type": "Feature", "properties": { "label": "Andover — Andover" }, "geometry": { "type": "Point", "coordinates": [ -71.1445, 42.65834 ] } },
{ "type": "Feature", "properties": { "label": "Lawrence — Lawrence" }, "geometry": { "type": "Point", "coordinates": [ -71.15198, 42.70181 ] } },
{ "type": "Feature", "properties": { "label": "Bradford — Haverhill" }, "geometry": { "type": "Point", "coordinates": [ -71.08841, 42.76691 ] } },
{ "type": "Feature", "properties": { "label": "Haverhill — Haverhill" }, "geometry": { "type": "Point", "coordinates": [ -71.08624, 42.77347 ] } },
{ "type": "Feature", "properties": { "label": "Back Bay — Boston" }, "geometry": { "type": "Point", "coordinates": [ -71.07573, 42.34735 ] } },
{ "type": "Feature", "properties": { "label": "Braintree — Braintree" }, "geometry": { "type": "Point", "coordinates": [ -71.00114, 42.20785 ] } },
{ "type": "Feature", "properties": { "label": "Chelsea — Chelsea" }, "geometry": { "type": "Point", "coordinates": [ -71.04131, 42.39702 ] } },
{ "type": "Feature", "properties": { "label": "Forest Hills — Boston" }, "geometry": { "type": "Point", "coordinates": [ -71.11394, 42.30071 ] } },
{ "type": "Feature", "properties": { "label": "JFK/UMass — Boston" }, "geometry": { "type": "Point", "coordinates": [ -71.05239, 42.32068 ] } },
{ "type": "Feature", "properties": { "label": "Malden Center — Malden" }, "geometry": { "type": "Point", "coordinates": [ -71.07411, 42.42663 ] } },
{ "type": "Feature", "properties": { "label": "North Station — Boston" }, "geometry": { "type": "Point", "coordinates": [ -71.06129, 42.36558 ] } },
{ "type": "Feature", "properties": { "label": "Oak Grove — Malden" }, "geometry": { "type": "Point", "coordinates": [ -71.0711, 42.43668 ] } },
{ "type": "Feature", "properties": { "label": "Porter — Cambridge" }, "geometry": { "type": "Point", "coordinates": [ -71.11915, 42.3884 ] } },
{ "type": "Feature", "properties": { "label": "Quincy Center — Quincy" }, "geometry": { "type": "Point", "coordinates": [ -71.00541, 42.25181 ] } },
{ "type": "Feature", "properties": { "label": "Ruggles — Boston" }, "geometry": { "type": "Point", "coordinates": [ -71.08896, 42.33638 ] } },
{ "type": "Feature", "properties": { "label": "South Station — Boston" }, "geometry": { "type": "Point", "coordinates": [ -71.05524, 42.35227 ] } }
]
}
