{
"type": "FeatureCollection",
"name": "commuter_lines",
"xy_coordinate_resolution": 1e-05,
"features": [
{ "type": "Feature", "properties": { "shape_id": "9790001" }, "geometry": { "type": "LineString", "coordinates": [ [ -70.72343, 41.9766 ], [ -70.71718, 41.98324 ], [ -70.71972, 41.99431 ], [ -70.73509, 41.99906 ], [ -70.75882, 42.00234 ], [ -70.80311, 42.00475 ], [ -70.88761, 42.04751 ], [ -70.90899, 42.06404 ], [ -70.9285, 42.09134 ], [ -70.94842, 42.1473 ], [ -70.95715, 42.16451 ], [ -70.96897, 42.18232 ], [ -70.9756, 42.18775 ], [ -70.98531, 42.19071 ], [ -70.99214, 42.19521 ], [ -71.00132, 42.19911 ], [ -71.00043, 42.21474 ], [ -71.00167, 42.22196 ], [ -71.00719, 42.23196 ], [ -71.00418, 42.2496 ], [ -71.03239, 42.27859 ], [ -71.05564, 42.30209 ], [ -71.0521, 42.32018 ], [ -71.05531, 42.3254 ], [ -71.05921, 42.3309 ], [ -71.05879, 42.34462 ], [ -71.05521, 42.34998 ] ] } },
{ "type": "Feature", "properties": { "shape_id": "9790002" }, "geometry": { "type": "LineString", "coordinates": [ [ -71.05521, 42.34998 ], [ -71.06, 42.34082 ], [ -71.05806, 42.32759 ], [ -71.05232, 42.32166 ], [ -71.05358, 42.31039 ], [ -71.05536, 42.30112 ], [ -71.03239, 42.27859 ], [ -71.00418, 42.2496 ], [ -71.00702, 42.22997 ], [ -71.00002, 42.21722 ], [ -71.00193, 42.2 ], [ -70.99401, 42.19577 ], [ -70.98602, 42.19156 ], [ -70.9795, 42.18851 ], [ -70.97139, 42.18532 ], [ -70.95743, 42.16548 ], [ -70.95012, 42.15002 ], [ -70.94275, 42.13299 ], [ -70.92539, 42.0853 ], [ -70.90276, 42.05817 ], [ -70.87381, 42.03955 ], [ -70.80179, 42.00452 ], [ -70.74422, 42.0008 ], [ -70.72189, 41.99549 ], [ -70.71767, 41.99069 ], [ -70.71817, 41.98139 ], [ -70.72343, 41.9766 ] ] } },
{ "type": "Feature", "properties": { "shape_id": "9810001" }, "geometry": { "type": "LineString", "coordinates": [ [ -70.87822, 42.7982 ], [ -70.84704, 42.687 ], [ -70.84052, 42.67736 ], [ -70.85817, 42.64031 ], [ -70.87386, 42.61171 ], [ -70.88446, 42.57988 ], [ -70.88658, 42.54335 ], [ -70.89417, 42.52732 ], [ -70.89606, 42.51675 ], [ -70.89961, 42.50511 ], [ -70.91452, 42.48299 ], [ -70.9211, 42.47461 ], [ -70.96869, 42.45079 ], [ -71.00511, 42.40452 ], [ -71.02849, 42.39467 ], [ -71.06088, 42.40161 ], [ -71.06955, 42.39666 ], [ -71.07635, 42.39082 ], [ -71.07617, 42.37767 ], [ -71.06261, 42.36671 ] ] } },
{ "type": "Feature", "properties": { "shape_id": "9810002" }, "geometry": { "type": "LineString", "coordinates": [ [ -71.06261, 42.36671 ], [ -71.07668, 42.37868 ], [ -71.07523, 42.39237 ], [ -71.06297, 42.40122 ], [ -71.05433, 42.40054 ], [ -71.02624, 42.39489 ], [ -71.00266, 42.40657 ], [ -70.96753, 42.45177 ], [ -70.91852, 42.47666 ], [ -70.90773, 42.49296 ], [ -70.89679, 42.51095 ], [ -70.89514, 42.52595 ], [ -70.88737, 42.54112 ], [ -70.88519, 42.5573 ], [ -70.88357, 42.58449 ], [ -70.86699, 42.62597 ], [ -70.85136, 42.65365 ], [ -70.8406, 42.67833 ], [ -70.85029, 42.6943 ], [ -70.87822, 42.7982 ] ] } },
{ "type": "Feature", "properties": { "shape_id": "9810006" }, "geometry": { "type": "LineString", "coordinates": [ [ -70.62646, 42.656 ], [ -70.63388, 42.64807 ], [ -70.63837, 42.63949 ], [ -70.66388, 42.62587 ], [ -70.66497, 42.6171 ], [ -70.68825, 42.61744 ], [ -70.70265, 42.61422 ], [ -70.73281, 42.58957 ], [ -70.74664, 42.58289 ], [ -70.76288, 42.57533 ], [ -70.77906, 42.56995 ], [ -70.78552, 42.56567 ], [ -70.83422, 42.55897 ], [ -70.85048, 42.56518 ], [ -70.86806, 42.56248 ], [ -70.88268, 42.55614 ], [ -70.88512, 42.55192 ], [ -70.8907, 42.53223 ], [ -70.89598, 42.52378 ], [ -70.89845, 42.50691 ], [ -70.91452, 42.48299 ], [ -70.9211, 42.47461 ], [ -70.96869, 42.45079 ], [ -71.00511, 42.40452 ], [ -71.02849, 42.39467 ], [ -71.06088, 42.40161 ], [ -71.06955, 42.39666 ], [ -71.07635, 42.39082 ], [ -71.07617, 42.37767 ], [ -71.06261, 42.36671 ] ] } },
{ "type": "Feature", "properties": { "shape_id": "9810007" }, "geometry": { "type": "LineString", "coordinates": [ [ -71.06261, 42.36671 ], [ -71.07668, 42.37868 ], [ -71.07523, 42.39237 ], [ -71.06297, 42.40122 ], [ -71.05433, 42.40054 ], [ -71.02624, 42.39489 ], [ -71.00266, 42.40657 ], [ -70.96753, 42.45177 ], [ -70.91852, 42.47666 ], [ -70.90773, 42.49296 ], [ -70.89679, 42.51095 ], [ -70.89514, 42.52595 ], [ -70.88737, 42.54112 ], [ -70.88401, 42.5551 ], [ -70.86987, 42.56191 ], [ -70.85173, 42.5652 ], [ -70.83944, 42.56113 ], [ -70.83003, 42.55879 ], [ -70.78256, 42.56679 ], [ -70.77298, 42.57257 ], [ -70.75592, 42.57812 ], [ -70.74479, 42.58328 ], [ -70.72356, 42.59614 ], [ -70.69965, 42.61542 ], [ -70.67568, 42.618 ], [ -70.66497, 42.6171 ], [ -70.66268, 42.62694 ], [ -70.6364, 42.64133 ], [ -70.63103, 42.6518 ], [ -70.62646, 42.656 ] ] } },
{ "type": "Feature", "properties": { "shape_id": "9820001" }, "geometry": { "type": "LineString", "coordinates": [ [ -71.08622, 42.77303 ], [ -71.08695, 42.76812 ], [ -71.10858, 42.75228 ], [ -71.11762, 42.73523 ], [ -71.1334, 42.71949 ], [ -71.13251, 42.7085 ], [ -71.14026, 42.703 ], [ -71.15943, 42.70042 ], [ -71.16139, 42.69526 ], [ -71.14253, 42.67004 ], [ -71.14528, 42.65602 ], [ -71.16036, 42.63294 ], [ -71.16017, 42.61894 ], [ -71.16696, 42.58929 ], [ -71.16689, 42.57792 ], [ -71.12774, 42.53402 ], [ -71.10948, 42.52273 ], [ -71.08384, 42.5103 ], [ -71.06978, 42.4938 ], [ -71.06635, 42.48104 ], [ -71.06724, 42.47238 ], [ -71.07009, 42.45962 ], [ -71.0711, 42.43524 ], [ -71.07677, 42.41574 ], [ -71.07617, 42.37767 ], [ -71.06261, 42.36671 ] ] } },
{ "type": "Feature", "properties": { "shape_id": "9820002" }, "geometry": { "type": "LineString", "coordinates": [ [ -71.06261, 42.36671 ], [ -71.07695, 42.37965 ], [ -71.0762, 42.42173 ], [ -71.07045, 42.441 ], [ -71.07009, 42.45962 ], [ -71.06567, 42.47953 ], [ -71.06942, 42.49073 ], [ -71.07354, 42.4998 ], [ -71.08733, 42.51287 ], [ -71.11997, 42.52841 ], [ -71.13537, 42.54175 ], [ -71.16804, 42.58083 ], [ -71.16155, 42.6154 ], [ -71.15978, 42.62647 ], [ -71.15952, 42.63549 ], [ -71.14405, 42.6597 ], [ -71.14253, 42.67004 ], [ -71.1618, 42.6966 ], [ -71.15808, 42.70099 ], [ -71.13759, 42.70396 ], [ -71.13202, 42.70964 ], [ -71.13245, 42.72147 ], [ -71.11435, 42.7396 ], [ -71.10564, 42.75527 ], [ -71.08695, 42.76812 ], [ -71.08622, 42.77303 ] ] } },
{ "type": "Feature", "properties": { "shape_id": "9820003" }, "geometry": { "type": "LineString", "coordinates": [ [ -71.08622, 42.77303 ], [ -71.08695, 42.76812 ], [ -71.10858, 42.75228 ], [ -71.11762, 42.73523 ], [ -71.1334, 42.71949 ], [ -71.13251, 42.7085 ], [ -71.14026, 42.703 ], [ -71.15943, 42.70042 ], [ -71.16139, 42.69526 ], [ -71.14253, 42.67004 ], [ -71.14528, 42.65602 ], [ -71.16036, 42.63294 ], [ -71.16017, 42.61894 ], [ -71.16794, 42.58486 ], [ -71.17502, 42.54754 ], [ -71.14998, 42.52567 ], [ -71.1349, 42.49868 ], [ -71.13124, 42.48608 ], [ -71.1264, 42.47854 ], [ -71.14212, 42.44224 ], [ -71.14532, 42.43564 ], [ -71.14186, 42.42873 ], [ -71.11554, 42.40612 ], [ -71.10291, 42.39088 ], [ -71.09073, 42.38376 ], [ -71.08384, 42.37858 ], [ -71.07696, 42.37784 ], [ -71.06279, 42.36672 ] ] } },
{ "type": "Feature", "properties": { "shape_id": "9820004" }, "geometry": { "type": "LineString", "coordinates": [ [ -71.06279, 42.36672 ], [ -71.0799, 42.3787 ], [ -71.08636, 42.3797 ], [ -71.0966, 42.38799 ], [ -71.10641, 42.3939 ], [ -71.12255, 42.413 ], [ -71.14487, 42.43267 ], [ -71.1442, 42.44008 ], [ -71.13787, 42.45082 ], [ -71.1264, 42.47854 ], [ -71.13343, 42.49137 ], [ -71.14035, 42.5104 ], [ -71.15392, 42.52991 ], [ -71.17536, 42.54878 ], [ -71.16155, 42.6154 ], [ -71.15978, 42.62647 ], [ -71.15952, 42.63549 ], [ -71.14405, 42.6597 ], [ -71.14253, 42.67004 ], [ -71.1618, 42.6966 ], [ -71.15808, 42.70099 ], [ -71.13759, 42.70396 ], [ -71.13202, 42.70964 ], [ -71.13245, 42.72147 ], [ -71.11435, 42.7396 ], [ -71.10564, 42.75527 ], [ -71.08695, 42.76812 ], [ -71.08622, 42.77303 ] ] } },
{ "type": "Feature", "properties": { "shape_id": "9830005" }, "geometry": { "type": "LineString", "coordinates": [ [ -71.31446, 42.6353 ], [ -71.30306, 42.62485 ], [ -71.28891, 42.61382 ], [ -71.27893, 42.59078 ], [ -71.27091, 42.58789 ], [ -71.25603, 42.58843 ], [ -71.18814, 42.55864 ], [ -71.1756, 42.54808 ], [ -71.14998, 42.52567 ], [ -71.1349, 42.49868 ], [ -71.13124, 42.48608 ], [ -71.1264, 42.47854 ], [ -71.14171, 42.44263 ], [ -71.14532, 42.43564 ], [ -71.14186, 42.42873 ], [ -71.11554, 42.40612 ], [ -71.10291, 42.39088 ], [ -71.09073, 42.38376 ], [ -71.08384, 42.37858 ], [ -71.07696, 42.37784 ], [ -71.06279, 42.36672 ] ] } },
{ "type": "Feature", "properties": { "shape_id": "9830006" }, "geometry": { "type": "LineString", "coordinates": [ [ -71.06279, 42.36672 ], [ -71.0799, 42.3787 ], [ -71.08636, 42.3797 ], [ -71.0966, 42.38799 ], [ -71.10641, 42.3939 ], [ -71.12255, 42.413 ], [ -71.14487, 42.43267 ], [ -71.1442, 42.44008 ], [ -71.13787, 42.45082 ], [ -71.1264, 42.47854 ], [ -71.13343, 42.49137 ], [ -71.14035, 42.5104 ], [ -71.15392, 42.52991 ], [ -71.17847, 42.55159 ], [ -71.19679, 42.56316 ], [ -71.25926, 42.58901 ], [ -71.27405, 42.58834 ], [ -71.28073, 42.59282 ], [ -71.29014, 42.61565 ], [ -71.31292, 42.63286 ], [ -71.31446, 42.6353 ] ] } },
{ "type": "Feature", "properties": { "shape_id": "9840003" }, "geometry": { "type": "LineString", "coordinates": [ [ -71.84849, 42.55348 ], [ -71.84444, 42.55812 ], [ -71.84081, 42.5698 ], [ -71.82571, 42.5803 ], [ -71.8121, 42.58505 ], [ -71.80034, 42.58127 ], [ -71.79183, 42.58013 ], [ -71.78593, 42.57236 ], [ -71.7665, 42.56739 ], [ -71.75316, 42.55836 ], [ -71.72692, 42.52527 ], [ -71.71455, 42.522 ], [ -71.71011, 42.52487 ], [ -71.70233, 42.53652 ], [ -71.68909, 42.54221 ], [ -71.66984, 42.54594 ], [ -71.6483, 42.54511 ], [ -71.59324, 42.55909 ], [ -71.57799, 42.55707 ], [ -71.56573, 42.55584 ], [ -71.5381, 42.55764 ], [ -71.51109, 42.53666 ], [ -71.49513, 42.50716 ], [ -71.47263, 42.47474 ], [ -71.46647, 42.46299 ], [ -71.45551, 42.4601 ], [ -71.44294, 42.4583 ], [ -71.42908, 42.45515 ], [ -71.40935, 42.45523 ], [ -71.39246, 42.45711 ], [ -71.36164, 42.45767 ], [ -71.35486, 42.45389 ], [ -71.34616, 42.4396 ], [ -71.32089, 42.40604 ], [ -71.31838, 42.39999 ], [ -71.29568, 42.3932 ], [ -71.27869, 42.37631 ], [ -71.27238, 42.37109 ], [ -71.2658, 42.36313 ], [ -71.2582, 42.36215 ], [ -71.24475, 42.3703 ], [ -71.23576, 42.37422 ], [ -71.22307, 42.3781 ], [ -71.18651, 42.38979 ], [ -71.17582, 42.396 ], [ -71.15043, 42.39504 ], [ -71.13031, 42.39027 ], [ -71.1168, 42.38707 ], [ -71.10289, 42.38061 ], [ -71.08713, 42.37554 ], [ -71.07038, 42.37228 ], [ -71.06279, 42.36672 ] ] } },
{ "type": "Feature", "properties": { "shape_id": "9840004" }, "geometry": { "type": "LineString", "coordinates": [ [ -71.06279, 42.36672 ], [ -71.07235, 42.37355 ], [ -71.0953, 42.37751 ], [ -71.11428, 42.38561 ], [ -71.12384, 42.38917 ], [ -71.14922, 42.39464 ], [ -71.1711, 42.39599 ], [ -71.17872, 42.39532 ], [ -71.19296, 42.38678 ], [ -71.22422, 42.37752 ], [ -71.24383, 42.37114 ], [ -71.25571, 42.36315 ], [ -71.26382, 42.36246 ], [ -71.26969, 42.36702 ], [ -71.27667, 42.3752 ], [ -71.29108, 42.3881 ], [ -71.29815, 42.39459 ], [ -71.31931, 42.40069 ], [ -71.32394, 42.41145 ], [ -71.35276, 42.44959 ], [ -71.35793, 42.45667 ], [ -71.38862, 42.45788 ], [ -71.40607, 42.45498 ], [ -71.42761, 42.45521 ], [ -71.44138, 42.45764 ], [ -71.45351, 42.46005 ], [ -71.46512, 42.46209 ], [ -71.47056, 42.46993 ], [ -71.4784, 42.48362 ], [ -71.50263, 42.51958 ], [ -71.51275, 42.53851 ], [ -71.5381, 42.55764 ], [ -71.57358, 42.55591 ], [ -71.59153, 42.55908 ], [ -71.61518, 42.55439 ], [ -71.65002, 42.54488 ], [ -71.67476, 42.54551 ], [ -71.69737, 42.53923 ], [ -71.70541, 42.53353 ], [ -71.71298, 42.52235 ], [ -71.72562, 42.52458 ], [ -71.73614, 42.53528 ], [ -71.75662, 42.56185 ], [ -71.77326, 42.56991 ], [ -71.787, 42.57296 ], [ -71.7931, 42.58089 ], [ -71.80549, 42.58279 ], [ -71.8121, 42.58505 ], [ -71.82571, 42.5803 ], [ -71.84188, 42.56834 ], [ -71.84573, 42.55554 ], [ -71.84849, 42.55348 ] ] } },
{ "type": "Feature", "properties": { "shape_id": "9850001" }, "geometry": { "type": "LineString", "coordinates": [ [ -71.7941, 42.26118 ], [ -71.78329, 42.26454 ], [ -71.77111, 42.27205 ], [ -71.76533, 42.27059 ], [ -71.76168, 42.25955 ], [ -71.75113, 42.24949 ], [ -71.74762, 42.23685 ], [ -71.74123, 42.23378 ], [ -71.71803, 42.23741 ], [ -71.70171, 42.24325 ], [ -71.68672, 42.24569 ], [ -71.6671, 42.25592 ], [ -71.65012, 42.26877 ], [ -71.62086, 42.27452 ], [ -71.60791, 42.27102 ], [ -71.59534, 42.26947 ], [ -71.55255, 42.26764 ], [ -71.54287, 42.26563 ], [ -71.51351, 42.26761 ], [ -71.50168, 42.26562 ], [ -71.48265, 42.26155 ], [ -71.45513, 42.26016 ], [ -71.44819, 42.26525 ], [ -71.44122, 42.27333 ], [ -71.4133, 42.27773 ], [ -71.38797, 42.28334 ], [ -71.35554, 42.28456 ], [ -71.33366, 42.28879 ], [ -71.31323, 42.29618 ], [ -71.29409, 42.29751 ], [ -71.27703, 42.31061 ], [ -71.27196, 42.32568 ], [ -71.27117, 42.33349 ], [ -71.25604, 42.34167 ], [ -71.24898, 42.34615 ], [ -71.20551, 42.35168 ], [ -71.17608, 42.35806 ], [ -71.14984, 42.35786 ], [ -71.11675, 42.35325 ], [ -71.10418, 42.34824 ], [ -71.06459, 42.34698 ], [ -71.05772, 42.34665 ], [ -71.05509, 42.3515 ] ] } },
{ "type": "Feature", "properties": { "shape_id": "9850002" }, "geometry": { "type": "LineString", "coordinates": [ [ -71.05509, 42.3515 ], [ -71.05878, 42.34602 ], [ -71.07783, 42.34759 ], [ -71.10675, 42.34871 ], [ -71.12319, 42.35491 ], [ -71.14984, 42.35786 ], [ -71.17608, 42.35806 ], [ -71.23079, 42.34785 ], [ -71.25295, 42.34474 ], [ -71.26157, 42.33795 ], [ -71.27117, 42.33349 ], [ -71.2746, 42.31685 ], [ -71.28021, 42.30747 ], [ -71.29671, 42.29664 ], [ -71.31822, 42.29501 ], [ -71.34359, 42.28626 ], [ -71.36364, 42.28356 ], [ -71.3952, 42.28252 ], [ -71.42827, 42.27497 ], [ -71.44122, 42.27333 ], [ -71.45324, 42.26083 ], [ -71.46453, 42.26002 ], [ -71.49263, 42.26311 ], [ -71.50459, 42.26556 ], [ -71.51984, 42.2679 ], [ -71.54763, 42.26602 ], [ -71.56011, 42.26867 ], [ -71.60678, 42.27049 ], [ -71.61832, 42.27436 ], [ -71.63967, 42.27123 ], [ -71.65399, 42.26689 ], [ -71.67437, 42.25107 ], [ -71.69296, 42.24419 ], [ -71.71083, 42.24086 ], [ -71.72555, 42.2355 ], [ -71.74443, 42.23444 ], [ -71.7493, 42.23976 ], [ -71.7529, 42.25221 ], [ -71.76374, 42.26306 ], [ -71.76533, 42.27059 ], [ -71.77274, 42.27174 ], [ -71.78773, 42.26268 ], [ -71.7941, 42.26118 ] ] } },
{ "type": "Feature", "properties": { "shape_id": "9860001" }, "geometry": { "type": "LineString", "coordinates": [ [ -71.23606, 42.29308 ], [ -71.23858, 42.27304 ], [ -71.17319, 42.28004 ], [ -71.16335, 42.27918 ], [ -71.14945, 42.28637 ], [ -71.12961, 42.28767 ], [ -71.11243, 42.30265 ], [ -71.09496, 42.33162 ], [ -71.07497, 42.34747 ], [ -71.05874, 42.34594 ], [ -71.0548, 42.35176 ] ] } },
{ "type": "Feature", "properties": { "shape_id": "9860002" }, "geometry": { "type": "LineString", "coordinates": [ [ -71.0548, 42.35176 ], [ -71.05874, 42.34594 ], [ -71.07624, 42.34714 ], [ -71.09742, 42.32836 ], [ -71.11558, 42.29877 ], [ -71.13131, 42.28712 ], [ -71.15207, 42.28573 ], [ -71.16463, 42.27901 ], [ -71.18138, 42.27994 ], [ -71.23858, 42.27304 ], [ -71.23606, 42.29308 ] ] } },
{ "type": "Feature", "properties": { "shape_id": "9870001" }, "geometry": { "type": "LineString", "coordinates": [ [ -71.13346, 42.23785 ], [ -71.11323, 42.25844 ], [ -71.1, 42.26802 ], [ -71.07888, 42.28872 ], [ -71.07863, 42.30284 ], [ -71.06999, 42.31522 ], [ -71.06355, 42.33077 ], [ -71.06009, 42.33876 ], [ -71.05768, 42.34645 ], [ -71.0548, 42.35176 ] ] } },
{ "type": "Feature", "properties": { "shape_id": "9870002" }, "geometry": { "type": "LineString", "coordinates": [ [ -71.0548, 42.35176 ], [ -71.06012, 42.33971 ], [ -71.0626, 42.33229 ], [ -71.06904, 42.31757 ], [ -71.07675, 42.30517 ], [ -71.07932, 42.29954 ], [ -71.07888, 42.28872 ], [ -71.10513, 42.26312 ], [ -71.12183, 42.25116 ], [ -71.13346, 42.23785 ] ] } },
{ "type": "Feature", "properties": { "shape_id": "9880002" }, "geometry": { "type": "LineString", "coordinates": [ [ -71.43958, 42.08989 ], [ -71.4328, 42.08909 ], [ -71.42175, 42.08747 ], [ -71.41513, 42.08662 ], [ -71.40807, 42.07883 ], [ -71.40258, 42.07898 ], [ -71.3547, 42.10929 ], [ -71.26931, 42.14081 ], [ -71.24868, 42.1507 ], [ -71.21701, 42.17396 ], [ -71.2014, 42.1841 ], [ -71.19626, 42.20058 ], [ -71.19345, 42.20958 ], [ -71.17906, 42.22503 ], [ -71.15187, 42.23515 ], [ -71.13417, 42.23751 ], [ -71.11323, 42.25844 ], [ -71.1, 42.26802 ], [ -71.07888, 42.28872 ], [ -71.07863, 42.30284 ], [ -71.06999, 42.31522 ], [ -71.06355, 42.33077 ], [ -71.06009, 42.33876 ], [ -71.05768, 42.34645 ], [ -71.0548, 42.35176 ] ] } },
{ "type": "Feature", "properties": { "shape_id": "9880003" }, "geometry": { "type": "LineString", "coordinates": [ [ -71.0548, 42.35176 ], [ -71.06012, 42.33971 ], [ -71.0626, 42.33229 ], [ -71.06904, 42.31757 ], [ -71.07675, 42.30517 ], [ -71.07932, 42.29954 ], [ -71.07888, 42.28872 ], [ -71.10513, 42.26312 ], [ -71.12183, 42.25116 ], [ -71.13417, 42.23751 ], [ -71.1579, 42.23359 ], [ -71.18264, 42.22253 ], [ -71.19589, 42.20554 ], [ -71.19996, 42.18804 ], [ -71.20339, 42.1821 ], [ -71.22117, 42.17067 ], [ -71.24868, 42.1507 ], [ -71.26931, 42.14081 ], [ -71.35787, 42.10803 ], [ -71.40373, 42.07848 ], [ -71.40922, 42.07967 ], [ -71.41513, 42.08662 ], [ -71.42175, 42.08747 ], [ -71.4328, 42.08909 ], [ -71.43958, 42.08989 ] ] } },
{ "type": "Feature", "properties": { "shape_id": "9880005" }, "geometry": { "type": "LineString", "coordinates": [ [ -71.43958, 42.08989 ], [ -71.4328, 42.08909 ], [ -71.42175, 42.08747 ], [ -71.41513, 42.08662 ], [ -71.40807, 42.07883 ], [ -71.40258, 42.07898 ], [ -71.3547, 42.10929 ], [ -71.26931, 42.14081 ], [ -71.24868, 42.1507 ], [ -71.21701, 42.17396 ], [ -71.2014, 42.1841 ], [ -71.19626, 42.20058 ], [ -71.19345, 42.20958 ], [ -71.17906, 42.22503 ], [ -71.15187, 42.23515 ], [ -71.13563, 42.23691 ], [ -71.12381, 42.26084 ], [ -71.11712, 42.29583 ], [ -71.09496, 42.33162 ], [ -71.07497, 42.34747 ], [ -71.05874, 42.34594 ], [ -71.0548, 42.35176 ] ] } },
{ "type": "Feature", "properties": { "shape_id": "9880006" }, "geometry": { "type": "LineString", "coordinates": [ [ -71.0548, 42.35176 ], [ -71.05874, 42.34594 ], [ -71.07624, 42.34714 ], [ -71.09742, 42.32836 ], [ -71.11915, 42.29039 ], [ -71.1246, 42.25738 ], [ -71.13563, 42.23691 ], [ -71.1579, 42.23359 ], [ -71.18264, 42.22253 ], [ -71.19589, 42.20554 ], [ -71.19996, 42.18804 ], [ -71.20339, 42.1821 ], [ -71.22117, 42.17067 ], [ -71.24868, 42.1507 ], [ -71.26931, 42.14081 ], [ -71.35787, 42.10803 ], [ -71.40373, 42.07848 ], [ -71.40922, 42.07967 ], [ -71.41513, 42.08662 ], [ -71.42175, 42.08747 ], [ -71.4328, 42.08909 ], [ -71.43958, 42.08989 ] ] } },
{ "type": "Feature", "properties": { "shape_id": "9890003" }, "geometry": { "type": "LineString", "coordinates": [ [ -71.10425, 42.12459 ], [ -71.11977, 42.13145 ], [ -71.1292, 42.14807 ], [ -71.15215, 42.16126 ], [ -71.15413, 42.1665 ], [ -71.15504, 42.19372 ], [ -71.12381, 42.26084 ], [ -71.11712, 42.29583 ], [ -71.09496, 42.33162 ], [ -71.07497, 42.34747 ], [ -71.05874, 42.34594 ], [ -71.0548, 42.35176 ] ] } },
{ "type": "Feature", "properties": { "shape_id": "9890004" }, "geometry": { "type": "LineString", "coordinates": [ [ -71.0548, 42.35176 ], [ -71.05874, 42.34594 ], [ -71.07624, 42.34714 ], [ -71.09742, 42.32836 ], [ -71.11915, 42.29039 ], [ -71.1246, 42.25738 ], [ -71.15563, 42.1908 ], [ -71.15382, 42.16275 ], [ -71.13388, 42.15053 ], [ -71.12602, 42.1446 ], [ -71.11977, 42.13145 ], [ -71.10425, 42.12459 ] ] } },
{ "type": "Feature", "properties": { "shape_id": "9890008" }, "geometry": { "type": "LineString", "coordinates": [ [ -71.49159, 41.58033 ], [ -71.45498, 41.65039 ], [ -71.44652, 41.66301 ], [ -71.45023, 41.68336 ], [ -71.45404, 41.69429 ], [ -71.42164, 41.78566 ], [ -71.43026, 41.8 ], [ -71.44106, 41.80442 ], [ -71.43951, 41.81754 ], [ -71.43359, 41.82447 ], [ -71.41552, 41.82748 ], [ -71.41226, 41.83116 ], [ -71.41685, 41.84099 ], [ -71.39564, 41.87661 ], [ -71.38582, 41.88359 ], [ -71.38354, 41.89173 ], [ -71.32129, 41.90374 ], [ -71.30976, 41.90711 ], [ -71.2053, 42.05536 ], [ -71.19681, 42.07474 ], [ -71.18981, 42.11684 ], [ -71.171, 42.13861 ], [ -71.1557, 42.15429 ], [ -71.15409, 42.16649 ], [ -71.15504, 42.19371 ], [ -71.12381, 42.26084 ], [ -71.11712, 42.29583 ], [ -71.09496, 42.33162 ], [ -71.07497, 42.34747 ], [ -71.05874, 42.34594 ], [ -71.0548, 42.35176 ] ] } },
{ "type": "Feature", "properties": { "shape_id": "9890009" }, "geometry": { "type": "LineString", "coordinates": [ [ -71.0548, 42.35176 ], [ -71.05874, 42.34594 ], [ -71.07624, 42.34714 ], [ -71.09742, 42.32836 ], [ -71.11915, 42.29039 ], [ -71.1246, 42.25738 ], [ -71.15563, 42.1908 ], [ -71.15456, 42.15658 ], [ -71.16777, 42.14143 ], [ -71.18719, 42.12074 ], [ -71.1919, 42.10967 ], [ -71.19879, 42.06758 ], [ -71.21787, 42.03567 ], [ -71.30976, 41.90711 ], [ -71.3285, 41.90247 ], [ -71.38354, 41.89173 ], [ -71.38714, 41.88193 ], [ -71.39844, 41.87373 ], [ -71.41684, 41.83985 ], [ -71.41235, 41.83022 ], [ -71.41808, 41.82703 ], [ -71.43496, 41.82363 ], [ -71.44034, 41.81422 ], [ -71.44106, 41.80442 ], [ -71.42849, 41.79823 ], [ -71.42164, 41.78566 ], [ -71.45414, 41.69201 ], [ -71.44763, 41.67491 ], [ -71.4472, 41.66085 ], [ -71.4629, 41.63709 ], [ -71.49159, 41.58033 ] ] } },
{ "type": "Feature", "properties": { "shape_id": "9900001" }, "geometry": { "type": "LineString", "coordinates": [ [ -70.74641, 42.17914 ], [ -70.73964, 42.18837 ], [ -70.74272, 42.20031 ], [ -70.7649, 42.21357 ], [ -70.77646, 42.21743 ], [ -70.78963, 42.22003 ], [ -70.80292, 42.23989 ], [ -70.85215, 42.24488 ], [ -70.88007, 42.24476 ], [ -70.90133, 42.23936 ], [ -70.90565, 42.23061 ], [ -70.92003, 42.21977 ], [ -70.92539, 42.22011 ], [ -70.93918, 42.23039 ], [ -70.95339, 42.22947 ], [ -70.96847, 42.22143 ], [ -70.9981, 42.222 ], [ -71.0014, 42.22177 ], [ -71.007, 42.23295 ], [ -71.00364, 42.24871 ], [ -71.00962, 42.25636 ], [ -71.03274, 42.27977 ], [ -71.05554, 42.30219 ], [ -71.05206, 42.31956 ], [ -71.05353, 42.32397 ], [ -71.0593, 42.33003 ], [ -71.05903, 42.34425 ], [ -71.05497, 42.35161 ] ] } },
{ "type": "Feature", "properties": { "shape_id": "9900002" }, "geometry": { "type": "LineString", "coordinates": [ [ -71.05497, 42.35161 ], [ -71.05996, 42.34071 ], [ -71.05815, 42.32757 ], [ -71.05255, 42.32256 ], [ -71.05227, 42.31337 ], [ -71.05519, 42.30104 ], [ -71.03236, 42.27869 ], [ -71.00456, 42.25055 ], [ -71.00427, 42.24373 ], [ -71.00666, 42.22976 ], [ -70.99998, 42.22149 ], [ -70.98385, 42.2223 ], [ -70.96723, 42.22177 ], [ -70.94986, 42.23038 ], [ -70.93756, 42.22989 ], [ -70.92539, 42.22011 ], [ -70.92003, 42.21977 ], [ -70.90318, 42.23347 ], [ -70.90042, 42.24004 ], [ -70.87832, 42.24491 ], [ -70.83877, 42.24436 ], [ -70.80292, 42.23989 ], [ -70.78963, 42.22003 ], [ -70.77242, 42.2164 ], [ -70.74491, 42.20262 ], [ -70.74098, 42.19608 ], [ -70.74055, 42.18622 ], [ -70.74641, 42.17914 ] ] } },
{ "type": "Feature", "properties": { "shape_id": "FallRiverToSouthStation" }, "geometry": { "type": "LineString", "coordinates": [ [ -71.15467, 41.71306 ], [ -71.1482, 41.72162 ], [ -71.13857, 41.72982 ], [ -71.13267, 41.73863 ], [ -71.12251, 41.75675 ], [ -71.1164, 41.76354 ], [ -71.07157, 41.78223 ], [ -71.05798, 41.79516 ], [ -71.05085, 41.80279 ], [ -71.03811, 41.81269 ], [ -71.02674, 41.82782 ], [ -71.0642, 41.87095 ], [ -71.03024, 41.88527 ], [ -70.92331, 41.88701 ], [ -70.91935, 41.89045 ], [ -70.92641, 41.91073 ], [ -70.96355, 41.983 ], [ -70.98006, 42.00199 ], [ -70.98382, 42.03111 ], [ -71.01399, 42.06559 ], [ -71.0166, 42.08706 ], [ -71.01829, 42.10131 ], [ -71.02463, 42.11371 ], [ -71.0272, 42.13257 ], [ -71.02915, 42.15137 ], [ -71.01768, 42.17989 ], [ -71.00614, 42.18992 ], [ -71.00006, 42.21868 ], [ -71.00718, 42.23237 ], [ -71.00414, 42.24954 ], [ -71.03239, 42.27857 ], [ -71.05562, 42.30193 ], [ -71.05208, 42.32006 ], [ -71.05537, 42.32545 ], [ -71.0592, 42.33064 ], [ -71.05932, 42.34386 ], [ -71.0548, 42.35078 ] ] } },
{ "type": "Feature", "properties": { "shape_id": "FoxboroToSouthStationViaBackBay" }, "geometry": { "type": "LineString", "coordinates": [ [ -71.26181, 42.09579 ], [ -71.26524, 42.114 ], [ -71.25609, 42.14647 ], [ -71.23328, 42.16113 ], [ -71.2062, 42.18076 ], [ -71.20093, 42.18528 ], [ -71.19626, 42.20058 ], [ -71.19345, 42.20958 ], [ -71.17906, 42.22503 ], [ -71.15187, 42.23515 ], [ -71.13563, 42.23691 ], [ -71.12381, 42.26084 ], [ -71.11712, 42.29583 ], [ -71.09496, 42.33162 ], [ -71.07497, 42.34747 ], [ -71.05874, 42.34594 ], [ -71.0548, 42.35176 ] ] } },
{ "type": "Feature", "properties": { "shape_id": "FoxboroToSouthStationViaFairmount" }, "geometry": { "type": "LineString", "coordinates": [ [ -71.26181, 42.09579 ], [ -71.26524, 42.114 ], [ -71.25609, 42.14647 ], [ -71.23328, 42.16113 ], [ -71.2062, 42.18076 ], [ -71.20093, 42.18528 ], [ -71.19626, 42.20058 ], [ -71.19345, 42.20958 ], [ -71.17906, 42.22503 ], [ -71.15187, 42.23515 ], [ -71.13417, 42.23751 ], [ -71.11323, 42.25844 ], [ -71.1, 42.26802 ], [ -71.07888, 42.28872 ], [ -71.07863, 42.30284 ], [ -71.06999, 42.31522 ], [ -71.06355, 42.33077 ], [ -71.06009, 42.33876 ], [ -71.05768, 42.34645 ], [ -71.0548, 42.35176 ] ] } },
{ "type": "Feature", "properties": { "shape_id": "NewBedfordToSouthStation" }, "geometry": { "type": "LineString", "coordinates": [ [ -70.92494, 41.6432 ], [ -70.93833, 41.66859 ], [ -70.94549, 41.69416 ], [ -70.99462, 41.79626 ], [ -71.04324, 41.84574 ], [ -71.0642, 41.87095 ], [ -71.03024, 41.88527 ], [ -70.92331, 41.88701 ], [ -70.91935, 41.89045 ], [ -70.92641, 41.91073 ], [ -70.96355, 41.983 ], [ -70.98006, 42.00199 ], [ -70.98382, 42.03111 ], [ -71.01399, 42.06559 ], [ -71.0166, 42.08706 ], [ -71.01829, 42.10131 ], [ -71.02463, 42.11371 ], [ -71.0272, 42.13257 ], [ -71.02915, 42.15137 ], [ -71.01768, 42.17989 ], [ -71.00614, 42.18992 ], [ -71.00006, 42.21868 ], [ -71.00718, 42.23237 ], [ -71.00414, 42.24954 ], [ -71.03239, 42.27857 ], [ -71.05562, 42.30193 ], [ -71.05208, 42.32006 ], [ -71.05537, 42.32545 ], [ -71.0592, 42.33064 ], [ -71.05932, 42.34386 ], [ -71.0548, 42.35078 ] ] } },
{ "type": "Feature", "properties": { "shape_id": "ProvidenceToSouthStationViaFoxboro" }, "geometry": { "type": "LineString", "coordinates": [ [ -71.41329, 41.82922 ], [ -71.41331, 41.83382 ], [ -71.41685, 41.84099 ], [ -71.39564, 41.87661 ], [ -71.38582, 41.88359 ], [ -71.38354, 41.89173 ], [ -71.32129, 41.90374 ], [ -71.30976, 41.90711 ], [ -71.21912, 42.03556 ], [ -71.23783, 42.05398 ], [ -71.25077, 42.07164 ], [ -71.26347, 42.10233 ], [ -71.26524, 42.114 ], [ -71.25609, 42.14647 ], [ -71.23328, 42.16113 ], [ -71.2062, 42.18076 ], [ -71.20093, 42.18528 ], [ -71.19626, 42.20058 ], [ -71.19345, 42.20958 ], [ -71.17906, 42.22503 ], [ -71.15187, 42.23515 ], [ -71.13563, 42.23691 ], [ -71.12381, 42.26084 ], [ -71.11712, 42.29583 ], [ -71.09496, 42.33162 ], [ -71.07497, 42.34747 ], [ -71.05874, 42.34594 ], [ -71.0548, 42.35176 ] ] } },
{ "type": "Feature", "properties": { "shape_id": "SouthStationToFallRiver" }, "geometry": { "type": "LineString", "coordinates": [ [ -71.0548, 42.35078 ], [ -71.06, 42.34087 ], [ -71.05775, 42.32731 ], [ -71.05231, 42.32159 ], [ -71.05375, 42.30999 ], [ -71.05528, 42.30094 ], [ -71.03239, 42.27857 ], [ -71.00414, 42.24954 ], [ -71.00698, 42.22981 ], [ -71.00004, 42.21715 ], [ -71.00416, 42.19955 ], [ -71.00783, 42.18713 ], [ -71.01953, 42.17715 ], [ -71.02956, 42.14727 ], [ -71.02729, 42.13155 ], [ -71.02275, 42.10771 ], [ -71.01682, 42.09633 ], [ -71.01455, 42.06761 ], [ -71.00825, 42.05803 ], [ -70.98295, 42.02916 ], [ -70.97907, 42.00007 ], [ -70.9587, 41.9756 ], [ -70.91998, 41.89547 ], [ -70.92047, 41.88841 ], [ -70.92708, 41.88656 ], [ -71.03024, 41.88527 ], [ -71.0642, 41.87095 ], [ -71.02999, 41.8321 ], [ -71.02688, 41.82654 ], [ -71.04417, 41.80749 ], [ -71.05579, 41.79854 ], [ -71.06764, 41.7857 ], [ -71.07839, 41.77845 ], [ -71.11794, 41.76249 ], [ -71.12336, 41.75446 ], [ -71.13267, 41.73863 ], [ -71.14228, 41.72592 ], [ -71.15172, 41.71762 ], [ -71.15467, 41.71306 ] ] } },
{ "type": "Feature", "properties": { "shape_id": "SouthStationToFoxboroViaBackBay" }, "geometry": { "type": "LineString", "coordinates": [ [ -71.0548, 42.35176 ], [ -71.05874, 42.34594 ], [ -71.07624, 42.34714 ], [ -71.09742, 42.32836 ], [ -71.11915, 42.29039 ], [ -71.1246, 42.25738 ], [ -71.13563, 42.23691 ], [ -71.1579, 42.23359 ], [ -71.18264, 42.22253 ], [ -71.19589, 42.20554 ], [ -71.19996, 42.18804 ], [ -71.20339, 42.1821 ], [ -71.22117, 42.17067 ], [ -71.24868, 42.1507 ], [ -71.25776, 42.1445 ], [ -71.26571, 42.11048 ], [ -71.26181, 42.09579 ] ] } },
{ "type": "Feature", "properties": { "shape_id": "SouthStationToFoxboroViaFairmount" }, "geometry": { "type": "LineString", "coordinates": [ [ -71.0548, 42.35176 ], [ -71.06012, 42.33971 ], [ -71.0626, 42.33229 ], [ -71.06904, 42.31757 ], [ -71.07675, 42.30517 ], [ -71.07932, 42.29954 ], [ -71.07888, 42.28872 ], [ -71.10513, 42.26312 ], [ -71.12183, 42.25116 ], [ -71.13417, 42.23751 ], [ -71.1579, 42.23359 ], [ -71.18264, 42.22253 ], [ -71.19589, 42.20554 ], [ -71.19996, 42.18804 ], [ -71.20339, 42.1821 ], [ -71.22117, 42.17067 ], [ -71.24868, 42.1507 ], [ -71.25776, 42.1445 ], [ -71.26571, 42.11048 ], [ -71.26181, 42.09579 ] ] } },
{ "type": "Feature", "properties": { "shape_id": "SouthStationToNewBedford" }, "geometry": { "type": "LineString", "coordinates": [ [ -71.0548, 42.35078 ], [ -71.06, 42.34087 ], [ -71.05775, 42.32731 ], [ -71.05231, 42.32159 ], [ -71.05375, 42.30999 ], [ -71.05528, 42.30094 ], [ -71.03239, 42.27857 ], [ -71.00414, 42.24954 ], [ -71.00698, 42.22981 ], [ -71.00004, 42.21715 ], [ -71.00416, 42.19955 ], [ -71.00783, 42.18713 ], [ -71.01953, 42.17715 ], [ -71.02956, 42.14727 ], [ -71.02729, 42.13155 ], [ -71.02275, 42.10771 ], [ -71.01682, 42.09633 ], [ -71.01455, 42.06761 ], [ -71.00825, 42.05803 ], [ -70.98295, 42.02916 ], [ -70.97907, 42.00007 ], [ -70.9587, 41.9756 ], [ -70.91998, 41.89547 ], [ -70.92047, 41.88841 ], [ -70.92708, 41.88656 ], [ -71.03024, 41.88527 ], [ -71.0642, 41.87095 ], [ -71.02921, 41.83139 ], [ -70.99214, 41.79227 ], [ -70.94135, 41.68328 ], [ -70.9365, 41.66426 ], [ -70.92494, 41.6432 ] ] } },
{ "type": "Feature", "properties": { "shape_id": "SouthStationToStoughtonViaFairmount" }, "geometry": { "type": "LineString", "coordinates": [ [ -71.0548, 42.35176 ], [ -71.06012, 42.33971 ], [ -71.0626, 42.33229 ], [ -71.06904, 42.31757 ], [ -71.07675, 42.30517 ], [ -71.07932, 42.29954 ], [ -71.07888, 42.28872 ], [ -71.10513, 42.26312 ], [ -71.12183, 42.25116 ], [ -71.13749, 42.2303 ], [ -71.15563, 42.1908 ], [ -71.15382, 42.16275 ], [ -71.13388, 42.15053 ], [ -71.12602, 42.1446 ], [ -71.11977, 42.13145 ], [ -71.10425, 42.12459 ] ] } },
{ "type": "Feature", "properties": { "shape_id": "canonical-9790001" }, "geometry": { "type": "LineString", "coordinates": [ [ -70.72343, 41.9766 ], [ -70.71718, 41.98324 ], [ -70.71972, 41.99431 ], [ -70.73509, 41.99906 ], [ -70.75882, 42.00234 ], [ -70.80311, 42.00475 ], [ -70.88761, 42.04751 ], [ -70.90899, 42.06404 ], [ -70.9285, 42.09134 ], [ -70.94842, 42.1473 ], [ -70.95715, 42.16451 ], [ -70.96897, 42.18232 ], [ -70.9756, 42.18775 ], [ -70.98531, 42.19071 ], [ -70.99214, 42.19521 ], [ -71.00132, 42.19911 ], [ -71.00043, 42.21474 ], [ -71.00167, 42.22196 ], [ -71.00719, 42.23196 ], [ -71.00418, 42.2496 ], [ -71.03239, 42.27859 ], [ -71.05564, 42.30209 ], [ -71.0521, 42.32018 ], [ -71.05531, 42.3254 ], [ -71.05921, 42.3309 ], [ -71.05879, 42.34462 ], [ -71.05521, 42.34998 ] ] } },
{ "type": "Feature", "properties": { "shape_id": "canonical-9790002" }, "geometry": { "type": "LineString", "coordinates": [ [ -71.05521, 42.34998 ], [ -71.06, 42.34082 ], [ -71.05806, 42.32759 ], [ -71.05232, 42.32166 ], [ -71.05358, 42.31039 ], [ -71.05536, 42.30112 ], [ -71.03239, 42.27859 ], [ -71.00418, 42.2496 ], [ -71.00702, 42.22997 ], [ -71.00002, 42.21722 ], [ -71.00193, 42.2 ], [ -70.99401, 42.19577 ], [ -70.98602, 42.19156 ], [ -70.9795, 42.18851 ], [ -70.97139, 42.18532 ], [ -70.95743, 42.16548 ], [ -70.95012, 42.15002 ], [ -70.94275, 42.13299 ], [ -70.92539, 42.0853 ], [ -70.90276, 42.05817 ], [ -70.87381, 42.03955 ], [ -70.80179, 42.00452 ], [ -70.74422, 42.0008 ], [ -70.72189, 41.99549 ], [ -70.71767, 41.99069 ], [ -70.71817, 41.98139 ], [ -70.72343, 41.9766 ] ] } },
{ "type": "Feature", "properties": { "shape_id": "canonical-9810001" }, "geometry": { "type": "LineString", "coordinates": [ [ -70.87822, 42.7982 ], [ -70.84704, 42.687 ], [ -70.84052, 42.67736 ], [ -70.85817, 42.64031 ], [ -70.87386, 42.61171 ], [ -70.88446, 42.57988 ], [ -70.88658, 42.54335 ], [ -70.89417, 42.52732 ], [ -70.89606, 42.51675 ], [ -70.89961, 42.50511 ], [ -70.91452, 42.48299 ], [ -70.9211, 42.47461 ], [ -70.96869, 42.45079 ], [ -71.00511, 42.40452 ], [ -71.02849, 42.39467 ], [ -71.06088, 42.40161 ], [ -71.06955, 42.39666 ], [ -71.07635, 42.39082 ], [ -71.07617, 42.37767 ], [ -71.06261, 42.36671 ] ] } },
{ "type": "Feature", "properties": { "shape_id": "canonical-9810002" }, "geometry": { "type": "LineString", "coordinates": [ [ -71.06261, 42.36671 ], [ -71.07668, 42.37868 ], [ -71.07523, 42.39237 ], [ -71.06297, 42.40122 ], [ -71.05433, 42.40054 ], [ -71.02624, 42.39489 ], [ -71.00266, 42.40657 ], [ -70.96753, 42.45177 ], [ -70.91852, 42.47666 ], [ -70.90773, 42.49296 ], [ -70.89679, 42.51095 ], [ -70.89514, 42.52595 ], [ -70.88737, 42.54112 ], [ -70.88519, 42.5573 ], [ -70.88357, 42.58449 ], [ -70.86699, 42.62597 ], [ -70.85136, 42.65365 ], [ -70.8406, 42.67833 ], [ -70.85029, 42.6943 ], [ -70.87822, 42.7982 ] ] } },
{ "type": "Feature", "properties": { "shape_id": "canonical-9810006" }, "geometry": { "type": "LineString", "coordinates": [ [ -70.62646, 42.656 ], [ -70.63388, 42.64807 ], [ -70.63837, 42.63949 ], [ -70.66388, 42.62587 ], [ -70.66497, 42.6171 ], [ -70.68825, 42.61744 ], [ -70.70265, 42.61422 ], [ -70.73281, 42.58957 ], [ -70.74664, 42.58289 ], [ -70.76288, 42.57533 ], [ -70.77906, 42.56995 ], [ -70.78552, 42.56567 ], [ -70.83422, 42.55897 ], [ -70.85048, 42.56518 ], [ -70.86806, 42.56248 ], [ -70.88268, 42.55614 ], [ -70.88512, 42.55192 ], [ -70.8907, 42.53223 ], [ -70.89598, 42.52378 ], [ -70.89845, 42.50691 ], [ -70.91452, 42.48299 ], [ -70.9211, 42.47461 ], [ -70.96869, 42.45079 ], [ -71.00511, 42.40452 ], [ -71.02849, 42.39467 ], [ -71.06088, 42.40161 ], [ -71.06955, 42.39666 ], [ -71.07635, 42.39082 ], [ -71.07617, 42.37767 ], [ -71.06261, 42.36671 ] ] } },
{ "type": "Feature", "properties": { "shape_id": "canonical-9810007" }, "geometry": { "type": "LineString", "coordinates": [ [ -71.06261, 42.36671 ], [ -71.07668, 42.37868 ], [ -71.07523, 42.39237 ], [ -71.06297, 42.40122 ], [ -71.05433, 42.40054 ], [ -71.02624, 42.39489 ], [ -71.00266, 42.40657 ], [ -70.96753, 42.45177 ], [ -70.91852, 42.47666 ], [ -70.90773, 42.49296 ], [ -70.89679, 42.51095 ], [ -70.89514, 42.52595 ], [ -70.88737, 42.54112 ], [ -70.88401, 42.5551 ], [ -70.86987, 42.56191 ], [ -70.85173, 42.5652 ], [ -70.83944, 42.56113 ], [ -70.83003, 42.55879 ], [ -70.78256, 42.56679 ], [ -70.77298, 42.57257 ], [ -70.75592, 42.57812 ], [ -70.74479, 42.58328 ], [ -70.72356, 42.59614 ], [ -70.69965, 42.61542 ], [ -70.67568, 42.618 ], [ -70.66497, 42.6171 ], [ -70.66268, 42.62694 ], [ -70.6364, 42.64133 ], [ -70.63103, 42.6518 ], [ -70.62646, 42.656 ] ] } },
{ "type": "Feature", "properties": { "shape_id": "canonical-9820001" }, "geometry": { "type": "LineString", "coordinates": [ [ -71.08622, 42.77303 ], [ -71.08695, 42.76812 ], [ -71.10858, 42.75228 ], [ -71.11762, 42.73523 ], [ -71.1334, 42.71949 ], [ -71.13251, 42.7085 ], [ -71.14026, 42.703 ], [ -71.15943, 42.70042 ], [ -71.16139, 42.69526 ], [ -71.14253, 42.67004 ], [ -71.14528, 42.65602 ], [ -71.16036, 42.63294 ], [ -71.16017, 42.61894 ], [ -71.16696, 42.58929 ], [ -71.16689, 42.57792 ], [ -71.12774, 42.53402 ], [ -71.10948, 42.52273 ], [ -71.08384, 42.5103 ], [ -71.06978, 42.4938 ], [ -71.06635, 42.48104 ], [ -71.06724, 42.47238 ], [ -71.07009, 42.45962 ], [ -71.0711, 42.43524 ], [ -71.07677, 42.41574 ], [ -71.07617, 42.37767 ], [ -71.06261, 42.36671 ] ] } },
{ "type": "Feature", "properties": { "shape_id": "canonical-9820002" }, "geometry": { "type": "LineString", "coordinates": [ [ -71.06261, 42.36671 ], [ -71.07695, 42.37965 ], [ -71.0762, 42.42173 ], [ -71.07045, 42.441 ], [ -71.07009, 42.45962 ], [ -71.06567, 42.47953 ], [ -71.06942, 42.49073 ], [ -71.07354, 42.4998 ], [ -71.08733, 42.51287 ], [ -71.11997, 42.52841 ], [ -71.13537, 42.54175 ], [ -71.16804, 42.58083 ], [ -71.16155, 42.6154 ], [ -71.15978, 42.62647 ], [ -71.15952, 42.63549 ], [ -71.14405, 42.6597 ], [ -71.14253, 42.67004 ], [ -71.1618, 42.6966 ], [ -71.15808, 42.70099 ], [ -71.13759, 42.70396 ], [ -71.13202, 42.70964 ], [ -71.13245, 42.72147 ], [ -71.11435, 42.7396 ], [ -71.10564, 42.75527 ], [ -71.08695, 42.76812 ], [ -71.08622, 42.77303 ] ] } },
{ "type": "Feature", "properties": { "shape_id": "canonical-9830005" }, "geometry": { "type": "LineString", "coordinates": [ [ -71.31446, 42.6353 ], [ -71.30306, 42.62485 ], [ -71.28891, 42.61382 ], [ -71.27893, 42.59078 ], [ -71.27091, 42.58789 ], [ -71.25603, 42.58843 ], [ -71.18814, 42.55864 ], [ -71.1756, 42.54808 ], [ -71.14998, 42.52567 ], [ -71.1349, 42.49868 ], [ -71.13124, 42.48608 ], [ -71.1264, 42.47854 ], [ -71.14171, 42.44263 ], [ -71.14532, 42.43564 ], [ -71.14186, 42.42873 ], [ -71.11554, 42.40612 ], [ -71.10291, 42.39088 ], [ -71.09073, 42.38376 ], [ -71.08384, 42.37858 ], [ -71.07696, 42.37784 ], [ -71.06279, 42.36672 ] ] } },
{ "type": "Feature", "properties": { "shape_id": "canonical-9830006" }, "geometry": { "type": "LineString", "coordinates": [ [ -71.06279, 42.36672 ], [ -71.0799, 42.3787 ], [ -71.08636, 42.3797 ], [ -71.0966, 42.38799 ], [ -71.10641, 42.3939 ], [ -71.12255, 42.413 ], [ -71.14487, 42.43267 ], [ -71.1442, 42.44008 ], [ -71.13787, 42.45082 ], [ -71.1264, 42.47854 ], [ -71.13343, 42.49137 ], [ -71.14035, 42.5104 ], [ -71.15392, 42.52991 ], [ -71.17847, 42.55159 ], [ -71.19679, 42.56316 ], [ -71.25926, 42.58901 ], [ -71.27405, 42.58834 ], [ -71.28073, 42.59282 ], [ -71.29014, 42.61565 ], [ -71.31292, 42.63286 ], [ -71.31446, 42.6353 ] ] } },
{ "type": "Feature", "properties": { "shape_id": "canonical-9840003" }, "geometry": { "type": "LineString", "coordinates": [ [ -71.84849, 42.55348 ], [ -71.84444, 42.55812 ], [ -71.84081, 42.5698 ], [ -71.82571, 42.5803 ], [ -71.8121, 42.58505 ], [ -71.80034, 42.58127 ], [ -71.79183, 42.58013 ], [ -71.78593, 42.57236 ], [ -71.7665, 42.56739 ], [ -71.75316, 42.55836 ], [ -71.72692, 42.52527 ], [ -71.71455, 42.522 ], [ -71.71011, 42.52487 ], [ -71.70233, 42.53652 ], [ -71.68909, 42.54221 ], [ -71.66984, 42.54594 ], [ -71.6483, 42.54511 ], [ -71.59324, 42.55909 ], [ -71.57799, 42.55707 ], [ -71.56573, 42.55584 ], [ -71.5381, 42.55764 ], [ -71.51109, 42.53666 ], [ -71.49513, 42.50716 ], [ -71.47263, 42.47474 ], [ -71.46647, 42.46299 ], [ -71.45551, 42.4601 ], [ -71.44294, 42.4583 ], [ -71.42908, 42.45515 ], [ -71.40935, 42.45523 ], [ -71.39246, 42.45711 ], [ -71.36164, 42.45767 ], [ -71.35486, 42.45389 ], [ -71.34616, 42.4396 ], [ -71.32089, 42.40604 ], [ -71.31838, 42.39999 ], [ -71.29568, 42.3932 ], [ -71.27869, 42.37631 ], [ -71.27238, 42.37109 ], [ -71.2658, 42.36313 ], [ -71.2582, 42.36215 ], [ -71.24475, 42.3703 ], [ -71.23576, 42.37422 ], [ -71.22307, 42.3781 ], [ -71.18651, 42.38979 ], [ -71.17582, 42.396 ], [ -71.15043, 42.39504 ], [ -71.13031, 42.39027 ], [ -71.1168, 42.38707 ], [ -71.10289, 42.38061 ], [ -71.08713, 42.37554 ], [ -71.07038, 42.37228 ], [ -71.06279, 42.36672 ] ] } },
{ "type": "Feature", "properties": { "shape_id": "canonical-9840004" }, "geometry": { "type": "LineString", "coordinates": [ [ -71.06279, 42.36672 ], [ -71.07235, 42.37355 ], [ -71.0953, 42.37751 ], [ -71.11428, 42.38561 ], [ -71.12384, 42.38917 ], [ -71.14922, 42.39464 ], [ -71.1711, 42.39599 ], [ -71.17872, 42.39532 ], [ -71.19296, 42.38678 ], [ -71.22422, 42.37752 ], [ -71.24383, 42.37114 ], [ -71.25571, 42.36315 ], [ -71.26382, 42.36246 ], [ -71.26969, 42.36702 ], [ -71.27667, 42.3752 ], [ -71.29108, 42.3881 ], [ -71.29815, 42.39459 ], [ -71.31931, 42.40069 ], [ -71.32394, 42.41145 ], [ -71.35276, 42.44959 ], [ -71.35793, 42.45667 ], [ -71.38862, 42.45788 ], [ -71.40607, 42.45498 ], [ -71.42761, 42.45521 ], [ -71.44138, 42.45764 ], [ -71.45351, 42.46005 ], [ -71.46512, 42.46209 ], [ -71.47056, 42.46993 ], [ -71.4784, 42.48362 ], [ -71.50263, 42.51958 ], [ -71.51275, 42.53851 ], [ -71.5381, 42.55764 ], [ -71.57358, 42.55591 ], [ -71.59153, 42.55908 ], [ -71.61518, 42.55439 ], [ -71.65002, 42.54488 ], [ -71.67476, 42.54551 ], [ -71.69737, 42.53923 ], [ -71.70541, 42.53353 ], [ -71.71298, 42.52235 ], [ -71.72562, 42.52458 ], [ -71.73614, 42.53528 ], [ -71.75662, 42.56185 ], [ -71.77326, 42.56991 ], [ -71.787, 42.57296 ], [ -71.7931, 42.58089 ], [ -71.80549, 42.58279 ], [ -71.8121, 42.58505 ], [ -71.82571, 42.5803 ], [ -71.84188, 42.56834 ], [ -71.84573, 42.55554 ], [ -71.84849, 42.55348 ] ] } },
{ "type": "Feature", "properties": { "shape_id": "canonical-9850001" }, "geometry": { "type": "LineString", "coordinates": [ [ -71.7941, 42.26118 ], [ -71.78329, 42.26454 ], [ -71.77111, 42.27205 ], [ -71.76533, 42.27059 ], [ -71.76168, 42.25955 ], [ -71.75113, 42.24949 ], [ -71.74762, 42.23685 ], [ -71.74123, 42.23378 ], [ -71.71803, 42.23741 ], [ -71.70171, 42.24325 ], [ -71.68672, 42.24569 ], [ -71.6671, 42.25592 ], [ -71.65012, 42.26877 ], [ -71.62086, 42.27452 ], [ -71.60791, 42.27102 ], [ -71.59534, 42.26947 ], [ -71.55255, 42.26764 ], [ -71.54287, 42.26563 ], [ -71.51351, 42.26761 ], [ -71.50168, 42.26562 ], [ -71.48265, 42.26155 ], [ -71.45513, 42.26016 ], [ -71.44819, 42.26525 ], [ -71.44122, 42.27333 ], [ -71.4133, 42.27773 ], [ -71.38797, 42.28334 ], [ -71.35554, 42.28456 ], [ -71.33366, 42.28879 ], [ -71.31323, 42.29618 ], [ -71.29409, 42.29751 ], [ -71.27703, 42.31061 ], [ -71.27196, 42.32568 ], [ -71.27117, 42.33349 ], [ -71.25604, 42.34167 ], [ -71.24898, 42.34615 ], [ -71.20551, 42.35168 ], [ -71.17608, 42.35806 ], [ -71.14984, 42.35786 ], [ -71.11675, 42.35325 ], [ -71.10418, 42.34824 ], [ -71.06459, 42.34698 ], [ -71.05772, 42.34665 ], [ -71.05509, 42.3515 ] ] } },
{ "type": "Feature", "properties": { "shape_id": "canonical-9850002" }, "geometry": { "type": "LineString", "coordinates": [ [ -71.05509, 42.3515 ], [ -71.05878, 42.34602 ], [ -71.07783, 42.34759 ], [ -71.10675, 42.34871 ], [ -71.12319, 42.35491 ], [ -71.14984, 42.35786 ], [ -71.17608, 42.35806 ], [ -71.23079, 42.34785 ], [ -71.25295, 42.34474 ], [ -71.26157, 42.33795 ], [ -71.27117, 42.33349 ], [ -71.2746, 42.31685 ], [ -71.28021, 42.30747 ], [ -71.29671, 42.29664 ], [ -71.31822, 42.29501 ], [ -71.34359, 42.28626 ], [ -71.36364, 42.28356 ], [ -71.3952, 42.28252 ], [ -71.42827, 42.27497 ], [ -71.44122, 42.27333 ], [ -71.45324, 42.26083 ], [ -71.46453, 42.26002 ], [ -71.49263, 42.26311 ], [ -71.50459, 42.26556 ], [ -71.51984, 42.2679 ], [ -71.54763, 42.26602 ], [ -71.56011, 42.26867 ], [ -71.60678, 42.27049 ], [ -71.61832, 42.27436 ], [ -71.63967, 42.27123 ], [ -71.65399, 42.26689 ], [ -71.67437, 42.25107 ], [ -71.69296, 42.24419 ], [ -71.71083, 42.24086 ], [ -71.72555, 42.2355 ], [ -71.74443, 42.23444 ], [ -71.7493, 42.23976 ], [ -71.7529, 42.25221 ], [ -71.76374, 42.26306 ], [ -71.76533, 42.27059 ], [ -71.77274, 42.27174 ], [ -71.78773, 42.26268 ], [ -71.7941, 42.26118 ] ] } },
{ "type": "Feature", "properties": { "shape_id": "canonical-9860001" }, "geometry": { "type": "LineString", "coordinates": [ [ -71.23606, 42.29308 ], [ -71.23858, 42.27304 ], [ -71.17319, 42.28004 ], [ -71.16335, 42.27918 ], [ -71.14945, 42.28637 ], [ -71.12961, 42.28767 ], [ -71.11243, 42.30265 ], [ -71.09496, 42.33162 ], [ -71.07497, 42.34747 ], [ -71.05874, 42.34594 ], [ -71.0548, 42.35176 ] ] } },
{ "type": "Feature", "properties": { "shape_id": "canonical-9860002" }, "geometry": { "type": "LineString", "coordinates": [ [ -71.0548, 42.35176 ], [ -71.05874, 42.34594 ], [ -71.07624, 42.34714 ], [ -71.09742, 42.32836 ], [ -71.11558, 42.29877 ], [ -71.13131, 42.28712 ], [ -71.15207, 42.28573 ], [ -71.16463, 42.27901 ], [ -71.18138, 42.27994 ], [ -71.23858, 42.27304 ], [ -71.23606, 42.29308 ] ] } },
{ "type": "Feature", "properties": { "shape_id": "canonical-9870001" }, "geometry": { "type": "LineString", "coordinates": [ [ -71.13346, 42.23785 ], [ -71.11323, 42.25844 ], [ -71.1, 42.26802 ], [ -71.07888, 42.28872 ], [ -71.07863, 42.30284 ], [ -71.06999, 42.31522 ], [ -71.06355, 42.33077 ], [ -71.06009, 42.33876 ], [ -71.05768, 42.34645 ], [ -71.0548, 42.35176 ] ] } },
{ "type": "Feature", "properties": { "shape_id": "canonical-9870002" }, "geometry": { "type": "LineString", "coordinates": [ [ -71.0548, 42.35176 ], [ -71.06012, 42.33971 ], [ -71.0626, 42.33229 ], [ -71.06904, 42.31757 ], [ -71.07675, 42.30517 ], [ -71.07932, 42.29954 ], [ -71.07888, 42.28872 ], [ -71.10513, 42.26312 ], [ -71.12183, 42.25116 ], [ -71.13346, 42.23785 ] ] } },
{ "type": "Feature", "properties": { "shape_id": "canonical-9880005" }, "geometry": { "type": "LineString", "coordinates": [ [ -71.43958, 42.08989 ], [ -71.4328, 42.08909 ], [ -71.42175, 42.08747 ], [ -71.41513, 42.08662 ], [ -71.40807, 42.07883 ], [ -71.40258, 42.07898 ], [ -71.3547, 42.10929 ], [ -71.26931, 42.14081 ], [ -71.24868, 42.1507 ], [ -71.21701, 42.17396 ], [ -71.2014, 42.1841 ], [ -71.19626, 42.20058 ], [ -71.19345, 42.20958 ], [ -71.17906, 42.22503 ], [ -71.15187, 42.23515 ], [ -71.13563, 42.23691 ], [ -71.12381, 42.26084 ], [ -71.11712, 42.29583 ], [ -71.09496, 42.33162 ], [ -71.07497, 42.34747 ], [ -71.05874, 42.34594 ], [ -71.0548, 42.35176 ] ] } },
{ "type": "Feature", "properties": { "shape_id": "canonical-9880006" }, "geometry": { "type": "LineString", "coordinates": [ [ -71.0548, 42.35176 ], [ -71.05874, 42.34594 ], [ -71.07624, 42.34714 ], [ -71.09742, 42.32836 ], [ -71.11915, 42.29039 ], [ -71.1246, 42.25738 ], [ -71.13563, 42.23691 ], [ -71.1579, 42.23359 ], [ -71.18264, 42.22253 ], [ -71.19589, 42.20554 ], [ -71.19996, 42.18804 ], [ -71.20339, 42.1821 ], [ -71.22117, 42.17067 ], [ -71.24868, 42.1507 ], [ -71.26931, 42.14081 ], [ -71.35787, 42.10803 ], [ -71.40373, 42.07848 ], [ -71.40922, 42.07967 ], [ -71.41513, 42.08662 ], [ -71.42175, 42.08747 ], [ -71.4328, 42.08909 ], [ -71.43958, 42.08989 ] ] } },
{ "type": "Feature", "properties": { "shape_id": "canonical-9890003" }, "geometry": { "type": "LineString", "coordinates": [ [ -71.10425, 42.12459 ], [ -71.11977, 42.13145 ], [ -71.1292, 42.14807 ], [ -71.15215, 42.16126 ], [ -71.15413, 42.1665 ], [ -71.15504, 42.19372 ], [ -71.12381, 42.26084 ], [ -71.11712, 42.29583 ], [ -71.09496, 42.33162 ], [ -71.07497, 42.34747 ], [ -71.05874, 42.34594 ], [ -71.0548, 42.35176 ] ] } },
{ "type": "Feature", "properties": { "shape_id": "canonical-9890004" }, "geometry": { "type": "LineString", "coordinates": [ [ -71.0548, 42.35176 ], [ -71.05874, 42.34594 ], [ -71.07624, 42.34714 ], [ -71.09742, 42.32836 ], [ -71.11915, 42.29039 ], [ -71.1246, 42.25738 ], [ -71.15563, 42.1908 ], [ -71.15382, 42.16275 ], [ -71.13388, 42.15053 ], [ -71.12602, 42.1446 ], [ -71.11977, 42.13145 ], [ -71.10425, 42.12459 ] ] } },
{ "type": "Feature", "properties": { "shape_id": "canonical-9890008" }, "geometry": { "type": "LineString", "coordinates": [ [ -71.49159, 41.58033 ], [ -71.45498, 41.65039 ], [ -71.44652, 41.66301 ], [ -71.45023, 41.68336 ], [ -71.45404, 41.69429 ], [ -71.42164, 41.78566 ], [ -71.43026, 41.8 ], [ -71.44106, 41.80442 ], [ -71.43951, 41.81754 ], [ -71.43359, 41.82447 ], [ -71.41552, 41.82748 ], [ -71.41226, 41.83116 ], [ -71.41685, 41.84099 ], [ -71.39564, 41.87661 ], [ -71.38582, 41.88359 ], [ -71.38354, 41.89173 ], [ -71.32129, 41.90374 ], [ -71.30976, 41.90711 ], [ -71.2053, 42.05536 ], [ -71.19681, 42.07474 ], [ -71.18981, 42.11684 ], [ -71.171, 42.13861 ], [ -71.1557, 42.15429 ], [ -71.15409, 42.16649 ], [ -71.15504, 42.19371 ], [ -71.12381, 42.26084 ], [ -71.11712, 42.29583 ], [ -71.09496, 42.33162 ], [ -71.07497, 42.34747 ], [ -71.05874, 42.34594 ], [ -71.0548, 42.35176 ] ] } },
{ "type": "Feature", "properties": { "shape_id": "canonical-9890009" }, "geometry": { "type": "LineString", "coordinates": [ [ -71.0548, 42.35176 ], [ -71.05874, 42.34594 ], [ -71.07624, 42.34714 ], [ -71.09742, 42.32836 ], [ -71.11915, 42.29039 ], [ -71.1246, 42.25738 ], [ -71.15563, 42.1908 ], [ -71.15456, 42.15658 ], [ -71.16777, 42.14143 ], [ -71.18719, 42.12074 ], [ -71.1919, 42.10967 ], [ -71.19879, 42.06758 ], [ -71.21787, 42.03567 ], [ -71.30976, 41.90711 ], [ -71.3285, 41.90247 ], [ -71.38354, 41.89173 ], [ -71.38714, 41.88193 ], [ -71.39844, 41.87373 ], [ -71.41684, 41.83985 ], [ -71.41235, 41.83022 ], [ -71.41808, 41.82703 ], [ -71.43496, 41.82363 ], [ -71.44034, 41.81422 ], [ -71.44106, 41.80442 ], [ -71.42849, 41.79823 ], [ -71.42164, 41.78566 ], [ -71.45414, 41.69201 ], [ -71.44763, 41.67491 ], [ -71.4472, 41.66085 ], [ -71.4629, 41.63709 ], [ -71.49159, 41.58033 ] ] } },
{ "type": "Feature", "properties": { "shape_id": "canonical-9900001" }, "geometry": { "type": "LineString", "coordinates": [ [ -70.74641, 42.17914 ], [ -70.73964, 42.18837 ], [ -70.74272, 42.20031 ], [ -70.7649, 42.21357 ], [ -70.77646, 42.21743 ], [ -70.78963, 42.22003 ], [ -70.80292, 42.23989 ], [ -70.85215, 42.24488 ], [ -70.88007, 42.24476 ], [ -70.90133, 42.23936 ], [ -70.90565, 42.23061 ], [ -70.92003, 42.21977 ], [ -70.92539, 42.22011 ], [ -70.93918, 42.23039 ], [ -70.95339, 42.22947 ], [ -70.96847, 42.22143 ], [ -70.9981, 42.222 ], [ -71.0014, 42.22177 ], [ -71.007, 42.23295 ], [ -71.00364, 42.24871 ], [ -71.00962, 42.25636 ], [ -71.03274, 42.27977 ], [ -71.05554, 42.30219 ], [ -71.05206, 42.31956 ], [ -71.05353, 42.32397 ], [ -71.0593, 42.33003 ], [ -71.05903, 42.34425 ], [ -71.05497, 42.35161 ] ] } },
{ "type": "Feature", "properties": { "shape_id": "canonical-9900002" }, "geometry": { "type": "LineString", "coordinates": [ [ -71.05497, 42.35161 ], [ -71.05996, 42.34071 ], [ -71.05815, 42.32757 ], [ -71.05255, 42.32256 ], [ -71.05227, 42.31337 ], [ -71.05519, 42.30104 ], [ -71.03236, 42.27869 ], [ -71.00456, 42.25055 ], [ -71.00427, 42.24373 ], [ -71.00666, 42.22976 ], [ -70.99998, 42.22149 ], [ -70.98385, 42.2223 ], [ -70.96723, 42.22177 ], [ -70.94986, 42.23038 ], [ -70.93756, 42.22989 ], [ -70.92539, 42.22011 ], [ -70.92003, 42.21977 ], [ -70.90318, 42.23347 ], [ -70.90042, 42.24004 ], [ -70.87832, 42.24491 ], [ -70.83877, 42.24436 ], [ -70.80292, 42.23989 ], [ -70.78963, 42.22003 ], [ -70.77242, 42.2164 ], [ -70.74491, 42.20262 ], [ -70.74098, 42.19608 ], [ -70.74055, 42.18622 ], [ -70.74641, 42.17914 ] ] } },
{ "type": "Feature", "properties": { "shape_id": "canonical-FallRiverToSouthStation" }, "geometry": { "type": "LineString", "coordinates": [ [ -71.15467, 41.71306 ], [ -71.1482, 41.72162 ], [ -71.13857, 41.72982 ], [ -71.13267, 41.73863 ], [ -71.12251, 41.75675 ], [ -71.1164, 41.76354 ], [ -71.07157, 41.78223 ], [ -71.05798, 41.79516 ], [ -71.05085, 41.80279 ], [ -71.03811, 41.81269 ], [ -71.02674, 41.82782 ], [ -71.0642, 41.87095 ], [ -71.03024, 41.88527 ], [ -70.92331, 41.88701 ], [ -70.91935, 41.89045 ], [ -70.92641, 41.91073 ], [ -70.96355, 41.983 ], [ -70.98006, 42.00199 ], [ -70.98382, 42.03111 ], [ -71.01399, 42.06559 ], [ -71.0166, 42.08706 ], [ -71.01829, 42.10131 ], [ -71.02463, 42.11371 ], [ -71.0272, 42.13257 ], [ -71.02915, 42.15137 ], [ -71.01768, 42.17989 ], [ -71.00614, 42.18992 ], [ -71.00006, 42.21868 ], [ -71.00718, 42.23237 ], [ -71.00414, 42.24954 ], [ -71.03239, 42.27857 ], [ -71.05562, 42.30193 ], [ -71.05208, 42.32006 ], [ -71.05537, 42.32545 ], [ -71.0592, 42.33064 ], [ -71.05932, 42.34386 ], [ -71.0548, 42.35078 ] ] } },
{ "type": "Feature", "properties": { "shape_id": "canonical-FoxboroToSouthStationViaBackBay" }, "geometry": { "type": "LineString", "coordinates": [ [ -71.26181, 42.09579 ], [ -71.26524, 42.114 ], [ -71.25609, 42.14647 ], [ -71.23328, 42.16113 ], [ -71.2062, 42.18076 ], [ -71.20093, 42.18528 ], [ -71.19626, 42.20058 ], [ -71.19345, 42.20958 ], [ -71.17906, 42.22503 ], [ -71.15187, 42.23515 ], [ -71.13563, 42.23691 ], [ -71.12381, 42.26084 ], [ -71.11712, 42.29583 ], [ -71.09496, 42.33162 ], [ -71.07497, 42.34747 ], [ -71.05874, 42.34594 ], [ -71.0548, 42.35176 ] ] } },
{ "type": "Feature", "properties": { "shape_id": "canonical-NewBedfordToSouthStation" }, "geometry": { "type": "LineString", "coordinates": [ [ -70.92494, 41.6432 ], [ -70.93833, 41.66859 ], [ -70.94549, 41.69416 ], [ -70.99462, 41.79626 ], [ -71.04324, 41.84574 ], [ -71.0642, 41.87095 ], [ -71.03024, 41.88527 ], [ -70.92331, 41.88701 ], [ -70.91935, 41.89045 ], [ -70.92641, 41.91073 ], [ -70.96355, 41.983 ], [ -70.98006, 42.00199 ], [ -70.98382, 42.03111 ], [ -71.01399, 42.06559 ], [ -71.0166, 42.08706 ], [ -71.01829, 42.10131 ], [ -71.02463, 42.11371 ], [ -71.0272, 42.13257 ], [ -71.02915, 42.15137 ], [ -71.01768, 42.17989 ], [ -71.00614, 42.18992 ], [ -71.00006, 42.21868 ], [ -71.00718, 42.23237 ], [ -71.00414, 42.24954 ], [ -71.03239, 42.27857 ], [ -71.05562, 42.30193 ], [ -71.05208, 42.32006 ], [ -71.05537, 42.32545 ], [ -71.0592, 42.33064 ], [ -71.05932, 42.34386 ], [ -71.0548, 42.35078 ] ] } },
{ "type": "Feature", "properties": { "shape_id": "canonical-ProvidenceToSouthStationViaFoxboro" }, "geometry": { "type": "LineString", "coordinates": [ [ -71.41329, 41.82922 ], [ -71.41331, 41.83382 ], [ -71.41685, 41.84099 ], [ -71.39564, 41.87661 ], [ -71.38582, 41.88359 ], [ -71.38354, 41.89173 ], [ -71.32129, 41.90374 ], [ -71.30976, 41.90711 ], [ -71.21912, 42.03556 ], [ -71.23783, 42.05398 ], [ -71.25077, 42.07164 ], [ -71.26347, 42.10233 ], [ -71.26524, 42.114 ], [ -71.25609, 42.14647 ], [ -71.23328, 42.16113 ], [ -71.2062, 42.18076 ], [ -71.20093, 42.18528 ], [ -71.19626, 42.20058 ], [ -71.19345, 42.20958 ], [ -71.17906, 42.22503 ], [ -71.15187, 42.23515 ], [ -71.13563, 42.23691 ], [ -71.12381, 42.26084 ], [ -71.11712, 42.29583 ], [ -71.09496, 42.33162 ], [ -71.07497, 42.34747 ], [ -71.05874, 42.34594 ], [ -71.0548, 42.35176 ] ] } },
{ "type": "Feature", "properties": { "shape_id": "canonical-SouFoxProv" }, "geometry": { "type": "LineString", "coordinates": [ [ -71.0548, 42.35176 ], [ -71.05874, 42.34594 ], [ -71.07624, 42.34714 ], [ -71.09742, 42.32836 ], [ -71.11915, 42.29039 ], [ -71.1246, 42.25738 ], [ -71.13563, 42.23691 ], [ -71.1579, 42.23359 ], [ -71.18264, 42.22253 ], [ -71.19589, 42.20554 ], [ -71.19996, 42.18804 ], [ -71.20339, 42.1821 ], [ -71.22117, 42.17067 ], [ -71.24868, 42.1507 ], [ -71.25776, 42.1445 ], [ -71.26571, 42.11048 ], [ -71.25881, 42.08901 ], [ -71.24494, 42.06209 ], [ -71.2238, 42.03958 ], [ -71.21912, 42.03556 ], [ -71.30976, 41.90711 ], [ -71.3285, 41.90247 ], [ -71.38354, 41.89173 ], [ -71.38714, 41.88193 ], [ -71.39844, 41.87373 ], [ -71.41684, 41.83985 ], [ -71.41235, 41.83022 ], [ -71.41329, 41.82922 ] ] } },
{ "type": "Feature", "properties": { "shape_id": "canonical-SouthStationToFallRiver" }, "geometry": { "type": "LineString", "coordinates": [ [ -71.0548, 42.35078 ], [ -71.06, 42.34087 ], [ -71.05775, 42.32731 ], [ -71.05231, 42.32159 ], [ -71.05375, 42.30999 ], [ -71.05528, 42.30094 ], [ -71.03239, 42.27857 ], [ -71.00414, 42.24954 ], [ -71.00698, 42.22981 ], [ -71.00004, 42.21715 ], [ -71.00416, 42.19955 ], [ -71.00783, 42.18713 ], [ -71.01953, 42.17715 ], [ -71.02956, 42.14727 ], [ -71.02729, 42.13155 ], [ -71.02275, 42.10771 ], [ -71.01682, 42.09633 ], [ -71.01455, 42.06761 ], [ -71.00825, 42.05803 ], [ -70.98295, 42.02916 ], [ -70.97907, 42.00007 ], [ -70.9587, 41.9756 ], [ -70.91998, 41.89547 ], [ -70.92047, 41.88841 ], [ -70.92708, 41.88656 ], [ -71.03024, 41.88527 ], [ -71.0642, 41.87095 ], [ -71.02999, 41.8321 ], [ -71.02688, 41.82654 ], [ -71.04417, 41.80749 ], [ -71.05579, 41.79854 ], [ -71.06764, 41.7857 ], [ -71.07839, 41.77845 ], [ -71.11794, 41.76249 ], [ -71.12336, 41.75446 ], [ -71.13267, 41.73863 ], [ -71.14228, 41.72592 ], [ -71.15172, 41.71762 ], [ -71.15467, 41.71306 ] ] } },
{ "type": "Feature", "properties": { "shape_id": "canonical-SouthStationToFoxboroViaBackBay" }, "geometry": { "type": "LineString", "coordinates": [ [ -71.0548, 42.35176 ], [ -71.05874, 42.34594 ], [ -71.07624, 42.34714 ], [ -71.09742, 42.32836 ], [ -71.11915, 42.29039 ], [ -71.1246, 42.25738 ], [ -71.13563, 42.23691 ], [ -71.1579, 42.23359 ], [ -71.18264, 42.22253 ], [ -71.19589, 42.20554 ], [ -71.19996, 42.18804 ], [ -71.20339, 42.1821 ], [ -71.22117, 42.17067 ], [ -71.24868, 42.1507 ], [ -71.25776, 42.1445 ], [ -71.26571, 42.11048 ], [ -71.26181, 42.09579 ] ] } },
{ "type": "Feature", "properties": { "shape_id": "canonical-SouthStationToNewBedford" }, "geometry": { "type": "LineString", "coordinates": [ [ -71.0548, 42.35078 ], [ -71.06, 42.34087 ], [ -71.05775, 42.32731 ], [ -71.05231, 42.32159 ], [ -71.05375, 42.30999 ], [ -71.05528, 42.30094 ], [ -71.03239, 42.27857 ], [ -71.00414, 42.24954 ], [ -71.00698, 42.22981 ], [ -71.00004, 42.21715 ], [ -71.00416, 42.19955 ], [ -71.00783, 42.18713 ], [ -71.01953, 42.17715 ], [ -71.02956, 42.14727 ], [ -71.02729, 42.13155 ], [ -71.02275, 42.10771 ], [ -71.01682, 42.09633 ], [ -71.01455, 42.06761 ], [ -71.00825, 42.05803 ], [ -70.98295, 42.02916 ], [ -70.97907, 42.00007 ], [ -70.9587, 41.9756 ], [ -70.91998, 41.89547 ], [ -70.92047, 41.88841 ], [ -70.92708, 41.88656 ], [ -71.03024, 41.88527 ], [ -71.0642, 41.87095 ], [ -71.02921, 41.83139 ], [ -70.99214, 41.79227 ], [ -70.94135, 41.68328 ], [ -70.9365, 41.66426 ], [ -70.92494, 41.6432 ] ] } },
{ "type": "Feature", "properties": { "shape_id": "canonical-cf00001" }, "geometry": { "type": "LineString", "coordinates": [ [ -70.28019, 41.6549 ], [ -70.25746, 41.68675 ], [ -70.25863, 41.69819 ], [ -70.2646, 41.70059 ], [ -70.28098, 41.69683 ], [ -70.30249, 41.69845 ], [ -70.324, 41.70163 ], [ -70.3496, 41.70084 ], [ -70.36837, 41.70517 ], [ -70.42095, 41.72599 ], [ -70.4422, 41.73637 ], [ -70.4563, 41.74464 ], [ -70.47093, 41.74884 ], [ -70.48897, 41.75623 ], [ -70.50372, 41.76797 ], [ -70.54316, 41.77467 ], [ -70.55567, 41.77264 ], [ -70.5662, 41.76463 ], [ -70.57509, 41.75397 ], [ -70.59229, 41.74562 ], [ -70.60915, 41.739 ], [ -70.61399, 41.74255 ], [ -70.62112, 41.74631 ], [ -70.64596, 41.75529 ], [ -70.6946, 41.75719 ], [ -70.70994, 41.75635 ], [ -70.72023, 41.76326 ], [ -70.72751, 41.76717 ], [ -70.74159, 41.76709 ], [ -70.75029, 41.77346 ], [ -70.7652, 41.78883 ], [ -70.84364, 41.82968 ], [ -70.86185, 41.84275 ], [ -70.89163, 41.86895 ], [ -70.91802, 41.87798 ], [ -70.92123, 41.88573 ], [ -70.91964, 41.89444 ], [ -70.96285, 41.98223 ], [ -70.98025, 42.00242 ], [ -70.98378, 42.03106 ], [ -71.01403, 42.06574 ], [ -71.0166, 42.08808 ], [ -71.01859, 42.10175 ], [ -71.02462, 42.11366 ], [ -71.02719, 42.13267 ], [ -71.02912, 42.15146 ], [ -71.01691, 42.18051 ], [ -71.00615, 42.18989 ], [ -71.00006, 42.21869 ], [ -71.00718, 42.23236 ], [ -71.00395, 42.24918 ], [ -71.02594, 42.2717 ], [ -71.04547, 42.29166 ], [ -71.0556, 42.30182 ], [ -71.052, 42.3192 ], [ -71.05375, 42.32422 ], [ -71.05916, 42.32958 ], [ -71.05939, 42.34374 ], [ -71.05508, 42.35051 ] ] } },
{ "type": "Feature", "properties": { "shape_id": "canonical-cf00002" }, "geometry": { "type": "LineString", "coordinates": [ [ -71.05508, 42.35051 ], [ -71.06, 42.34091 ], [ -71.05795, 42.32748 ], [ -71.05253, 42.32262 ], [ -71.05315, 42.31141 ], [ -71.05516, 42.30071 ], [ -71.03246, 42.27875 ], [ -71.00395, 42.24918 ], [ -71.00702, 42.22997 ], [ -71.00001, 42.21726 ], [ -71.00416, 42.19956 ], [ -71.00824, 42.18677 ], [ -71.01956, 42.1771 ], [ -71.02956, 42.14745 ], [ -71.0273, 42.1314 ], [ -71.0231, 42.10831 ], [ -71.01683, 42.09651 ], [ -71.01483, 42.06858 ], [ -71.00888, 42.0587 ], [ -70.98296, 42.02916 ], [ -70.9791, 42.00012 ], [ -70.959, 41.97622 ], [ -70.91964, 41.89444 ], [ -70.92078, 41.88164 ], [ -70.91446, 41.87591 ], [ -70.88936, 41.86759 ], [ -70.85185, 41.83471 ], [ -70.80801, 41.81062 ], [ -70.76142, 41.78585 ], [ -70.74403, 41.76803 ], [ -70.73426, 41.76634 ], [ -70.72491, 41.76659 ], [ -70.70994, 41.75635 ], [ -70.67669, 41.75706 ], [ -70.64007, 41.75401 ], [ -70.61456, 41.7435 ], [ -70.61035, 41.73917 ], [ -70.60351, 41.74108 ], [ -70.57712, 41.75254 ], [ -70.56784, 41.76211 ], [ -70.55907, 41.771 ], [ -70.54728, 41.7747 ], [ -70.51957, 41.77138 ], [ -70.50086, 41.76661 ], [ -70.48481, 41.75404 ], [ -70.46009, 41.74527 ], [ -70.4493, 41.74119 ], [ -70.4288, 41.72935 ], [ -70.36956, 41.70556 ], [ -70.35155, 41.70107 ], [ -70.32994, 41.70116 ], [ -70.31362, 41.70088 ], [ -70.29119, 41.69694 ], [ -70.27272, 41.69783 ], [ -70.263, 41.70057 ], [ -70.25863, 41.69819 ], [ -70.25746, 41.68675 ], [ -70.28019, 41.6549 ] ] } }
]
}
