{
"type": "FeatureCollection",
"name": "subway_lines",
"xy_coordinate_resolution": 1e-05,
"features": [
{ "type": "Feature", "properties": { "route_name": "Green Line C", "route_color": "#00843D", "line": "Green" }, "geometry": { "type": "MultiLineString", "coordinates": [ [ [ -71.14919, 42.33615 ], [ -71.13886, 42.3384 ] ], [ [ -71.13886, 42.3384 ], [ -71.13869, 42.33844 ] ], [ [ -71.13869, 42.33844 ], [ -71.13886, 42.3384 ] ], [ [ -71.13869, 42.33844 ], [ -71.13411, 42.33957 ], [ -71.13027, 42.33972 ], [ -71.12718, 42.3405 ], [ -71.12403, 42.34146 ], [ -71.11624, 42.34344 ], [ -71.09697, 42.3488 ], [ -71.09328, 42.34896 ], [ -71.09189, 42.34802 ], [ -71.08742, 42.34801 ], [ -71.0853, 42.34788 ], [ -71.06829, 42.35243 ], [ -71.06713, 42.35259 ], [ -71.06488, 42.35248 ], [ -71.06436, 42.35335 ], [ -71.06303, 42.35562 ], [ -71.06033, 42.35808 ], [ -71.05936, 42.35938 ] ] ] } },
{ "type": "Feature", "properties": { "route_name": "Green Line C", "route_color": "#00843D", "line": "Green" }, "geometry": { "type": "MultiLineString", "coordinates": [ [ [ -71.05939, 42.35934 ], [ -71.06058, 42.35781 ], [ -71.0635, 42.35505 ], [ -71.06469, 42.35258 ], [ -71.06504, 42.35246 ], [ -71.06763, 42.35253 ], [ -71.07097, 42.35176 ], [ -71.08565, 42.34783 ], [ -71.08856, 42.34808 ], [ -71.09201, 42.34806 ], [ -71.09328, 42.34896 ], [ -71.09697, 42.3488 ], [ -71.12172, 42.342 ], [ -71.12679, 42.34066 ], [ -71.12979, 42.33979 ], [ -71.13285, 42.3396 ], [ -71.13496, 42.33944 ], [ -71.13869, 42.33844 ] ], [ [ -71.13869, 42.33844 ], [ -71.13886, 42.3384 ] ], [ [ -71.13886, 42.3384 ], [ -71.13869, 42.33844 ] ], [ [ -71.13886, 42.3384 ], [ -71.14919, 42.33615 ] ] ] } },
{ "type": "Feature", "properties": { "route_name": "Green Line D", "route_color": "#00843D", "line": "Green" }, "geometry": { "type": "MultiLineString", "coordinates": [ [ [ -71.09433, 42.37712 ], [ -71.09246, 42.37641 ], [ -71.08998, 42.37596 ], [ -71.08175, 42.37493 ], [ -71.08114, 42.37449 ], [ -71.08034, 42.37345 ], [ -71.07641, 42.37161 ], [ -71.0754, 42.37058 ], [ -71.06649, 42.3662 ], [ -71.06415, 42.36565 ], [ -71.0619, 42.36653 ], [ -71.06142, 42.36649 ], [ -71.05819, 42.36305 ], [ -71.05803, 42.36085 ], [ -71.06122, 42.35722 ], [ -71.0635, 42.35505 ], [ -71.06469, 42.35258 ], [ -71.06504, 42.35246 ], [ -71.06763, 42.35253 ], [ -71.07097, 42.35176 ], [ -71.08565, 42.34783 ], [ -71.08856, 42.34808 ], [ -71.09201, 42.34806 ], [ -71.09328, 42.34896 ], [ -71.09697, 42.3488 ], [ -71.1015, 42.34757 ], [ -71.10192, 42.34662 ], [ -71.10676, 42.34381 ], [ -71.10994, 42.34166 ], [ -71.1109, 42.34032 ], [ -71.11206, 42.33732 ], [ -71.11376, 42.33464 ], [ -71.11536, 42.33335 ], [ -71.11881, 42.33176 ], [ -71.12016, 42.33151 ], [ -71.12446, 42.33125 ], [ -71.12655, 42.33126 ], [ -71.13257, 42.33189 ], [ -71.13443, 42.33252 ], [ -71.13967, 42.33547 ], [ -71.14113, 42.33588 ], [ -71.1437, 42.33587 ], [ -71.14754, 42.3352 ], [ -71.14968, 42.33478 ], [ -71.15458, 42.33196 ], [ -71.16241, 42.32731 ], [ -71.16461, 42.32672 ], [ -71.1671, 42.32672 ], [ -71.18605, 42.33034 ], [ -71.18885, 42.3303 ], [ -71.19141, 42.32974 ], [ -71.19461, 42.32831 ], [ -71.20449, 42.32324 ], [ -71.20946, 42.31854 ], [ -71.21129, 42.31779 ], [ -71.21336, 42.31772 ], [ -71.21535, 42.31836 ], [ -71.23018, 42.32549 ], [ -71.23423, 42.32829 ], [ -71.25237, 42.3373 ] ] ] } },
{ "type": "Feature", "properties": { "route_name": "Green Line D", "route_color": "#00843D", "line": "Green" }, "geometry": { "type": "MultiLineString", "coordinates": [ [ [ -71.25237, 42.3373 ], [ -71.2338, 42.32803 ], [ -71.22911, 42.32488 ], [ -71.21408, 42.31787 ], [ -71.21229, 42.31767 ], [ -71.21048, 42.31802 ], [ -71.20901, 42.3189 ], [ -71.20449, 42.32324 ], [ -71.19236, 42.32939 ], [ -71.18964, 42.33018 ], [ -71.18683, 42.33038 ], [ -71.1845, 42.33011 ], [ -71.16661, 42.32667 ], [ -71.16461, 42.32672 ], [ -71.16241, 42.32731 ], [ -71.15007, 42.33462 ], [ -71.14784, 42.33517 ], [ -71.14421, 42.33575 ], [ -71.14212, 42.33594 ], [ -71.14035, 42.3357 ], [ -71.13864, 42.33496 ], [ -71.13363, 42.33218 ], [ -71.13122, 42.33171 ], [ -71.12525, 42.33117 ], [ -71.12129, 42.33148 ], [ -71.11914, 42.33167 ], [ -71.11568, 42.33315 ], [ -71.11414, 42.33425 ], [ -71.11287, 42.33591 ], [ -71.11137, 42.33893 ], [ -71.11042, 42.34114 ], [ -71.1089, 42.34247 ], [ -71.10279, 42.34614 ], [ -71.10175, 42.3468 ], [ -71.1015, 42.34757 ], [ -71.09678, 42.34883 ], [ -71.09312, 42.3489 ], [ -71.09189, 42.34802 ], [ -71.08742, 42.34801 ], [ -71.0853, 42.34788 ], [ -71.06829, 42.35243 ], [ -71.06713, 42.35259 ], [ -71.06488, 42.35248 ], [ -71.06436, 42.35335 ], [ -71.06303, 42.35562 ], [ -71.06033, 42.35808 ], [ -71.05794, 42.36107 ], [ -71.05818, 42.36303 ], [ -71.06159, 42.36655 ], [ -71.06216, 42.36645 ], [ -71.06415, 42.36565 ], [ -71.06725, 42.36651 ], [ -71.0754, 42.37058 ], [ -71.07676, 42.37186 ], [ -71.07772, 42.37218 ], [ -71.07988, 42.37327 ], [ -71.08033, 42.37476 ], [ -71.08148, 42.375 ], [ -71.09094, 42.37609 ], [ -71.09311, 42.37661 ], [ -71.09426, 42.37708 ] ] ] } },
{ "type": "Feature", "properties": { "route_name": "Green Line B", "route_color": "#00843D", "line": "Green" }, "geometry": { "type": "MultiLineString", "coordinates": [ [ [ -71.16681, 42.34008 ], [ -71.16542, 42.34004 ], [ -71.15998, 42.34 ], [ -71.15724, 42.33945 ], [ -71.15392, 42.33807 ], [ -71.15322, 42.33805 ], [ -71.15245, 42.33889 ], [ -71.15148, 42.34018 ], [ -71.14986, 42.34118 ], [ -71.14807, 42.34151 ], [ -71.14571, 42.34164 ], [ -71.14428, 42.34222 ], [ -71.14297, 42.34347 ], [ -71.14077, 42.34697 ], [ -71.14026, 42.34861 ], [ -71.13927, 42.34895 ], [ -71.13796, 42.34868 ], [ -71.13612, 42.34821 ], [ -71.13476, 42.34862 ], [ -71.13041, 42.35061 ], [ -71.12768, 42.35057 ], [ -71.12626, 42.35109 ], [ -71.12465, 42.35213 ], [ -71.09673, 42.34887 ], [ -71.09312, 42.3489 ], [ -71.09189, 42.34802 ], [ -71.08742, 42.34801 ], [ -71.0853, 42.34788 ], [ -71.06829, 42.35243 ], [ -71.06713, 42.35259 ], [ -71.06488, 42.35248 ], [ -71.06436, 42.35335 ], [ -71.06303, 42.35562 ], [ -71.06033, 42.35808 ], [ -71.05936, 42.35938 ] ] ] } },
{ "type": "Feature", "properties": { "route_name": "Green Line B", "route_color": "#00843D", "line": "Green" }, "geometry": { "type": "MultiLineString", "coordinates": [ [ [ -71.05939, 42.35934 ], [ -71.06058, 42.35781 ], [ -71.0635, 42.35505 ], [ -71.06469, 42.35258 ], [ -71.06504, 42.35246 ], [ -71.06763, 42.35253 ], [ -71.07097, 42.35176 ], [ -71.08565, 42.34783 ], [ -71.08856, 42.34808 ], [ -71.09201, 42.34806 ], [ -71.09328, 42.34896 ], [ -71.09722, 42.34888 ], [ -71.12465, 42.35213 ], [ -71.12707, 42.35072 ], [ -71.1287, 42.35054 ], [ -71.13059, 42.35057 ], [ -71.13572, 42.34825 ], [ -71.13688, 42.34831 ], [ -71.13907, 42.34895 ], [ -71.14013, 42.3487 ], [ -71.14061, 42.34784 ], [ -71.14109, 42.34627 ], [ -71.1437, 42.34265 ], [ -71.14515, 42.34181 ], [ -71.14701, 42.34148 ], [ -71.14913, 42.34141 ], [ -71.15064, 42.34079 ], [ -71.15208, 42.33951 ], [ -71.1531, 42.33811 ], [ -71.15342, 42.338 ], [ -71.15501, 42.33848 ], [ -71.1578, 42.33961 ], [ -71.16047, 42.34002 ], [ -71.16542, 42.34004 ], [ -71.16656, 42.34002 ] ] ] } },
{ "type": "Feature", "properties": { "route_name": "Green Line B", "route_color": "#00843D", "line": "Green" }, "geometry": { "type": "MultiLineString", "coordinates": [ [ [ -71.16681, 42.34008 ], [ -71.16542, 42.34004 ], [ -71.15998, 42.34 ], [ -71.15724, 42.33945 ], [ -71.15392, 42.33807 ], [ -71.15322, 42.33805 ], [ -71.15245, 42.33889 ], [ -71.15148, 42.34018 ], [ -71.14986, 42.34118 ], [ -71.14807, 42.34151 ], [ -71.14571, 42.34164 ], [ -71.14428, 42.34222 ], [ -71.14297, 42.34347 ], [ -71.14077, 42.34697 ], [ -71.14026, 42.34861 ], [ -71.13927, 42.34895 ], [ -71.13796, 42.34868 ], [ -71.13612, 42.34821 ], [ -71.13476, 42.34862 ], [ -71.13041, 42.35061 ], [ -71.12768, 42.35057 ], [ -71.12626, 42.35109 ], [ -71.12465, 42.35213 ], [ -71.09673, 42.34887 ], [ -71.09312, 42.3489 ], [ -71.09189, 42.34802 ], [ -71.08742, 42.34801 ], [ -71.0853, 42.34788 ], [ -71.06829, 42.35243 ], [ -71.06713, 42.35259 ], [ -71.06488, 42.35248 ], [ -71.06436, 42.35335 ], [ -71.06303, 42.35562 ], [ -71.06033, 42.35808 ], [ -71.05794, 42.36107 ], [ -71.05818, 42.36303 ], [ -71.06159, 42.36655 ], [ -71.06216, 42.36645 ], [ -71.06415, 42.36565 ], [ -71.06725, 42.36651 ], [ -71.0754, 42.37058 ], [ -71.07676, 42.37186 ], [ -71.08034, 42.37345 ], [ -71.08114, 42.37449 ], [ -71.08158, 42.37515 ], [ -71.08305, 42.37599 ], [ -71.08671, 42.37958 ], [ -71.09105, 42.38402 ], [ -71.09341, 42.38631 ], [ -71.09682, 42.38801 ], [ -71.10394, 42.3914 ], [ -71.10581, 42.393 ], [ -71.11677, 42.40765 ] ] ] } },
{ "type": "Feature", "properties": { "route_name": "Green Line E", "route_color": "#00843D", "line": "Green" }, "geometry": { "type": "MultiLineString", "coordinates": [ [ [ -71.1101, 42.32834 ], [ -71.11085, 42.32917 ], [ -71.11198, 42.33194 ], [ -71.10999, 42.33309 ], [ -71.10646, 42.33333 ], [ -71.10221, 42.33512 ], [ -71.08703, 42.34108 ], [ -71.07966, 42.34695 ], [ -71.07913, 42.3488 ], [ -71.07928, 42.34944 ], [ -71.06829, 42.35243 ], [ -71.06713, 42.35259 ], [ -71.06488, 42.35248 ], [ -71.06436, 42.35335 ], [ -71.06303, 42.35562 ], [ -71.06033, 42.35808 ], [ -71.05794, 42.36107 ], [ -71.05818, 42.36303 ], [ -71.06159, 42.36655 ], [ -71.06216, 42.36645 ], [ -71.06415, 42.36565 ], [ -71.06725, 42.36651 ], [ -71.0754, 42.37058 ], [ -71.07676, 42.37186 ], [ -71.08034, 42.37345 ], [ -71.08114, 42.37449 ], [ -71.08158, 42.37515 ], [ -71.08305, 42.37599 ], [ -71.08671, 42.37958 ], [ -71.09105, 42.38402 ], [ -71.09341, 42.38631 ], [ -71.09682, 42.38801 ], [ -71.10394, 42.3914 ], [ -71.10581, 42.393 ], [ -71.11677, 42.40765 ] ] ] } },
{ "type": "Feature", "properties": { "route_name": "Green Line C", "route_color": "#00843D", "line": "Green" }, "geometry": { "type": "MultiLineString", "coordinates": [ [ [ -71.14919, 42.33615 ], [ -71.13886, 42.3384 ] ], [ [ -71.13886, 42.3384 ], [ -71.13869, 42.33844 ] ], [ [ -71.13869, 42.33844 ], [ -71.13886, 42.3384 ] ], [ [ -71.13869, 42.33844 ], [ -71.13411, 42.33957 ], [ -71.13027, 42.33972 ], [ -71.12718, 42.3405 ], [ -71.12403, 42.34146 ], [ -71.11624, 42.34344 ], [ -71.09697, 42.3488 ], [ -71.09328, 42.34896 ], [ -71.09189, 42.34802 ], [ -71.08742, 42.34801 ], [ -71.0853, 42.34788 ], [ -71.06829, 42.35243 ], [ -71.06713, 42.35259 ], [ -71.06488, 42.35248 ], [ -71.06436, 42.35335 ], [ -71.06303, 42.35562 ], [ -71.06033, 42.35808 ], [ -71.05794, 42.36107 ], [ -71.05818, 42.36303 ], [ -71.06159, 42.36655 ], [ -71.06216, 42.36645 ], [ -71.06415, 42.36565 ], [ -71.06725, 42.36651 ], [ -71.0754, 42.37058 ], [ -71.07676, 42.37186 ], [ -71.08034, 42.37345 ], [ -71.08114, 42.37449 ], [ -71.08158, 42.37515 ], [ -71.08305, 42.37599 ], [ -71.08671, 42.37958 ], [ -71.09105, 42.38402 ], [ -71.09341, 42.38631 ], [ -71.09682, 42.38801 ], [ -71.10394, 42.3914 ], [ -71.10581, 42.393 ], [ -71.11677, 42.40765 ] ] ] } },
{ "type": "Feature", "properties": { "route_name": "Green Line C", "route_color": "#00843D", "line": "Green" }, "geometry": { "type": "MultiLineString", "coordinates": [ [ [ -71.11679, 42.40769 ], [ -71.10545, 42.39263 ], [ -71.10359, 42.39117 ], [ -71.09398, 42.38666 ], [ -71.09186, 42.38492 ], [ -71.08695, 42.37977 ], [ -71.08599, 42.37899 ], [ -71.08272, 42.37576 ], [ -71.08133, 42.3749 ], [ -71.08062, 42.37371 ], [ -71.07986, 42.3732 ], [ -71.07641, 42.37161 ], [ -71.0754, 42.37058 ], [ -71.06649, 42.3662 ], [ -71.06415, 42.36565 ], [ -71.0619, 42.36653 ], [ -71.06142, 42.36649 ], [ -71.05819, 42.36305 ], [ -71.05803, 42.36085 ], [ -71.06122, 42.35722 ], [ -71.0635, 42.35505 ], [ -71.06469, 42.35258 ], [ -71.06504, 42.35246 ], [ -71.06763, 42.35253 ], [ -71.07097, 42.35176 ], [ -71.08565, 42.34783 ], [ -71.08856, 42.34808 ], [ -71.09201, 42.34806 ], [ -71.09328, 42.34896 ], [ -71.09697, 42.3488 ], [ -71.12172, 42.342 ], [ -71.12679, 42.34066 ], [ -71.12979, 42.33979 ], [ -71.13285, 42.3396 ], [ -71.13496, 42.33944 ], [ -71.13869, 42.33844 ] ], [ [ -71.13869, 42.33844 ], [ -71.13886, 42.3384 ] ], [ [ -71.13886, 42.3384 ], [ -71.13869, 42.33844 ] ], [ [ -71.13886, 42.3384 ], [ -71.14919, 42.33615 ] ] ] } },
{ "type": "Feature", "properties": { "route_name": "Green Line E", "route_color": "#00843D", "line": "Green" }, "geometry": { "type": "MultiLineString", "coordinates": [ [ [ -71.11679, 42.40769 ], [ -71.10545, 42.39263 ], [ -71.10359, 42.39117 ], [ -71.09398, 42.38666 ], [ -71.09186, 42.38492 ], [ -71.08695, 42.37977 ], [ -71.08599, 42.37899 ], [ -71.08272, 42.37576 ], [ -71.08133, 42.3749 ], [ -71.08062, 42.37371 ], [ -71.07986, 42.3732 ], [ -71.07641, 42.37161 ], [ -71.0754, 42.37058 ], [ -71.06649, 42.3662 ], [ -71.06415, 42.36565 ], [ -71.0619, 42.36653 ], [ -71.06142, 42.36649 ], [ -71.05819, 42.36305 ], [ -71.05803, 42.36085 ], [ -71.06122, 42.35722 ], [ -71.0635, 42.35505 ], [ -71.06469, 42.35258 ], [ -71.06504, 42.35246 ], [ -71.06763, 42.35253 ], [ -71.07097, 42.35176 ], [ -71.07928, 42.34944 ], [ -71.07913, 42.3488 ], [ -71.07979, 42.34679 ], [ -71.08703, 42.34108 ], [ -71.10572, 42.33369 ], [ -71.10704, 42.33323 ], [ -71.10999, 42.33309 ], [ -71.11198, 42.33194 ], [ -71.11074, 42.32898 ], [ -71.1101, 42.32834 ] ] ] } },
{ "type": "Feature", "properties": { "route_name": "Green Line B", "route_color": "#00843D", "line": "Green" }, "geometry": { "type": "MultiLineString", "coordinates": [ [ [ -71.11679, 42.40769 ], [ -71.10545, 42.39263 ], [ -71.10359, 42.39117 ], [ -71.09398, 42.38666 ], [ -71.09186, 42.38492 ], [ -71.08695, 42.37977 ], [ -71.08599, 42.37899 ], [ -71.08272, 42.37576 ], [ -71.08133, 42.3749 ], [ -71.08062, 42.37371 ], [ -71.07986, 42.3732 ], [ -71.07641, 42.37161 ], [ -71.0754, 42.37058 ], [ -71.06649, 42.3662 ], [ -71.06415, 42.36565 ], [ -71.0619, 42.36653 ], [ -71.06142, 42.36649 ], [ -71.05819, 42.36305 ], [ -71.05803, 42.36085 ], [ -71.06122, 42.35722 ], [ -71.0635, 42.35505 ], [ -71.06469, 42.35258 ], [ -71.06504, 42.35246 ], [ -71.06763, 42.35253 ], [ -71.07097, 42.35176 ], [ -71.08565, 42.34783 ], [ -71.08856, 42.34808 ], [ -71.09201, 42.34806 ], [ -71.09328, 42.34896 ], [ -71.09722, 42.34888 ], [ -71.12465, 42.35213 ], [ -71.12707, 42.35072 ], [ -71.1287, 42.35054 ], [ -71.13059, 42.35057 ], [ -71.13572, 42.34825 ], [ -71.13688, 42.34831 ], [ -71.13907, 42.34895 ], [ -71.14013, 42.3487 ], [ -71.14061, 42.34784 ], [ -71.14109, 42.34627 ], [ -71.1437, 42.34265 ], [ -71.14515, 42.34181 ], [ -71.14701, 42.34148 ], [ -71.14913, 42.34141 ], [ -71.15064, 42.34079 ], [ -71.15208, 42.33951 ], [ -71.1531, 42.33811 ], [ -71.15342, 42.338 ], [ -71.15501, 42.33848 ], [ -71.1578, 42.33961 ], [ -71.16047, 42.34002 ], [ -71.16542, 42.34004 ], [ -71.16656, 42.34002 ] ] ] } },
{ "type": "Feature", "properties": { "route_name": "Green Line E", "route_color": "#00843D", "line": "Green" }, "geometry": { "type": "MultiLineString", "coordinates": [ [ [ -71.08755, 42.38037 ], [ -71.09105, 42.38402 ], [ -71.09341, 42.38631 ], [ -71.09682, 42.38801 ], [ -71.10394, 42.3914 ], [ -71.10581, 42.393 ], [ -71.11677, 42.40765 ] ] ] } },
{ "type": "Feature", "properties": { "route_name": "Green Line E", "route_color": "#00843D", "line": "Green" }, "geometry": { "type": "MultiLineString", "coordinates": [ [ [ -71.11679, 42.40769 ], [ -71.10545, 42.39263 ], [ -71.10359, 42.39117 ], [ -71.09398, 42.38666 ], [ -71.09186, 42.38492 ], [ -71.08695, 42.37977 ], [ -71.08599, 42.37899 ], [ -71.08272, 42.37576 ], [ -71.08133, 42.3749 ], [ -71.08062, 42.37371 ], [ -71.07986, 42.3732 ], [ -71.07641, 42.37161 ], [ -71.0754, 42.37058 ], [ -71.06649, 42.3662 ], [ -71.06415, 42.36565 ], [ -71.0619, 42.36653 ], [ -71.06142, 42.36649 ], [ -71.0606, 42.36566 ] ] ] } },
{ "type": "Feature", "properties": { "route_name": "Green Line E", "route_color": "#00843D", "line": "Green" }, "geometry": { "type": "MultiLineString", "coordinates": [ [ [ -71.08755, 42.38037 ], [ -71.09105, 42.38402 ], [ -71.09341, 42.38631 ], [ -71.09682, 42.38801 ], [ -71.10394, 42.3914 ], [ -71.10581, 42.393 ], [ -71.11677, 42.40765 ] ] ] } },
{ "type": "Feature", "properties": { "route_name": "Green Line E", "route_color": "#00843D", "line": "Green" }, "geometry": { "type": "MultiLineString", "coordinates": [ [ [ -71.0606, 42.36565 ], [ -71.06159, 42.36655 ], [ -71.06216, 42.36645 ], [ -71.06415, 42.36565 ], [ -71.06725, 42.36651 ], [ -71.0754, 42.37058 ], [ -71.07676, 42.37186 ], [ -71.08034, 42.37345 ], [ -71.08114, 42.37449 ], [ -71.08158, 42.37515 ], [ -71.08305, 42.37599 ], [ -71.08671, 42.37958 ], [ -71.09105, 42.38402 ], [ -71.09341, 42.38631 ], [ -71.09682, 42.38801 ], [ -71.10394, 42.3914 ], [ -71.10581, 42.393 ], [ -71.11677, 42.40765 ] ] ] } },
{ "type": "Feature", "properties": { "route_name": "Green Line E", "route_color": "#00843D", "line": "Green" }, "geometry": { "type": "MultiLineString", "coordinates": [ [ [ -71.09433, 42.37712 ], [ -71.09246, 42.37641 ], [ -71.08998, 42.37596 ], [ -71.08175, 42.37493 ], [ -71.08114, 42.37449 ], [ -71.08034, 42.37345 ], [ -71.07641, 42.37161 ], [ -71.0754, 42.37058 ], [ -71.06649, 42.3662 ], [ -71.06415, 42.36565 ], [ -71.0619, 42.36653 ], [ -71.06142, 42.36649 ], [ -71.05819, 42.36305 ], [ -71.05803, 42.36085 ], [ -71.06122, 42.35722 ], [ -71.0635, 42.35505 ], [ -71.06469, 42.35258 ], [ -71.06504, 42.35246 ], [ -71.06763, 42.35253 ], [ -71.07097, 42.35176 ], [ -71.07928, 42.34944 ], [ -71.07913, 42.3488 ], [ -71.07979, 42.34679 ], [ -71.08703, 42.34108 ], [ -71.10572, 42.33369 ], [ -71.10704, 42.33323 ], [ -71.10999, 42.33309 ], [ -71.11198, 42.33194 ], [ -71.11074, 42.32898 ], [ -71.1101, 42.32834 ] ] ] } },
{ "type": "Feature", "properties": { "route_name": "Green Line D", "route_color": "#00843D", "line": "Green" }, "geometry": { "type": "MultiLineString", "coordinates": [ [ [ -71.09433, 42.37712 ], [ -71.09246, 42.37641 ], [ -71.08998, 42.37596 ], [ -71.08175, 42.37493 ], [ -71.08114, 42.37449 ], [ -71.08034, 42.37345 ], [ -71.07641, 42.37161 ], [ -71.0754, 42.37058 ], [ -71.06649, 42.3662 ], [ -71.06415, 42.36565 ], [ -71.0619, 42.36653 ], [ -71.06142, 42.36649 ], [ -71.0606, 42.36566 ] ] ] } },
{ "type": "Feature", "properties": { "route_name": "Green Line D", "route_color": "#00843D", "line": "Green" }, "geometry": { "type": "MultiLineString", "coordinates": [ [ [ -71.0606, 42.36565 ], [ -71.06159, 42.36655 ], [ -71.06216, 42.36645 ], [ -71.06415, 42.36565 ], [ -71.06725, 42.36651 ], [ -71.0754, 42.37058 ], [ -71.07676, 42.37186 ], [ -71.07772, 42.37218 ], [ -71.07988, 42.37327 ], [ -71.08033, 42.37476 ], [ -71.08148, 42.375 ], [ -71.09094, 42.37609 ], [ -71.09311, 42.37661 ], [ -71.09426, 42.37708 ] ] ] } },
{ "type": "Feature", "properties": { "route_name": "Green Line D", "route_color": "#00843D", "line": "Green" }, "geometry": { "type": "MultiLineString", "coordinates": [ [ [ -71.14908, 42.33495 ], [ -71.14267, 42.33594 ], [ -71.14082, 42.33582 ], [ -71.13864, 42.33496 ], [ -71.13363, 42.33218 ], [ -71.13122, 42.33171 ], [ -71.12525, 42.33117 ], [ -71.12129, 42.33148 ], [ -71.11914, 42.33167 ], [ -71.11568, 42.33315 ], [ -71.11414, 42.33425 ], [ -71.11287, 42.33591 ], [ -71.11137, 42.33893 ], [ -71.11042, 42.34114 ], [ -71.1089, 42.34247 ], [ -71.10279, 42.34614 ], [ -71.10175, 42.3468 ], [ -71.1015, 42.34757 ], [ -71.09678, 42.34883 ], [ -71.09312, 42.3489 ], [ -71.09189, 42.34802 ], [ -71.08742, 42.34801 ], [ -71.0853, 42.34788 ], [ -71.06829, 42.35243 ], [ -71.06713, 42.35259 ], [ -71.06488, 42.35248 ], [ -71.06436, 42.35335 ], [ -71.06303, 42.35562 ], [ -71.06033, 42.35808 ], [ -71.05794, 42.36107 ], [ -71.05818, 42.36303 ], [ -71.06159, 42.36655 ], [ -71.06216, 42.36645 ], [ -71.06415, 42.36565 ], [ -71.06725, 42.36651 ], [ -71.0754, 42.37058 ], [ -71.07676, 42.37186 ], [ -71.07772, 42.37218 ], [ -71.07988, 42.37327 ], [ -71.08033, 42.37476 ], [ -71.08148, 42.375 ], [ -71.09094, 42.37609 ], [ -71.09311, 42.37661 ], [ -71.09426, 42.37708 ] ] ] } },
{ "type": "Feature", "properties": { "route_name": "Green Line D", "route_color": "#00843D", "line": "Green" }, "geometry": { "type": "MultiLineString", "coordinates": [ [ [ -71.09433, 42.37712 ], [ -71.09246, 42.37641 ], [ -71.08998, 42.37596 ], [ -71.08175, 42.37493 ], [ -71.08114, 42.37449 ], [ -71.08034, 42.37345 ], [ -71.07641, 42.37161 ], [ -71.0754, 42.37058 ], [ -71.06649, 42.3662 ], [ -71.06415, 42.36565 ], [ -71.0619, 42.36653 ], [ -71.06142, 42.36649 ], [ -71.05819, 42.36305 ], [ -71.05803, 42.36085 ], [ -71.06122, 42.35722 ], [ -71.0635, 42.35505 ], [ -71.06469, 42.35258 ], [ -71.06504, 42.35246 ], [ -71.06763, 42.35253 ], [ -71.07097, 42.35176 ], [ -71.08565, 42.34783 ], [ -71.08856, 42.34808 ], [ -71.09201, 42.34806 ], [ -71.09328, 42.34896 ], [ -71.09697, 42.3488 ], [ -71.1015, 42.34757 ], [ -71.10192, 42.34662 ], [ -71.10676, 42.34381 ], [ -71.10994, 42.34166 ], [ -71.1109, 42.34032 ], [ -71.11206, 42.33732 ], [ -71.11376, 42.33464 ], [ -71.11536, 42.33335 ], [ -71.11881, 42.33176 ], [ -71.12016, 42.33151 ], [ -71.12446, 42.33125 ], [ -71.12655, 42.33126 ], [ -71.13257, 42.33189 ], [ -71.13443, 42.33252 ], [ -71.13967, 42.33547 ], [ -71.14113, 42.33588 ], [ -71.1437, 42.33587 ], [ -71.14754, 42.3352 ], [ -71.14908, 42.33495 ] ] ] } },
{ "type": "Feature", "properties": { "route_name": "Green Line B", "route_color": "#00843D", "line": "Green" }, "geometry": { "type": "MultiLineString", "coordinates": [ [ [ -71.16681, 42.34008 ], [ -71.16542, 42.34004 ], [ -71.15998, 42.34 ], [ -71.15724, 42.33945 ], [ -71.15392, 42.33807 ], [ -71.15322, 42.33805 ], [ -71.15245, 42.33889 ], [ -71.15148, 42.34018 ], [ -71.14986, 42.34118 ], [ -71.14807, 42.34151 ], [ -71.14571, 42.34164 ], [ -71.14428, 42.34222 ], [ -71.14297, 42.34347 ], [ -71.14077, 42.34697 ], [ -71.14026, 42.34861 ], [ -71.13927, 42.34895 ], [ -71.13796, 42.34868 ], [ -71.13612, 42.34821 ], [ -71.13476, 42.34862 ], [ -71.13041, 42.35061 ], [ -71.12768, 42.35057 ], [ -71.12626, 42.35109 ], [ -71.12465, 42.35213 ], [ -71.12012, 42.3516 ] ] ] } },
{ "type": "Feature", "properties": { "route_name": "Green Line D", "route_color": "#00843D", "line": "Green" }, "geometry": { "type": "MultiLineString", "coordinates": [ [ [ -71.09415, 42.34897 ], [ -71.09697, 42.3488 ], [ -71.1015, 42.34757 ], [ -71.10192, 42.34662 ], [ -71.10676, 42.34381 ], [ -71.10994, 42.34166 ], [ -71.1109, 42.34032 ], [ -71.11206, 42.33732 ], [ -71.11376, 42.33464 ], [ -71.11536, 42.33335 ], [ -71.11881, 42.33176 ], [ -71.12016, 42.33151 ], [ -71.12446, 42.33125 ], [ -71.12655, 42.33126 ], [ -71.13257, 42.33189 ], [ -71.13443, 42.33252 ], [ -71.13967, 42.33547 ], [ -71.14113, 42.33588 ], [ -71.1437, 42.33587 ], [ -71.14754, 42.3352 ], [ -71.14968, 42.33478 ], [ -71.15458, 42.33196 ], [ -71.16241, 42.32731 ], [ -71.16461, 42.32672 ], [ -71.1671, 42.32672 ], [ -71.18605, 42.33034 ], [ -71.18885, 42.3303 ], [ -71.19141, 42.32974 ], [ -71.19461, 42.32831 ], [ -71.20449, 42.32324 ], [ -71.20946, 42.31854 ], [ -71.21129, 42.31779 ], [ -71.21336, 42.31772 ], [ -71.21535, 42.31836 ], [ -71.23018, 42.32549 ], [ -71.23423, 42.32829 ], [ -71.25237, 42.3373 ] ] ] } },
{ "type": "Feature", "properties": { "route_name": "Green Line D", "route_color": "#00843D", "line": "Green" }, "geometry": { "type": "MultiLineString", "coordinates": [ [ [ -71.25237, 42.3373 ], [ -71.2338, 42.32803 ], [ -71.22911, 42.32488 ], [ -71.21408, 42.31787 ], [ -71.21229, 42.31767 ], [ -71.21048, 42.31802 ], [ -71.20901, 42.3189 ], [ -71.20449, 42.32324 ], [ -71.19236, 42.32939 ], [ -71.18964, 42.33018 ], [ -71.18683, 42.33038 ], [ -71.1845, 42.33011 ], [ -71.16661, 42.32667 ], [ -71.16461, 42.32672 ], [ -71.16241, 42.32731 ], [ -71.15007, 42.33462 ], [ -71.14784, 42.33517 ], [ -71.14421, 42.33575 ], [ -71.14212, 42.33594 ], [ -71.14035, 42.3357 ], [ -71.13864, 42.33496 ], [ -71.13363, 42.33218 ], [ -71.13122, 42.33171 ], [ -71.12525, 42.33117 ], [ -71.12129, 42.33148 ], [ -71.11914, 42.33167 ], [ -71.11568, 42.33315 ], [ -71.11414, 42.33425 ], [ -71.11287, 42.33591 ], [ -71.11137, 42.33893 ], [ -71.11042, 42.34114 ], [ -71.1089, 42.34247 ], [ -71.10279, 42.34614 ], [ -71.10175, 42.3468 ], [ -71.1015, 42.34757 ], [ -71.09678, 42.34883 ], [ -71.09415, 42.34897 ] ] ] } },
{ "type": "Feature", "properties": { "route_name": "Green Line C", "route_color": "#00843D", "line": "Green" }, "geometry": { "type": "MultiLineString", "coordinates": [ [ [ -71.14919, 42.33615 ], [ -71.13886, 42.3384 ] ], [ [ -71.13886, 42.3384 ], [ -71.13869, 42.33844 ] ], [ [ -71.13869, 42.33844 ], [ -71.13886, 42.3384 ] ], [ [ -71.13869, 42.33844 ], [ -71.13411, 42.33957 ], [ -71.13027, 42.33972 ], [ -71.12718, 42.3405 ], [ -71.12403, 42.34146 ], [ -71.11624, 42.34344 ], [ -71.09697, 42.3488 ], [ -71.09415, 42.34897 ] ] ] } },
{ "type": "Feature", "properties": { "route_name": "Green Line C", "route_color": "#00843D", "line": "Green" }, "geometry": { "type": "MultiLineString", "coordinates": [ [ [ -71.09415, 42.34897 ], [ -71.09697, 42.3488 ], [ -71.12172, 42.342 ], [ -71.12679, 42.34066 ], [ -71.12979, 42.33979 ], [ -71.13285, 42.3396 ], [ -71.13496, 42.33944 ], [ -71.13869, 42.33844 ] ], [ [ -71.13869, 42.33844 ], [ -71.13886, 42.3384 ] ], [ [ -71.13886, 42.3384 ], [ -71.13869, 42.33844 ] ], [ [ -71.13886, 42.3384 ], [ -71.14919, 42.33615 ] ] ] } },
{ "type": "Feature", "properties": { "route_name": "Green Line B", "route_color": "#00843D", "line": "Green" }, "geometry": { "type": "MultiLineString", "coordinates": [ [ [ -71.12019, 42.35161 ], [ -71.12465, 42.35213 ], [ -71.12707, 42.35072 ], [ -71.1287, 42.35054 ], [ -71.13059, 42.35057 ], [ -71.13572, 42.34825 ], [ -71.13688, 42.34831 ], [ -71.13907, 42.34895 ], [ -71.14013, 42.3487 ], [ -71.14061, 42.34784 ], [ -71.14109, 42.34627 ], [ -71.1437, 42.34265 ], [ -71.14515, 42.34181 ], [ -71.14701, 42.34148 ], [ -71.14913, 42.34141 ], [ -71.15064, 42.34079 ], [ -71.15208, 42.33951 ], [ -71.1531, 42.33811 ], [ -71.15342, 42.338 ], [ -71.15501, 42.33848 ], [ -71.1578, 42.33961 ], [ -71.16047, 42.34002 ], [ -71.16542, 42.34004 ], [ -71.16656, 42.34002 ] ] ] } },
{ "type": "Feature", "properties": { "route_name": "Green Line C", "route_color": "#00843D", "line": "Green" }, "geometry": { "type": "MultiLineString", "coordinates": [ [ [ -71.14919, 42.33615 ], [ -71.13886, 42.3384 ] ], [ [ -71.13886, 42.3384 ], [ -71.13869, 42.33844 ] ], [ [ -71.13869, 42.33844 ], [ -71.13886, 42.3384 ] ], [ [ -71.13869, 42.33844 ], [ -71.13411, 42.33957 ], [ -71.13027, 42.33972 ], [ -71.12718, 42.3405 ], [ -71.12403, 42.34146 ], [ -71.11624, 42.34344 ], [ -71.09697, 42.3488 ], [ -71.09415, 42.34897 ] ] ] } },
{ "type": "Feature", "properties": { "route_name": "Green Line C", "route_color": "#00843D", "line": "Green" }, "geometry": { "type": "MultiLineString", "coordinates": [ [ [ -71.09415, 42.34897 ], [ -71.09697, 42.3488 ], [ -71.12172, 42.342 ], [ -71.12679, 42.34066 ], [ -71.12979, 42.33979 ], [ -71.13285, 42.3396 ], [ -71.13496, 42.33944 ], [ -71.13869, 42.33844 ] ], [ [ -71.13869, 42.33844 ], [ -71.13886, 42.3384 ] ], [ [ -71.13886, 42.3384 ], [ -71.13869, 42.33844 ] ], [ [ -71.13886, 42.3384 ], [ -71.14919, 42.33615 ] ] ] } },
{ "type": "Feature", "properties": { "route_name": "Mattapan Line", "route_color": "#DA291C", "line": "Mattapan" }, "geometry": { "type": "MultiLineString", "coordinates": [ [ [ -71.0633, 42.2841 ], [ -71.05965, 42.27829 ], [ -71.05881, 42.27573 ], [ -71.05928, 42.27459 ], [ -71.06465, 42.27103 ], [ -71.06687, 42.27035 ], [ -71.07142, 42.27022 ], [ -71.07672, 42.26949 ], [ -71.08577, 42.26737 ], [ -71.08792, 42.2677 ], [ -71.0895, 42.26791 ], [ -71.09099, 42.26769 ], [ -71.09204, 42.2675 ] ] ] } },
{ "type": "Feature", "properties": { "route_name": "Mattapan Line", "route_color": "#DA291C", "line": "Mattapan" }, "geometry": { "type": "MultiLineString", "coordinates": [ [ [ -71.09199, 42.26752 ], [ -71.08996, 42.26789 ], [ -71.08872, 42.26786 ], [ -71.08603, 42.26737 ], [ -71.08408, 42.26768 ], [ -71.07518, 42.26979 ], [ -71.0699, 42.27028 ], [ -71.06687, 42.27035 ], [ -71.06451, 42.27109 ], [ -71.05918, 42.27473 ], [ -71.05881, 42.27573 ], [ -71.06006, 42.27914 ], [ -71.0633, 42.2841 ] ] ] } },
{ "type": "Feature", "properties": { "route_name": "Orange Line", "route_color": "#ED8B00", "line": "Orange" }, "geometry": { "type": "MultiLineString", "coordinates": [ [ [ -71.07087, 42.43697 ], [ -71.07173, 42.433 ], [ -71.07628, 42.42163 ], [ -71.07681, 42.41898 ], [ -71.07719, 42.40079 ], [ -71.07719, 42.39235 ], [ -71.07697, 42.38367 ], [ -71.07687, 42.38 ], [ -71.07631, 42.37889 ], [ -71.07363, 42.37592 ], [ -71.0712, 42.37437 ], [ -71.06908, 42.37345 ], [ -71.06575, 42.37131 ], [ -71.05794, 42.36297 ], [ -71.05771, 42.35887 ], [ -71.05779, 42.35791 ], [ -71.05927, 42.3565 ], [ -71.06236, 42.3535 ], [ -71.06299, 42.35074 ], [ -71.06392, 42.34983 ], [ -71.0642, 42.34899 ], [ -71.06767, 42.34746 ], [ -71.07472, 42.34756 ], [ -71.07605, 42.34731 ], [ -71.09439, 42.33234 ], [ -71.09675, 42.32967 ], [ -71.09819, 42.32695 ], [ -71.09973, 42.32339 ], [ -71.10196, 42.32043 ], [ -71.10396, 42.31778 ], [ -71.10558, 42.31415 ], [ -71.10683, 42.31157 ], [ -71.11294, 42.30237 ], [ -71.1141, 42.30073 ] ] ] } },
{ "type": "Feature", "properties": { "route_name": "Orange Line", "route_color": "#ED8B00", "line": "Orange" }, "geometry": { "type": "MultiLineString", "coordinates": [ [ [ -71.1141, 42.30073 ], [ -71.1083, 42.30926 ], [ -71.1061, 42.31295 ], [ -71.10418, 42.31739 ], [ -71.1027, 42.31959 ], [ -71.10003, 42.32287 ], [ -71.09844, 42.32631 ], [ -71.09712, 42.32909 ], [ -71.09492, 42.33186 ], [ -71.07623, 42.34721 ], [ -71.07511, 42.34752 ], [ -71.06865, 42.34755 ], [ -71.06734, 42.34754 ], [ -71.06411, 42.34907 ], [ -71.06392, 42.34983 ], [ -71.06286, 42.35097 ], [ -71.0623, 42.35362 ], [ -71.05927, 42.3565 ], [ -71.05779, 42.35791 ], [ -71.05769, 42.36039 ], [ -71.05804, 42.36314 ], [ -71.06575, 42.37131 ], [ -71.06908, 42.37345 ], [ -71.07148, 42.37449 ], [ -71.07363, 42.37592 ], [ -71.07661, 42.37936 ], [ -71.07693, 42.38055 ], [ -71.07709, 42.39132 ], [ -71.07728, 42.39698 ], [ -71.07683, 42.41713 ], [ -71.07662, 42.42026 ], [ -71.07565, 42.42331 ], [ -71.07135, 42.43428 ], [ -71.07087, 42.43697 ] ] ] } },
{ "type": "Feature", "properties": { "route_name": "Red Line", "route_color": "#DA291C", "line": "Red" }, "geometry": { "type": "MultiLineString", "coordinates": [ [ [ -71.14208, 42.39615 ], [ -71.13896, 42.39625 ], [ -71.13802, 42.39648 ], [ -71.13737, 42.39722 ], [ -71.13718, 42.39761 ], [ -71.1352, 42.39797 ], [ -71.12417, 42.3972 ], [ -71.1212, 42.39644 ], [ -71.11969, 42.39561 ], [ -71.11924, 42.39496 ], [ -71.11883, 42.39062 ], [ -71.11894, 42.38819 ], [ -71.12006, 42.37772 ], [ -71.11968, 42.3767 ], [ -71.11853, 42.37586 ], [ -71.11876, 42.37339 ], [ -71.11581, 42.37241 ], [ -71.113, 42.37004 ], [ -71.10781, 42.36789 ], [ -71.10049, 42.36355 ], [ -71.08523, 42.36239 ], [ -71.07972, 42.36185 ], [ -71.07003, 42.36104 ], [ -71.06934, 42.36074 ], [ -71.06516, 42.35772 ], [ -71.06029, 42.35532 ], [ -71.05637, 42.35308 ], [ -71.05255, 42.35148 ], [ -71.05223, 42.35039 ], [ -71.05259, 42.34948 ], [ -71.05712, 42.34335 ], [ -71.05698, 42.32975 ], [ -71.05796, 42.32757 ], [ -71.05749, 42.32681 ], [ -71.0536, 42.32376 ], [ -71.05267, 42.322 ], [ -71.05219, 42.31664 ], [ -71.0522, 42.31405 ], [ -71.05455, 42.30795 ], [ -71.05575, 42.30283 ], [ -71.05578, 42.30151 ], [ -71.05636, 42.30083 ], [ -71.0578, 42.30032 ], [ -71.06114, 42.30013 ], [ -71.06411, 42.29927 ], [ -71.06552, 42.2982 ], [ -71.06635, 42.29684 ], [ -71.06638, 42.2954 ], [ -71.06441, 42.28673 ], [ -71.06401, 42.28553 ], [ -71.06408, 42.28529 ], [ -71.06356, 42.28425 ] ] ] } },
{ "type": "Feature", "properties": { "route_name": "Red Line", "route_color": "#DA291C", "line": "Red" }, "geometry": { "type": "MultiLineString", "coordinates": [ [ [ -71.06356, 42.28425 ], [ -71.06408, 42.28529 ], [ -71.06402, 42.28575 ], [ -71.06467, 42.2879 ], [ -71.06642, 42.29597 ], [ -71.06625, 42.29711 ], [ -71.06504, 42.29867 ], [ -71.06345, 42.29954 ], [ -71.06017, 42.30026 ], [ -71.05723, 42.30044 ], [ -71.05606, 42.3011 ], [ -71.05573, 42.30191 ], [ -71.05549, 42.30426 ], [ -71.054, 42.30962 ], [ -71.0522, 42.31405 ], [ -71.05224, 42.31803 ], [ -71.05278, 42.32235 ], [ -71.05368, 42.32388 ], [ -71.05768, 42.32704 ], [ -71.05795, 42.32777 ], [ -71.05687, 42.32996 ], [ -71.05712, 42.34335 ], [ -71.05232, 42.35 ], [ -71.05236, 42.35116 ], [ -71.05275, 42.35164 ], [ -71.05697, 42.35334 ], [ -71.06051, 42.35543 ], [ -71.06585, 42.35812 ], [ -71.06965, 42.36089 ], [ -71.07109, 42.36119 ], [ -71.08343, 42.36213 ], [ -71.08676, 42.36253 ], [ -71.10049, 42.36355 ], [ -71.10855, 42.36826 ], [ -71.11318, 42.37017 ], [ -71.1159, 42.37248 ], [ -71.11876, 42.37339 ], [ -71.11853, 42.37586 ], [ -71.11968, 42.3767 ], [ -71.12008, 42.37803 ], [ -71.11894, 42.38828 ], [ -71.11883, 42.39062 ], [ -71.11933, 42.3952 ], [ -71.12003, 42.39584 ], [ -71.12221, 42.39678 ], [ -71.12545, 42.39735 ], [ -71.1352, 42.39797 ], [ -71.13718, 42.39761 ], [ -71.13771, 42.39668 ], [ -71.13829, 42.39636 ], [ -71.13955, 42.39619 ], [ -71.14208, 42.39615 ] ] ] } },
{ "type": "Feature", "properties": { "route_name": "Red Line", "route_color": "#DA291C", "line": "Red" }, "geometry": { "type": "MultiLineString", "coordinates": [ [ [ -71.14208, 42.39615 ], [ -71.13896, 42.39625 ], [ -71.13802, 42.39648 ], [ -71.13737, 42.39722 ], [ -71.13718, 42.39761 ], [ -71.1352, 42.39797 ], [ -71.12417, 42.3972 ], [ -71.1212, 42.39644 ], [ -71.11969, 42.39561 ], [ -71.11924, 42.39496 ], [ -71.11883, 42.39062 ], [ -71.11894, 42.38819 ], [ -71.12006, 42.37772 ], [ -71.11968, 42.3767 ], [ -71.11853, 42.37586 ], [ -71.11876, 42.37339 ], [ -71.11581, 42.37241 ], [ -71.113, 42.37004 ], [ -71.10781, 42.36789 ], [ -71.10049, 42.36355 ], [ -71.08523, 42.36239 ], [ -71.07972, 42.36185 ], [ -71.07003, 42.36104 ], [ -71.06934, 42.36074 ], [ -71.06516, 42.35772 ], [ -71.06029, 42.35532 ], [ -71.05637, 42.35308 ], [ -71.05255, 42.35148 ], [ -71.05223, 42.35039 ], [ -71.05259, 42.34948 ], [ -71.05712, 42.34335 ], [ -71.05698, 42.32975 ], [ -71.05796, 42.32757 ], [ -71.05749, 42.32681 ], [ -71.0536, 42.32376 ], [ -71.05267, 42.322 ], [ -71.05219, 42.31664 ], [ -71.0522, 42.31405 ], [ -71.05455, 42.30795 ], [ -71.05575, 42.30283 ], [ -71.05578, 42.30151 ], [ -71.05636, 42.30083 ], [ -71.0578, 42.30032 ], [ -71.06114, 42.30013 ], [ -71.06411, 42.29927 ], [ -71.06552, 42.2982 ], [ -71.06635, 42.29684 ], [ -71.06638, 42.2954 ], [ -71.06441, 42.28673 ], [ -71.06401, 42.28553 ], [ -71.06408, 42.28529 ], [ -71.06356, 42.28425 ] ] ] } },
{ "type": "Feature", "properties": { "route_name": "Red Line", "route_color": "#DA291C", "line": "Red" }, "geometry": { "type": "MultiLineString", "coordinates": [ [ [ -71.06356, 42.28425 ], [ -71.06408, 42.28529 ], [ -71.06402, 42.28575 ], [ -71.06467, 42.2879 ], [ -71.06642, 42.29597 ], [ -71.06625, 42.29711 ], [ -71.06504, 42.29867 ], [ -71.06345, 42.29954 ], [ -71.06017, 42.30026 ], [ -71.05723, 42.30044 ], [ -71.05606, 42.3011 ], [ -71.05573, 42.30191 ], [ -71.05549, 42.30426 ], [ -71.054, 42.30962 ], [ -71.0522, 42.31405 ], [ -71.05224, 42.31803 ], [ -71.05278, 42.32235 ], [ -71.05368, 42.32388 ], [ -71.05768, 42.32704 ], [ -71.05795, 42.32777 ], [ -71.05687, 42.32996 ], [ -71.05712, 42.34335 ], [ -71.05232, 42.35 ], [ -71.05236, 42.35116 ], [ -71.05275, 42.35164 ], [ -71.05697, 42.35334 ], [ -71.06051, 42.35543 ], [ -71.06585, 42.35812 ], [ -71.06965, 42.36089 ], [ -71.07109, 42.36119 ], [ -71.08343, 42.36213 ], [ -71.08676, 42.36253 ], [ -71.10049, 42.36355 ], [ -71.10855, 42.36826 ], [ -71.11318, 42.37017 ], [ -71.1159, 42.37248 ], [ -71.11876, 42.37339 ], [ -71.11853, 42.37586 ], [ -71.11968, 42.3767 ], [ -71.12008, 42.37803 ], [ -71.11894, 42.38828 ], [ -71.11883, 42.39062 ], [ -71.11933, 42.3952 ], [ -71.12003, 42.39584 ], [ -71.12221, 42.39678 ], [ -71.12545, 42.39735 ], [ -71.1352, 42.39797 ], [ -71.13718, 42.39761 ], [ -71.13771, 42.39668 ], [ -71.13829, 42.39636 ], [ -71.13955, 42.39619 ], [ -71.14208, 42.39615 ] ] ] } },
{ "type": "Feature", "properties": { "route_name": "Red Line", "route_color": "#DA291C", "line": "Red" }, "geometry": { "type": "MultiLineString", "coordinates": [ [ [ -71.00168, 42.20726 ], [ -71.00012, 42.21831 ], [ -71.00075, 42.22053 ], [ -71.00579, 42.22813 ], [ -71.00688, 42.23056 ], [ -71.00698, 42.23236 ], [ -71.00541, 42.23932 ], [ -71.00346, 42.24746 ], [ -71.00374, 42.2491 ], [ -71.0063, 42.25328 ], [ -71.01941, 42.26572 ], [ -71.03119, 42.27686 ], [ -71.03221, 42.27855 ], [ -71.03304, 42.28049 ], [ -71.0347, 42.28226 ], [ -71.05434, 42.29981 ], [ -71.05535, 42.30131 ], [ -71.05553, 42.30319 ], [ -71.05366, 42.30997 ], [ -71.0519, 42.31457 ], [ -71.05231, 42.3212 ], [ -71.05294, 42.32319 ], [ -71.05399, 42.32427 ], [ -71.05749, 42.32681 ], [ -71.05795, 42.32777 ], [ -71.05687, 42.32996 ], [ -71.05712, 42.34335 ], [ -71.05232, 42.35 ], [ -71.05236, 42.35116 ], [ -71.05275, 42.35164 ], [ -71.05697, 42.35334 ], [ -71.06051, 42.35543 ], [ -71.06585, 42.35812 ], [ -71.06965, 42.36089 ], [ -71.07109, 42.36119 ], [ -71.08343, 42.36213 ], [ -71.08676, 42.36253 ], [ -71.10049, 42.36355 ], [ -71.10855, 42.36826 ], [ -71.11318, 42.37017 ], [ -71.1159, 42.37248 ], [ -71.11876, 42.37339 ], [ -71.11853, 42.37586 ], [ -71.11968, 42.3767 ], [ -71.12008, 42.37803 ], [ -71.11894, 42.38828 ], [ -71.11883, 42.39062 ], [ -71.11933, 42.3952 ], [ -71.12003, 42.39584 ], [ -71.12221, 42.39678 ], [ -71.12545, 42.39735 ], [ -71.1352, 42.39797 ], [ -71.13718, 42.39761 ], [ -71.13771, 42.39668 ], [ -71.13829, 42.39636 ], [ -71.13955, 42.39619 ], [ -71.14208, 42.39615 ] ] ] } },
{ "type": "Feature", "properties": { "route_name": "Red Line", "route_color": "#DA291C", "line": "Red" }, "geometry": { "type": "MultiLineString", "coordinates": [ [ [ -71.14208, 42.39615 ], [ -71.13896, 42.39625 ], [ -71.13802, 42.39648 ], [ -71.13737, 42.39722 ], [ -71.13718, 42.39761 ], [ -71.1352, 42.39797 ], [ -71.12417, 42.3972 ], [ -71.1212, 42.39644 ], [ -71.11969, 42.39561 ], [ -71.11924, 42.39496 ], [ -71.11883, 42.39062 ], [ -71.11894, 42.38819 ], [ -71.12006, 42.37772 ], [ -71.11968, 42.3767 ], [ -71.11853, 42.37586 ], [ -71.11876, 42.37339 ], [ -71.11581, 42.37241 ], [ -71.113, 42.37004 ], [ -71.10781, 42.36789 ], [ -71.10049, 42.36355 ], [ -71.08523, 42.36239 ], [ -71.07972, 42.36185 ], [ -71.07003, 42.36104 ], [ -71.06934, 42.36074 ], [ -71.06516, 42.35772 ], [ -71.06029, 42.35532 ], [ -71.05637, 42.35308 ], [ -71.05255, 42.35148 ], [ -71.05223, 42.35039 ], [ -71.05259, 42.34948 ], [ -71.05712, 42.34335 ], [ -71.05698, 42.32975 ], [ -71.05796, 42.32757 ], [ -71.05749, 42.32681 ], [ -71.0534, 42.32377 ], [ -71.05262, 42.32252 ], [ -71.05212, 42.31982 ], [ -71.05196, 42.31425 ], [ -71.05425, 42.30826 ], [ -71.05558, 42.30275 ], [ -71.05535, 42.30131 ], [ -71.05434, 42.29981 ], [ -71.03357, 42.28118 ], [ -71.03256, 42.27947 ], [ -71.03151, 42.27722 ], [ -71.02321, 42.2692 ], [ -71.01934, 42.26564 ], [ -71.00601, 42.25293 ], [ -71.00361, 42.24878 ], [ -71.00346, 42.24746 ], [ -71.00696, 42.23258 ], [ -71.00695, 42.23087 ], [ -71.00628, 42.22902 ], [ -71.00173, 42.22195 ], [ -71.0006, 42.22016 ], [ -71.0001, 42.21817 ], [ -71.00168, 42.20726 ] ] ] } },
{ "type": "Feature", "properties": { "route_name": "Red Line", "route_color": "#DA291C", "line": "Red" }, "geometry": { "type": "MultiLineString", "coordinates": [ [ [ -71.14208, 42.39615 ], [ -71.13896, 42.39625 ], [ -71.13802, 42.39648 ], [ -71.13737, 42.39722 ], [ -71.13718, 42.39761 ], [ -71.1352, 42.39797 ], [ -71.12417, 42.3972 ], [ -71.1212, 42.39644 ], [ -71.11969, 42.39561 ], [ -71.11924, 42.39496 ], [ -71.11883, 42.39062 ], [ -71.11894, 42.38819 ], [ -71.12006, 42.37772 ], [ -71.11968, 42.3767 ], [ -71.11853, 42.37586 ], [ -71.11876, 42.37339 ], [ -71.11581, 42.37241 ], [ -71.113, 42.37004 ], [ -71.10781, 42.36789 ], [ -71.10049, 42.36355 ], [ -71.08523, 42.36239 ], [ -71.07972, 42.36185 ], [ -71.07003, 42.36104 ], [ -71.06934, 42.36074 ], [ -71.06516, 42.35772 ], [ -71.06029, 42.35532 ], [ -71.05637, 42.35308 ], [ -71.05255, 42.35148 ], [ -71.05223, 42.35039 ], [ -71.05259, 42.34948 ], [ -71.05712, 42.34335 ], [ -71.05698, 42.32975 ], [ -71.05796, 42.32757 ], [ -71.05749, 42.32681 ], [ -71.0534, 42.32377 ], [ -71.05262, 42.32252 ], [ -71.05212, 42.31982 ], [ -71.05196, 42.31425 ], [ -71.05425, 42.30826 ], [ -71.05558, 42.30275 ], [ -71.05535, 42.30131 ], [ -71.05434, 42.29981 ], [ -71.03357, 42.28118 ], [ -71.03256, 42.27947 ], [ -71.03151, 42.27722 ], [ -71.02321, 42.2692 ], [ -71.01934, 42.26564 ], [ -71.00601, 42.25293 ], [ -71.00361, 42.24878 ], [ -71.00346, 42.24746 ], [ -71.00696, 42.23258 ], [ -71.00695, 42.23087 ], [ -71.00628, 42.22902 ], [ -71.00173, 42.22195 ], [ -71.0006, 42.22016 ], [ -71.0001, 42.21817 ], [ -71.00168, 42.20726 ] ] ] } },
{ "type": "Feature", "properties": { "route_name": "Red Line", "route_color": "#DA291C", "line": "Red" }, "geometry": { "type": "MultiLineString", "coordinates": [ [ [ -71.00168, 42.20726 ], [ -71.00012, 42.21831 ], [ -71.00075, 42.22053 ], [ -71.00579, 42.22813 ], [ -71.00688, 42.23056 ], [ -71.00698, 42.23236 ], [ -71.00541, 42.23932 ], [ -71.00346, 42.24746 ], [ -71.00374, 42.2491 ], [ -71.0063, 42.25328 ], [ -71.01941, 42.26572 ], [ -71.03119, 42.27686 ], [ -71.03221, 42.27855 ], [ -71.03304, 42.28049 ], [ -71.0347, 42.28226 ], [ -71.05434, 42.29981 ], [ -71.05535, 42.30131 ], [ -71.05553, 42.30319 ], [ -71.05366, 42.30997 ], [ -71.0519, 42.31457 ], [ -71.05231, 42.3212 ], [ -71.05294, 42.32319 ], [ -71.05399, 42.32427 ], [ -71.05749, 42.32681 ], [ -71.05795, 42.32777 ], [ -71.05687, 42.32996 ], [ -71.05712, 42.34335 ], [ -71.05232, 42.35 ], [ -71.05236, 42.35116 ], [ -71.05275, 42.35164 ], [ -71.05697, 42.35334 ], [ -71.06051, 42.35543 ], [ -71.06585, 42.35812 ], [ -71.06965, 42.36089 ], [ -71.07109, 42.36119 ], [ -71.08343, 42.36213 ], [ -71.08676, 42.36253 ], [ -71.10049, 42.36355 ], [ -71.10855, 42.36826 ], [ -71.11318, 42.37017 ], [ -71.1159, 42.37248 ], [ -71.11876, 42.37339 ], [ -71.11853, 42.37586 ], [ -71.11968, 42.3767 ], [ -71.12008, 42.37803 ], [ -71.11894, 42.38828 ], [ -71.11883, 42.39062 ], [ -71.11933, 42.3952 ], [ -71.12003, 42.39584 ], [ -71.12221, 42.39678 ], [ -71.12545, 42.39735 ], [ -71.1352, 42.39797 ], [ -71.13718, 42.39761 ], [ -71.13771, 42.39668 ], [ -71.13829, 42.39636 ], [ -71.13955, 42.39619 ], [ -71.14208, 42.39615 ] ] ] } },
{ "type": "Feature", "properties": { "route_name": "Blue Line", "route_color": "#003DA5", "line": "Blue" }, "geometry": { "type": "MultiLineString", "coordinates": [ [ [ -70.99153, 42.41364 ], [ -70.99246, 42.41147 ], [ -70.99266, 42.40905 ], [ -70.9914, 42.39977 ], [ -70.99199, 42.39804 ], [ -70.99712, 42.39049 ], [ -70.99904, 42.38898 ], [ -71.00084, 42.38811 ], [ -71.01083, 42.38473 ], [ -71.01644, 42.38066 ], [ -71.01819, 42.3802 ], [ -71.02146, 42.38011 ], [ -71.02499, 42.37874 ], [ -71.02738, 42.37691 ], [ -71.02879, 42.37582 ], [ -71.03035, 42.37418 ], [ -71.03249, 42.37247 ], [ -71.03314, 42.37232 ], [ -71.03602, 42.37223 ], [ -71.03881, 42.36996 ], [ -71.04788, 42.36012 ], [ -71.05079, 42.3598 ], [ -71.05228, 42.35945 ], [ -71.0573, 42.35888 ], [ -71.05931, 42.35917 ], [ -71.06076, 42.36071 ], [ -71.06239, 42.36118 ] ] ] } },
{ "type": "Feature", "properties": { "route_name": "Blue Line", "route_color": "#003DA5", "line": "Blue" }, "geometry": { "type": "MultiLineString", "coordinates": [ [ [ -71.06239, 42.36118 ], [ -71.06076, 42.36071 ], [ -71.06025, 42.36013 ], [ -71.05931, 42.35917 ], [ -71.05738, 42.35889 ], [ -71.05121, 42.35964 ], [ -71.05044, 42.35988 ], [ -71.04788, 42.36012 ], [ -71.03881, 42.36996 ], [ -71.03602, 42.37223 ], [ -71.03268, 42.37241 ], [ -71.03187, 42.37286 ], [ -71.02928, 42.37517 ], [ -71.0279, 42.3766 ], [ -71.02636, 42.37761 ], [ -71.02442, 42.37905 ], [ -71.02118, 42.38016 ], [ -71.0179, 42.38024 ], [ -71.01608, 42.38085 ], [ -71.01071, 42.3848 ], [ -70.99996, 42.38849 ], [ -70.99748, 42.39013 ], [ -70.99598, 42.39201 ], [ -70.99164, 42.39877 ], [ -70.99141, 42.40069 ], [ -70.99268, 42.40966 ], [ -70.99223, 42.41219 ], [ -70.99153, 42.41364 ] ] ] } },
{ "type": "Feature", "properties": { "route_name": "Blue Line", "route_color": "#003DA5", "line": "Blue" }, "geometry": { "type": "MultiLineString", "coordinates": [ [ [ -71.00497, 42.38677 ], [ -71.01083, 42.38473 ], [ -71.01644, 42.38066 ], [ -71.01819, 42.3802 ], [ -71.02146, 42.38011 ], [ -71.02499, 42.37874 ], [ -71.02738, 42.37691 ], [ -71.02879, 42.37582 ], [ -71.03035, 42.37418 ], [ -71.03249, 42.37247 ], [ -71.03314, 42.37232 ], [ -71.03602, 42.37223 ], [ -71.03881, 42.36996 ], [ -71.04788, 42.36012 ], [ -71.05079, 42.3598 ], [ -71.05228, 42.35945 ], [ -71.0573, 42.35888 ], [ -71.05931, 42.35917 ], [ -71.06076, 42.36071 ], [ -71.06239, 42.36118 ] ] ] } },
{ "type": "Feature", "properties": { "route_name": "Blue Line", "route_color": "#003DA5", "line": "Blue" }, "geometry": { "type": "MultiLineString", "coordinates": [ [ [ -71.06239, 42.36118 ], [ -71.06076, 42.36071 ], [ -71.06025, 42.36013 ], [ -71.05931, 42.35917 ], [ -71.05738, 42.35889 ], [ -71.05121, 42.35964 ], [ -71.05044, 42.35988 ], [ -71.04788, 42.36012 ], [ -71.03881, 42.36996 ], [ -71.03602, 42.37223 ], [ -71.03268, 42.37241 ], [ -71.03187, 42.37286 ], [ -71.02928, 42.37517 ], [ -71.0279, 42.3766 ], [ -71.02636, 42.37761 ], [ -71.02442, 42.37905 ], [ -71.02118, 42.38016 ], [ -71.0179, 42.38024 ], [ -71.01608, 42.38085 ], [ -71.01071, 42.3848 ], [ -71.00494, 42.38678 ] ] ] } },
{ "type": "Feature", "properties": { "route_name": "Blue Line", "route_color": "#003DA5", "line": "Blue" }, "geometry": { "type": "MultiLineString", "coordinates": [ [ [ -71.00497, 42.38677 ], [ -71.01083, 42.38473 ], [ -71.01644, 42.38066 ], [ -71.01819, 42.3802 ], [ -71.02146, 42.38011 ], [ -71.02499, 42.37874 ], [ -71.02738, 42.37691 ], [ -71.02879, 42.37582 ], [ -71.03035, 42.37418 ], [ -71.03249, 42.37247 ], [ -71.03314, 42.37232 ], [ -71.03602, 42.37223 ], [ -71.03881, 42.36996 ], [ -71.04788, 42.36012 ], [ -71.05079, 42.3598 ], [ -71.05228, 42.35945 ], [ -71.0573, 42.35888 ], [ -71.05931, 42.35917 ], [ -71.06076, 42.36071 ], [ -71.06239, 42.36118 ] ] ] } },
{ "type": "Feature", "properties": { "route_name": "Blue Line", "route_color": "#003DA5", "line": "Blue" }, "geometry": { "type": "MultiLineString", "coordinates": [ [ [ -71.06239, 42.36118 ], [ -71.06076, 42.36071 ], [ -71.06025, 42.36013 ], [ -71.05931, 42.35917 ], [ -71.05738, 42.35889 ], [ -71.05121, 42.35964 ], [ -71.05044, 42.35988 ], [ -71.04788, 42.36012 ], [ -71.03881, 42.36996 ], [ -71.03602, 42.37223 ], [ -71.03268, 42.37241 ], [ -71.03187, 42.37286 ], [ -71.02928, 42.37517 ], [ -71.0279, 42.3766 ], [ -71.02636, 42.37761 ], [ -71.02442, 42.37905 ], [ -71.02118, 42.38016 ], [ -71.0179, 42.38024 ], [ -71.01608, 42.38085 ], [ -71.01071, 42.3848 ], [ -71.00494, 42.38678 ] ] ] } },
{ "type": "Feature", "properties": { "route_name": "Green Line C", "route_color": "#00843D", "line": "Green" }, "geometry": { "type": "MultiLineString", "coordinates": [ [ [ -71.14919, 42.33615 ], [ -71.13886, 42.3384 ] ], [ [ -71.13886, 42.3384 ], [ -71.13869, 42.33844 ] ], [ [ -71.13869, 42.33844 ], [ -71.13886, 42.3384 ] ], [ [ -71.13869, 42.33844 ], [ -71.13411, 42.33957 ], [ -71.13027, 42.33972 ], [ -71.12718, 42.3405 ], [ -71.12403, 42.34146 ], [ -71.11624, 42.34344 ], [ -71.09697, 42.3488 ], [ -71.09328, 42.34896 ], [ -71.09189, 42.34802 ], [ -71.08742, 42.34801 ], [ -71.0853, 42.34788 ], [ -71.06829, 42.35243 ], [ -71.06713, 42.35259 ], [ -71.06488, 42.35248 ], [ -71.06436, 42.35335 ], [ -71.06303, 42.35562 ], [ -71.06033, 42.35808 ], [ -71.05936, 42.35938 ] ] ] } },
{ "type": "Feature", "properties": { "route_name": "Green Line C", "route_color": "#00843D", "line": "Green" }, "geometry": { "type": "MultiLineString", "coordinates": [ [ [ -71.05939, 42.35934 ], [ -71.06058, 42.35781 ], [ -71.0635, 42.35505 ], [ -71.06469, 42.35258 ], [ -71.06504, 42.35246 ], [ -71.06763, 42.35253 ], [ -71.07097, 42.35176 ], [ -71.08565, 42.34783 ], [ -71.08856, 42.34808 ], [ -71.09201, 42.34806 ], [ -71.09328, 42.34896 ], [ -71.09697, 42.3488 ], [ -71.12172, 42.342 ], [ -71.12679, 42.34066 ], [ -71.12979, 42.33979 ], [ -71.13285, 42.3396 ], [ -71.13496, 42.33944 ], [ -71.13869, 42.33844 ] ], [ [ -71.13869, 42.33844 ], [ -71.13886, 42.3384 ] ], [ [ -71.13886, 42.3384 ], [ -71.13869, 42.33844 ] ], [ [ -71.13886, 42.3384 ], [ -71.14919, 42.33615 ] ] ] } },
{ "type": "Feature", "properties": { "route_name": "Green Line D", "route_color": "#00843D", "line": "Green" }, "geometry": { "type": "MultiLineString", "coordinates": [ [ [ -71.09433, 42.37712 ], [ -71.09246, 42.37641 ], [ -71.08998, 42.37596 ], [ -71.08175, 42.37493 ], [ -71.08114, 42.37449 ], [ -71.08034, 42.37345 ], [ -71.07641, 42.37161 ], [ -71.0754, 42.37058 ], [ -71.06649, 42.3662 ], [ -71.06415, 42.36565 ], [ -71.0619, 42.36653 ], [ -71.06142, 42.36649 ], [ -71.05819, 42.36305 ], [ -71.05803, 42.36085 ], [ -71.06122, 42.35722 ], [ -71.0635, 42.35505 ], [ -71.06469, 42.35258 ], [ -71.06504, 42.35246 ], [ -71.06763, 42.35253 ], [ -71.07097, 42.35176 ], [ -71.08565, 42.34783 ], [ -71.08856, 42.34808 ], [ -71.09201, 42.34806 ], [ -71.09328, 42.34896 ], [ -71.09697, 42.3488 ], [ -71.1015, 42.34757 ], [ -71.10192, 42.34662 ], [ -71.10676, 42.34381 ], [ -71.10994, 42.34166 ], [ -71.1109, 42.34032 ], [ -71.11206, 42.33732 ], [ -71.11376, 42.33464 ], [ -71.11536, 42.33335 ], [ -71.11881, 42.33176 ], [ -71.12016, 42.33151 ], [ -71.12446, 42.33125 ], [ -71.12655, 42.33126 ], [ -71.13257, 42.33189 ], [ -71.13443, 42.33252 ], [ -71.13967, 42.33547 ], [ -71.14113, 42.33588 ], [ -71.1437, 42.33587 ], [ -71.14754, 42.3352 ], [ -71.14968, 42.33478 ], [ -71.15458, 42.33196 ], [ -71.16241, 42.32731 ], [ -71.16461, 42.32672 ], [ -71.1671, 42.32672 ], [ -71.18605, 42.33034 ], [ -71.18885, 42.3303 ], [ -71.19141, 42.32974 ], [ -71.19461, 42.32831 ], [ -71.20449, 42.32324 ], [ -71.20946, 42.31854 ], [ -71.21129, 42.31779 ], [ -71.21336, 42.31772 ], [ -71.21535, 42.31836 ], [ -71.23018, 42.32549 ], [ -71.23423, 42.32829 ], [ -71.25237, 42.3373 ] ] ] } },
{ "type": "Feature", "properties": { "route_name": "Green Line D", "route_color": "#00843D", "line": "Green" }, "geometry": { "type": "MultiLineString", "coordinates": [ [ [ -71.25237, 42.3373 ], [ -71.2338, 42.32803 ], [ -71.22911, 42.32488 ], [ -71.21408, 42.31787 ], [ -71.21229, 42.31767 ], [ -71.21048, 42.31802 ], [ -71.20901, 42.3189 ], [ -71.20449, 42.32324 ], [ -71.19236, 42.32939 ], [ -71.18964, 42.33018 ], [ -71.18683, 42.33038 ], [ -71.1845, 42.33011 ], [ -71.16661, 42.32667 ], [ -71.16461, 42.32672 ], [ -71.16241, 42.32731 ], [ -71.15007, 42.33462 ], [ -71.14784, 42.33517 ], [ -71.14421, 42.33575 ], [ -71.14212, 42.33594 ], [ -71.14035, 42.3357 ], [ -71.13864, 42.33496 ], [ -71.13363, 42.33218 ], [ -71.13122, 42.33171 ], [ -71.12525, 42.33117 ], [ -71.12129, 42.33148 ], [ -71.11914, 42.33167 ], [ -71.11568, 42.33315 ], [ -71.11414, 42.33425 ], [ -71.11287, 42.33591 ], [ -71.11137, 42.33893 ], [ -71.11042, 42.34114 ], [ -71.1089, 42.34247 ], [ -71.10279, 42.34614 ], [ -71.10175, 42.3468 ], [ -71.1015, 42.34757 ], [ -71.09678, 42.34883 ], [ -71.09312, 42.3489 ], [ -71.09189, 42.34802 ], [ -71.08742, 42.34801 ], [ -71.0853, 42.34788 ], [ -71.06829, 42.35243 ], [ -71.06713, 42.35259 ], [ -71.06488, 42.35248 ], [ -71.06436, 42.35335 ], [ -71.06303, 42.35562 ], [ -71.06033, 42.35808 ], [ -71.05794, 42.36107 ], [ -71.05818, 42.36303 ], [ -71.06159, 42.36655 ], [ -71.06216, 42.36645 ], [ -71.06415, 42.36565 ], [ -71.06725, 42.36651 ], [ -71.0754, 42.37058 ], [ -71.07676, 42.37186 ], [ -71.07772, 42.37218 ], [ -71.07988, 42.37327 ], [ -71.08033, 42.37476 ], [ -71.08148, 42.375 ], [ -71.09094, 42.37609 ], [ -71.09311, 42.37661 ], [ -71.09426, 42.37708 ] ] ] } },
{ "type": "Feature", "properties": { "route_name": "Green Line B", "route_color": "#00843D", "line": "Green" }, "geometry": { "type": "MultiLineString", "coordinates": [ [ [ -71.16681, 42.34008 ], [ -71.16542, 42.34004 ], [ -71.15998, 42.34 ], [ -71.15724, 42.33945 ], [ -71.15392, 42.33807 ], [ -71.15322, 42.33805 ], [ -71.15245, 42.33889 ], [ -71.15148, 42.34018 ], [ -71.14986, 42.34118 ], [ -71.14807, 42.34151 ], [ -71.14571, 42.34164 ], [ -71.14428, 42.34222 ], [ -71.14297, 42.34347 ], [ -71.14077, 42.34697 ], [ -71.14026, 42.34861 ], [ -71.13927, 42.34895 ], [ -71.13796, 42.34868 ], [ -71.13612, 42.34821 ], [ -71.13476, 42.34862 ], [ -71.13041, 42.35061 ], [ -71.12768, 42.35057 ], [ -71.12626, 42.35109 ], [ -71.12465, 42.35213 ], [ -71.09673, 42.34887 ], [ -71.09312, 42.3489 ], [ -71.09189, 42.34802 ], [ -71.08742, 42.34801 ], [ -71.0853, 42.34788 ], [ -71.06829, 42.35243 ], [ -71.06713, 42.35259 ], [ -71.06488, 42.35248 ], [ -71.06436, 42.35335 ], [ -71.06303, 42.35562 ], [ -71.06033, 42.35808 ], [ -71.05936, 42.35938 ] ] ] } },
{ "type": "Feature", "properties": { "route_name": "Green Line B", "route_color": "#00843D", "line": "Green" }, "geometry": { "type": "MultiLineString", "coordinates": [ [ [ -71.05939, 42.35934 ], [ -71.06058, 42.35781 ], [ -71.0635, 42.35505 ], [ -71.06469, 42.35258 ], [ -71.06504, 42.35246 ], [ -71.06763, 42.35253 ], [ -71.07097, 42.35176 ], [ -71.08565, 42.34783 ], [ -71.08856, 42.34808 ], [ -71.09201, 42.34806 ], [ -71.09328, 42.34896 ], [ -71.09722, 42.34888 ], [ -71.12465, 42.35213 ], [ -71.12707, 42.35072 ], [ -71.1287, 42.35054 ], [ -71.13059, 42.35057 ], [ -71.13572, 42.34825 ], [ -71.13688, 42.34831 ], [ -71.13907, 42.34895 ], [ -71.14013, 42.3487 ], [ -71.14061, 42.34784 ], [ -71.14109, 42.34627 ], [ -71.1437, 42.34265 ], [ -71.14515, 42.34181 ], [ -71.14701, 42.34148 ], [ -71.14913, 42.34141 ], [ -71.15064, 42.34079 ], [ -71.15208, 42.33951 ], [ -71.1531, 42.33811 ], [ -71.15342, 42.338 ], [ -71.15501, 42.33848 ], [ -71.1578, 42.33961 ], [ -71.16047, 42.34002 ], [ -71.16542, 42.34004 ], [ -71.16656, 42.34002 ] ] ] } },
{ "type": "Feature", "properties": { "route_name": "Green Line E", "route_color": "#00843D", "line": "Green" }, "geometry": { "type": "MultiLineString", "coordinates": [ [ [ -71.1101, 42.32834 ], [ -71.11085, 42.32917 ], [ -71.11198, 42.33194 ], [ -71.10999, 42.33309 ], [ -71.10646, 42.33333 ], [ -71.10221, 42.33512 ], [ -71.08703, 42.34108 ], [ -71.07966, 42.34695 ], [ -71.07913, 42.3488 ], [ -71.07928, 42.34944 ], [ -71.06829, 42.35243 ], [ -71.06713, 42.35259 ], [ -71.06488, 42.35248 ], [ -71.06436, 42.35335 ], [ -71.06303, 42.35562 ], [ -71.06033, 42.35808 ], [ -71.05794, 42.36107 ], [ -71.05818, 42.36303 ], [ -71.06159, 42.36655 ], [ -71.06216, 42.36645 ], [ -71.06415, 42.36565 ], [ -71.06725, 42.36651 ], [ -71.0754, 42.37058 ], [ -71.07676, 42.37186 ], [ -71.08034, 42.37345 ], [ -71.08114, 42.37449 ], [ -71.08158, 42.37515 ], [ -71.08305, 42.37599 ], [ -71.08671, 42.37958 ], [ -71.09105, 42.38402 ], [ -71.09341, 42.38631 ], [ -71.09682, 42.38801 ], [ -71.10394, 42.3914 ], [ -71.10581, 42.393 ], [ -71.11677, 42.40765 ] ] ] } },
{ "type": "Feature", "properties": { "route_name": "Green Line E", "route_color": "#00843D", "line": "Green" }, "geometry": { "type": "MultiLineString", "coordinates": [ [ [ -71.11679, 42.40769 ], [ -71.10545, 42.39263 ], [ -71.10359, 42.39117 ], [ -71.09398, 42.38666 ], [ -71.09186, 42.38492 ], [ -71.08695, 42.37977 ], [ -71.08599, 42.37899 ], [ -71.08272, 42.37576 ], [ -71.08133, 42.3749 ], [ -71.08062, 42.37371 ], [ -71.07986, 42.3732 ], [ -71.07641, 42.37161 ], [ -71.0754, 42.37058 ], [ -71.06649, 42.3662 ], [ -71.06415, 42.36565 ], [ -71.0619, 42.36653 ], [ -71.06142, 42.36649 ], [ -71.05819, 42.36305 ], [ -71.05803, 42.36085 ], [ -71.06122, 42.35722 ], [ -71.0635, 42.35505 ], [ -71.06469, 42.35258 ], [ -71.06504, 42.35246 ], [ -71.06763, 42.35253 ], [ -71.07097, 42.35176 ], [ -71.07928, 42.34944 ], [ -71.07913, 42.3488 ], [ -71.07979, 42.34679 ], [ -71.08703, 42.34108 ], [ -71.10572, 42.33369 ], [ -71.10704, 42.33323 ], [ -71.10999, 42.33309 ], [ -71.11198, 42.33194 ], [ -71.11076, 42.32878 ], [ -71.11067, 42.3283 ], [ -71.11022, 42.32834 ] ] ] } },
{ "type": "Feature", "properties": { "route_name": "Mattapan Line", "route_color": "#DA291C", "line": "Mattapan" }, "geometry": { "type": "MultiLineString", "coordinates": [ [ [ -71.0633, 42.2841 ], [ -71.05965, 42.27829 ], [ -71.05881, 42.27573 ], [ -71.05928, 42.27459 ], [ -71.06465, 42.27103 ], [ -71.06687, 42.27035 ], [ -71.07142, 42.27022 ], [ -71.07672, 42.26949 ], [ -71.08577, 42.26737 ], [ -71.08792, 42.2677 ], [ -71.0895, 42.26791 ], [ -71.09099, 42.26769 ], [ -71.09204, 42.2675 ] ] ] } },
{ "type": "Feature", "properties": { "route_name": "Mattapan Line", "route_color": "#DA291C", "line": "Mattapan" }, "geometry": { "type": "MultiLineString", "coordinates": [ [ [ -71.09199, 42.26752 ], [ -71.08996, 42.26789 ], [ -71.08872, 42.26786 ], [ -71.08603, 42.26737 ], [ -71.08408, 42.26768 ], [ -71.07518, 42.26979 ], [ -71.0699, 42.27028 ], [ -71.06687, 42.27035 ], [ -71.06451, 42.27109 ], [ -71.05918, 42.27473 ], [ -71.05881, 42.27573 ], [ -71.06006, 42.27914 ], [ -71.0633, 42.2841 ] ] ] } },
{ "type": "Feature", "properties": { "route_name": "Orange Line", "route_color": "#ED8B00", "line": "Orange" }, "geometry": { "type": "MultiLineString", "coordinates": [ [ [ -71.1141, 42.30073 ], [ -71.1083, 42.30926 ], [ -71.1061, 42.31295 ], [ -71.10418, 42.31739 ], [ -71.1027, 42.31959 ], [ -71.10003, 42.32287 ], [ -71.09844, 42.32631 ], [ -71.09712, 42.32909 ], [ -71.09492, 42.33186 ], [ -71.07623, 42.34721 ], [ -71.07511, 42.34752 ], [ -71.06865, 42.34755 ], [ -71.06734, 42.34754 ], [ -71.06411, 42.34907 ], [ -71.06392, 42.34983 ], [ -71.06286, 42.35097 ], [ -71.0623, 42.35362 ], [ -71.05927, 42.3565 ], [ -71.05779, 42.35791 ], [ -71.05769, 42.36039 ], [ -71.05804, 42.36314 ], [ -71.06575, 42.37131 ], [ -71.06908, 42.37345 ], [ -71.07148, 42.37449 ], [ -71.07363, 42.37592 ], [ -71.07661, 42.37936 ], [ -71.07693, 42.38055 ], [ -71.07709, 42.39132 ], [ -71.07728, 42.39698 ], [ -71.07683, 42.41713 ], [ -71.07662, 42.42026 ], [ -71.07565, 42.42331 ], [ -71.07135, 42.43428 ], [ -71.07087, 42.43697 ] ] ] } },
{ "type": "Feature", "properties": { "route_name": "Orange Line", "route_color": "#ED8B00", "line": "Orange" }, "geometry": { "type": "MultiLineString", "coordinates": [ [ [ -71.07087, 42.43697 ], [ -71.07173, 42.433 ], [ -71.07628, 42.42163 ], [ -71.07681, 42.41898 ], [ -71.07719, 42.40079 ], [ -71.07719, 42.39235 ], [ -71.07697, 42.38367 ], [ -71.07687, 42.38 ], [ -71.07631, 42.37889 ], [ -71.07363, 42.37592 ], [ -71.0712, 42.37437 ], [ -71.06908, 42.37345 ], [ -71.06575, 42.37131 ], [ -71.05794, 42.36297 ], [ -71.05771, 42.35887 ], [ -71.05779, 42.35791 ], [ -71.05927, 42.3565 ], [ -71.06236, 42.3535 ], [ -71.06299, 42.35074 ], [ -71.06392, 42.34983 ], [ -71.0642, 42.34899 ], [ -71.06767, 42.34746 ], [ -71.07472, 42.34756 ], [ -71.07605, 42.34731 ], [ -71.09439, 42.33234 ], [ -71.09675, 42.32967 ], [ -71.09819, 42.32695 ], [ -71.09973, 42.32339 ], [ -71.10196, 42.32043 ], [ -71.10396, 42.31778 ], [ -71.10558, 42.31415 ], [ -71.10683, 42.31157 ], [ -71.11294, 42.30237 ], [ -71.1141, 42.30073 ] ] ] } },
{ "type": "Feature", "properties": { "route_name": "Red Line", "route_color": "#DA291C", "line": "Red" }, "geometry": { "type": "MultiLineString", "coordinates": [ [ [ -71.14208, 42.39615 ], [ -71.13896, 42.39625 ], [ -71.13802, 42.39648 ], [ -71.13737, 42.39722 ], [ -71.13718, 42.39761 ], [ -71.1352, 42.39797 ], [ -71.12417, 42.3972 ], [ -71.1212, 42.39644 ], [ -71.11969, 42.39561 ], [ -71.11924, 42.39496 ], [ -71.11883, 42.39062 ], [ -71.11894, 42.38819 ], [ -71.12006, 42.37772 ], [ -71.11968, 42.3767 ], [ -71.11853, 42.37586 ], [ -71.11876, 42.37339 ], [ -71.11581, 42.37241 ], [ -71.113, 42.37004 ], [ -71.10781, 42.36789 ], [ -71.10049, 42.36355 ], [ -71.08523, 42.36239 ], [ -71.07972, 42.36185 ], [ -71.07003, 42.36104 ], [ -71.06934, 42.36074 ], [ -71.06516, 42.35772 ], [ -71.06029, 42.35532 ], [ -71.05637, 42.35308 ], [ -71.05255, 42.35148 ], [ -71.05223, 42.35039 ], [ -71.05259, 42.34948 ], [ -71.05712, 42.34335 ], [ -71.05698, 42.32975 ], [ -71.05796, 42.32757 ], [ -71.05749, 42.32681 ], [ -71.0536, 42.32376 ], [ -71.05267, 42.322 ], [ -71.05219, 42.31664 ], [ -71.0522, 42.31405 ], [ -71.05455, 42.30795 ], [ -71.05575, 42.30283 ], [ -71.05578, 42.30151 ], [ -71.05636, 42.30083 ], [ -71.0578, 42.30032 ], [ -71.06114, 42.30013 ], [ -71.06411, 42.29927 ], [ -71.06552, 42.2982 ], [ -71.06635, 42.29684 ], [ -71.06638, 42.2954 ], [ -71.06441, 42.28673 ], [ -71.06401, 42.28553 ], [ -71.06408, 42.28529 ], [ -71.06356, 42.28425 ] ] ] } },
{ "type": "Feature", "properties": { "route_name": "Red Line", "route_color": "#DA291C", "line": "Red" }, "geometry": { "type": "MultiLineString", "coordinates": [ [ [ -71.06356, 42.28425 ], [ -71.06408, 42.28529 ], [ -71.06402, 42.28575 ], [ -71.06467, 42.2879 ], [ -71.06642, 42.29597 ], [ -71.06625, 42.29711 ], [ -71.06504, 42.29867 ], [ -71.06345, 42.29954 ], [ -71.06017, 42.30026 ], [ -71.05723, 42.30044 ], [ -71.05606, 42.3011 ], [ -71.05573, 42.30191 ], [ -71.05549, 42.30426 ], [ -71.054, 42.30962 ], [ -71.0522, 42.31405 ], [ -71.05224, 42.31803 ], [ -71.05278, 42.32235 ], [ -71.05368, 42.32388 ], [ -71.05768, 42.32704 ], [ -71.05795, 42.32777 ], [ -71.05687, 42.32996 ], [ -71.05712, 42.34335 ], [ -71.05232, 42.35 ], [ -71.05236, 42.35116 ], [ -71.05275, 42.35164 ], [ -71.05697, 42.35334 ], [ -71.06051, 42.35543 ], [ -71.06585, 42.35812 ], [ -71.06965, 42.36089 ], [ -71.07109, 42.36119 ], [ -71.08343, 42.36213 ], [ -71.08676, 42.36253 ], [ -71.10049, 42.36355 ], [ -71.10855, 42.36826 ], [ -71.11318, 42.37017 ], [ -71.1159, 42.37248 ], [ -71.11876, 42.37339 ], [ -71.11853, 42.37586 ], [ -71.11968, 42.3767 ], [ -71.12008, 42.37803 ], [ -71.11894, 42.38828 ], [ -71.11883, 42.39062 ], [ -71.11933, 42.3952 ], [ -71.12003, 42.39584 ], [ -71.12221, 42.39678 ], [ -71.12545, 42.39735 ], [ -71.1352, 42.39797 ], [ -71.13718, 42.39761 ], [ -71.13771, 42.39668 ], [ -71.13829, 42.39636 ], [ -71.13955, 42.39619 ], [ -71.14208, 42.39615 ] ] ] } },
{ "type": "Feature", "properties": { "route_name": "Red Line", "route_color": "#DA291C", "line": "Red" }, "geometry": { "type": "MultiLineString", "coordinates": [ [ [ -71.14208, 42.39615 ], [ -71.13896, 42.39625 ], [ -71.13802, 42.39648 ], [ -71.13737, 42.39722 ], [ -71.13718, 42.39761 ], [ -71.1352, 42.39797 ], [ -71.12417, 42.3972 ], [ -71.1212, 42.39644 ], [ -71.11969, 42.39561 ], [ -71.11924, 42.39496 ], [ -71.11883, 42.39062 ], [ -71.11894, 42.38819 ], [ -71.12006, 42.37772 ], [ -71.11968, 42.3767 ], [ -71.11853, 42.37586 ], [ -71.11876, 42.37339 ], [ -71.11581, 42.37241 ], [ -71.113, 42.37004 ], [ -71.10781, 42.36789 ], [ -71.10049, 42.36355 ], [ -71.08523, 42.36239 ], [ -71.07972, 42.36185 ], [ -71.07003, 42.36104 ], [ -71.06934, 42.36074 ], [ -71.06516, 42.35772 ], [ -71.06029, 42.35532 ], [ -71.05637, 42.35308 ], [ -71.05255, 42.35148 ], [ -71.05223, 42.35039 ], [ -71.05259, 42.34948 ], [ -71.05712, 42.34335 ], [ -71.05698, 42.32975 ], [ -71.05796, 42.32757 ], [ -71.05749, 42.32681 ], [ -71.0534, 42.32377 ], [ -71.05262, 42.32252 ], [ -71.05212, 42.31982 ], [ -71.05196, 42.31425 ], [ -71.05425, 42.30826 ], [ -71.05558, 42.30275 ], [ -71.05535, 42.30131 ], [ -71.05434, 42.29981 ], [ -71.03357, 42.28118 ], [ -71.03256, 42.27947 ], [ -71.03151, 42.27722 ], [ -71.02321, 42.2692 ], [ -71.01934, 42.26564 ], [ -71.00601, 42.25293 ], [ -71.00361, 42.24878 ], [ -71.00346, 42.24746 ], [ -71.00696, 42.23258 ], [ -71.00695, 42.23087 ], [ -71.00628, 42.22902 ], [ -71.00173, 42.22195 ], [ -71.0006, 42.22016 ], [ -71.0001, 42.21817 ], [ -71.00142, 42.20837 ] ] ] } },
{ "type": "Feature", "properties": { "route_name": "Red Line", "route_color": "#DA291C", "line": "Red" }, "geometry": { "type": "MultiLineString", "coordinates": [ [ [ -71.00142, 42.20837 ], [ -71.00012, 42.21831 ], [ -71.00075, 42.22053 ], [ -71.00579, 42.22813 ], [ -71.00688, 42.23056 ], [ -71.00698, 42.23236 ], [ -71.00541, 42.23932 ], [ -71.00346, 42.24746 ], [ -71.00374, 42.2491 ], [ -71.0063, 42.25328 ], [ -71.01941, 42.26572 ], [ -71.03119, 42.27686 ], [ -71.03221, 42.27855 ], [ -71.03304, 42.28049 ], [ -71.0347, 42.28226 ], [ -71.05434, 42.29981 ], [ -71.05535, 42.30131 ], [ -71.05553, 42.30319 ], [ -71.05366, 42.30997 ], [ -71.0519, 42.31457 ], [ -71.05231, 42.3212 ], [ -71.05294, 42.32319 ], [ -71.05399, 42.32427 ], [ -71.05749, 42.32681 ], [ -71.05795, 42.32777 ], [ -71.05687, 42.32996 ], [ -71.05712, 42.34335 ], [ -71.05232, 42.35 ], [ -71.05236, 42.35116 ], [ -71.05275, 42.35164 ], [ -71.05697, 42.35334 ], [ -71.06051, 42.35543 ], [ -71.06585, 42.35812 ], [ -71.06965, 42.36089 ], [ -71.07109, 42.36119 ], [ -71.08343, 42.36213 ], [ -71.08676, 42.36253 ], [ -71.10049, 42.36355 ], [ -71.10855, 42.36826 ], [ -71.11318, 42.37017 ], [ -71.1159, 42.37248 ], [ -71.11876, 42.37339 ], [ -71.11853, 42.37586 ], [ -71.11968, 42.3767 ], [ -71.12008, 42.37803 ], [ -71.11894, 42.38828 ], [ -71.11883, 42.39062 ], [ -71.11933, 42.3952 ], [ -71.12003, 42.39584 ], [ -71.12221, 42.39678 ], [ -71.12545, 42.39735 ], [ -71.1352, 42.39797 ], [ -71.13718, 42.39761 ], [ -71.13771, 42.39668 ], [ -71.13829, 42.39636 ], [ -71.13955, 42.39619 ], [ -71.14208, 42.39615 ] ] ] } },
{ "type": "Feature", "properties": { "route_name": "Blue Line", "route_color": "#003DA5", "line": "Blue" }, "geometry": { "type": "MultiLineString", "coordinates": [ [ [ -70.99153, 42.41364 ], [ -70.99246, 42.41147 ], [ -70.99266, 42.40905 ], [ -70.9914, 42.39977 ], [ -70.99199, 42.39804 ], [ -70.99712, 42.39049 ], [ -70.99904, 42.38898 ], [ -71.00084, 42.38811 ], [ -71.01083, 42.38473 ], [ -71.01644, 42.38066 ], [ -71.01819, 42.3802 ], [ -71.02146, 42.38011 ], [ -71.02499, 42.37874 ], [ -71.02738, 42.37691 ], [ -71.02879, 42.37582 ], [ -71.03035, 42.37418 ], [ -71.03249, 42.37247 ], [ -71.03314, 42.37232 ], [ -71.03602, 42.37223 ], [ -71.03881, 42.36996 ], [ -71.04788, 42.36012 ], [ -71.05079, 42.3598 ], [ -71.05228, 42.35945 ], [ -71.0573, 42.35888 ], [ -71.05931, 42.35917 ], [ -71.06076, 42.36071 ], [ -71.06239, 42.36118 ] ] ] } },
{ "type": "Feature", "properties": { "route_name": "Blue Line", "route_color": "#003DA5", "line": "Blue" }, "geometry": { "type": "MultiLineString", "coordinates": [ [ [ -71.06239, 42.36118 ], [ -71.06076, 42.36071 ], [ -71.06025, 42.36013 ], [ -71.05931, 42.35917 ], [ -71.05738, 42.35889 ], [ -71.05121, 42.35964 ], [ -71.05044, 42.35988 ], [ -71.04788, 42.36012 ], [ -71.03881, 42.36996 ], [ -71.03602, 42.37223 ], [ -71.03268, 42.37241 ], [ -71.03187, 42.37286 ], [ -71.02928, 42.37517 ], [ -71.0279, 42.3766 ], [ -71.02636, 42.37761 ], [ -71.02442, 42.37905 ], [ -71.02118, 42.38016 ], [ -71.0179, 42.38024 ], [ -71.01608, 42.38085 ], [ -71.01071, 42.3848 ], [ -70.99996, 42.38849 ], [ -70.99748, 42.39013 ], [ -70.99598, 42.39201 ], [ -70.99164, 42.39877 ], [ -70.99141, 42.40069 ], [ -70.99268, 42.40966 ], [ -70.99223, 42.41219 ], [ -70.99153, 42.41364 ] ] ] } }
]
}
