{
"type": "FeatureCollection",
"name": "subway_stations",
"xy_coordinate_resolution": 1e-05,
"features": [
{ "type": "Feature", "properties": { "label": "Alewife — Red Line", "lines": "Red", "station_color": "#DA291C" }, "geometry": { "type": "Point", "coordinates": [ -71.14129, 42.39583 ] } },
{ "type": "Feature", "properties": { "label": "Allston Street — Green Line", "lines": "Green", "station_color": "#00843D" }, "geometry": { "type": "Point", "coordinates": [ -71.13796, 42.3487 ] } },
{ "type": "Feature", "properties": { "label": "Amory Street — Green Line", "lines": "Green", "station_color": "#00843D" }, "geometry": { "type": "Point", "coordinates": [ -71.11475, 42.35099 ] } },
{ "type": "Feature", "properties": { "label": "Andrew — Red Line", "lines": "Red", "station_color": "#DA291C" }, "geometry": { "type": "Point", "coordinates": [ -71.05765, 42.33015 ] } },
{ "type": "Feature", "properties": { "label": "Airport — Blue Line", "lines": "Blue", "station_color": "#003DA5" }, "geometry": { "type": "Point", "coordinates": [ -71.03039, 42.37426 ] } },
{ "type": "Feature", "properties": { "label": "Aquarium — Blue Line", "lines": "Blue", "station_color": "#003DA5" }, "geometry": { "type": "Point", "coordinates": [ -71.05165, 42.35978 ] } },
{ "type": "Feature", "properties": { "label": "Arlington — Green Line", "lines": "Green", "station_color": "#00843D" }, "geometry": { "type": "Point", "coordinates": [ -71.07089, 42.3519 ] } },
{ "type": "Feature", "properties": { "label": "Ashmont — Mattapan, Red Lines", "lines": "Mattapan, Red", "station_color": "#DA291C" }, "geometry": { "type": "Point", "coordinates": [ -71.06378, 42.28452 ] } },
{ "type": "Feature", "properties": { "label": "Assembly — Orange Line", "lines": "Orange", "station_color": "#ED8B00" }, "geometry": { "type": "Point", "coordinates": [ -71.07726, 42.39281 ] } },
{ "type": "Feature", "properties": { "label": "Babcock Street — Green Line", "lines": "Green", "station_color": "#00843D" }, "geometry": { "type": "Point", "coordinates": [ -71.11992, 42.35162 ] } },
{ "type": "Feature", "properties": { "label": "Ball Square — Green Line", "lines": "Green", "station_color": "#00843D" }, "geometry": { "type": "Point", "coordinates": [ -71.111, 42.39989 ] } },
{ "type": "Feature", "properties": { "label": "Back Bay — Orange Line", "lines": "Orange", "station_color": "#ED8B00" }, "geometry": { "type": "Point", "coordinates": [ -71.07573, 42.34735 ] } },
{ "type": "Feature", "properties": { "label": "Back of the Hill — Green Line", "lines": "Green", "station_color": "#00843D" }, "geometry": { "type": "Point", "coordinates": [ -71.11131, 42.33014 ] } },
{ "type": "Feature", "properties": { "label": "Beaconsfield — Green Line", "lines": "Green", "station_color": "#00843D" }, "geometry": { "type": "Point", "coordinates": [ -71.14046, 42.33577 ] } },
{ "type": "Feature", "properties": { "label": "Washington Square — Green Line", "lines": "Green", "station_color": "#00843D" }, "geometry": { "type": "Point", "coordinates": [ -71.13533, 42.33939 ] } },
{ "type": "Feature", "properties": { "label": "Blandford Street — Green Line", "lines": "Green", "station_color": "#00843D" }, "geometry": { "type": "Point", "coordinates": [ -71.10026, 42.34929 ] } },
{ "type": "Feature", "properties": { "label": "Beachmont — Blue Line", "lines": "Blue", "station_color": "#003DA5" }, "geometry": { "type": "Point", "coordinates": [ -70.99232, 42.39754 ] } },
{ "type": "Feature", "properties": { "label": "Brandon Hall — Green Line", "lines": "Green", "station_color": "#00843D" }, "geometry": { "type": "Point", "coordinates": [ -71.12908, 42.34002 ] } },
{ "type": "Feature", "properties": { "label": "Bowdoin — Blue Line", "lines": "Blue", "station_color": "#003DA5" }, "geometry": { "type": "Point", "coordinates": [ -71.06204, 42.36136 ] } },
{ "type": "Feature", "properties": { "label": "Boylston — Green Line", "lines": "Green", "station_color": "#00843D" }, "geometry": { "type": "Point", "coordinates": [ -71.06459, 42.35302 ] } },
{ "type": "Feature", "properties": { "label": "Broadway — Red Line", "lines": "Red", "station_color": "#DA291C" }, "geometry": { "type": "Point", "coordinates": [ -71.05697, 42.34262 ] } },
{ "type": "Feature", "properties": { "label": "Packard's Corner — Green Line", "lines": "Green", "station_color": "#00843D" }, "geometry": { "type": "Point", "coordinates": [ -71.12503, 42.35197 ] } },
{ "type": "Feature", "properties": { "label": "Brookline Hills — Green Line", "lines": "Green", "station_color": "#00843D" }, "geometry": { "type": "Point", "coordinates": [ -71.12668, 42.33132 ] } },
{ "type": "Feature", "properties": { "label": "Brigham Circle — Green Line", "lines": "Green", "station_color": "#00843D" }, "geometry": { "type": "Point", "coordinates": [ -71.10461, 42.33423 ] } },
{ "type": "Feature", "properties": { "label": "Braintree — Red Line", "lines": "Red", "station_color": "#DA291C" }, "geometry": { "type": "Point", "coordinates": [ -71.00114, 42.20785 ] } },
{ "type": "Feature", "properties": { "label": "Boston University Central — Green Line", "lines": "Green", "station_color": "#00843D" }, "geometry": { "type": "Point", "coordinates": [ -71.10686, 42.35008 ] } },
{ "type": "Feature", "properties": { "label": "Boston University East — Green Line", "lines": "Green", "station_color": "#00843D" }, "geometry": { "type": "Point", "coordinates": [ -71.10389, 42.34974 ] } },
{ "type": "Feature", "properties": { "label": "Butler — Mattapan Line", "lines": "Mattapan", "station_color": "#DA291C" }, "geometry": { "type": "Point", "coordinates": [ -71.06252, 42.27243 ] } },
{ "type": "Feature", "properties": { "label": "Brookline Village — Green Line", "lines": "Green", "station_color": "#00843D" }, "geometry": { "type": "Point", "coordinates": [ -71.11686, 42.33261 ] } },
{ "type": "Feature", "properties": { "label": "Capen Street — Mattapan Line", "lines": "Mattapan", "station_color": "#DA291C" }, "geometry": { "type": "Point", "coordinates": [ -71.08734, 42.26756 ] } },
{ "type": "Feature", "properties": { "label": "Community College — Orange Line", "lines": "Orange", "station_color": "#ED8B00" }, "geometry": { "type": "Point", "coordinates": [ -71.06953, 42.37362 ] } },
{ "type": "Feature", "properties": { "label": "Cedar Grove — Mattapan Line", "lines": "Mattapan", "station_color": "#DA291C" }, "geometry": { "type": "Point", "coordinates": [ -71.06039, 42.27963 ] } },
{ "type": "Feature", "properties": { "label": "Central Avenue — Mattapan Line", "lines": "Mattapan", "station_color": "#DA291C" }, "geometry": { "type": "Point", "coordinates": [ -71.07344, 42.27003 ] } },
{ "type": "Feature", "properties": { "label": "Chestnut Hill — Green Line", "lines": "Green", "station_color": "#00843D" }, "geometry": { "type": "Point", "coordinates": [ -71.1647, 42.32675 ] } },
{ "type": "Feature", "properties": { "label": "Chestnut Hill Avenue — Green Line", "lines": "Green", "station_color": "#00843D" }, "geometry": { "type": "Point", "coordinates": [ -71.15316, 42.33817 ] } },
{ "type": "Feature", "properties": { "label": "Charles/MGH — Red Line", "lines": "Red", "station_color": "#DA291C" }, "geometry": { "type": "Point", "coordinates": [ -71.07063, 42.36117 ] } },
{ "type": "Feature", "properties": { "label": "Chinatown — Orange Line", "lines": "Orange", "station_color": "#ED8B00" }, "geometry": { "type": "Point", "coordinates": [ -71.06275, 42.35255 ] } },
{ "type": "Feature", "properties": { "label": "Chiswick Road — Green Line", "lines": "Green", "station_color": "#00843D" }, "geometry": { "type": "Point", "coordinates": [ -71.15071, 42.34081 ] } },
{ "type": "Feature", "properties": { "label": "Cleveland Circle — Green Line", "lines": "Green", "station_color": "#00843D" }, "geometry": { "type": "Point", "coordinates": [ -71.14933, 42.33614 ] } },
{ "type": "Feature", "properties": { "label": "Central — Red Line", "lines": "Red", "station_color": "#DA291C" }, "geometry": { "type": "Point", "coordinates": [ -71.1038, 42.36549 ] } },
{ "type": "Feature", "properties": { "label": "Copley — Green Line", "lines": "Green", "station_color": "#00843D" }, "geometry": { "type": "Point", "coordinates": [ -71.07745, 42.34997 ] } },
{ "type": "Feature", "properties": { "label": "Coolidge Corner — Green Line", "lines": "Green", "station_color": "#00843D" }, "geometry": { "type": "Point", "coordinates": [ -71.12126, 42.34212 ] } },
{ "type": "Feature", "properties": { "label": "Davis — Red Line", "lines": "Red", "station_color": "#DA291C" }, "geometry": { "type": "Point", "coordinates": [ -71.12181, 42.39674 ] } },
{ "type": "Feature", "properties": { "label": "Dean Road — Green Line", "lines": "Green", "station_color": "#00843D" }, "geometry": { "type": "Point", "coordinates": [ -71.14216, 42.33766 ] } },
{ "type": "Feature", "properties": { "label": "Downtown Crossing — Orange, Red Lines", "lines": "Orange, Red", "station_color": "#5F6B7A" }, "geometry": { "type": "Point", "coordinates": [ -71.06023, 42.35552 ] } },
{ "type": "Feature", "properties": { "label": "Eliot — Green Line", "lines": "Green", "station_color": "#00843D" }, "geometry": { "type": "Point", "coordinates": [ -71.21668, 42.31905 ] } },
{ "type": "Feature", "properties": { "label": "Englewood Avenue — Green Line", "lines": "Green", "station_color": "#00843D" }, "geometry": { "type": "Point", "coordinates": [ -71.14485, 42.3371 ] } },
{ "type": "Feature", "properties": { "label": "East Somerville — Green Line", "lines": "Green", "station_color": "#00843D" }, "geometry": { "type": "Point", "coordinates": [ -71.08662, 42.37947 ] } },
{ "type": "Feature", "properties": { "label": "Fairbanks Street — Green Line", "lines": "Green", "station_color": "#00843D" }, "geometry": { "type": "Point", "coordinates": [ -71.13107, 42.33973 ] } },
{ "type": "Feature", "properties": { "label": "Fenwood Road — Green Line", "lines": "Green", "station_color": "#00843D" }, "geometry": { "type": "Point", "coordinates": [ -71.10573, 42.33371 ] } },
{ "type": "Feature", "properties": { "label": "Fenway — Green Line", "lines": "Green", "station_color": "#00843D" }, "geometry": { "type": "Point", "coordinates": [ -71.10421, 42.3454 ] } },
{ "type": "Feature", "properties": { "label": "Fields Corner — Red Line", "lines": "Red", "station_color": "#DA291C" }, "geometry": { "type": "Point", "coordinates": [ -71.06167, 42.30009 ] } },
{ "type": "Feature", "properties": { "label": "Forest Hills — Orange Line", "lines": "Orange", "station_color": "#ED8B00" }, "geometry": { "type": "Point", "coordinates": [ -71.11394, 42.30071 ] } },
{ "type": "Feature", "properties": { "label": "Gilman Square — Green Line", "lines": "Green", "station_color": "#00843D" }, "geometry": { "type": "Point", "coordinates": [ -71.09677, 42.38793 ] } },
{ "type": "Feature", "properties": { "label": "Government Center — Blue, Green Lines", "lines": "Blue, Green", "station_color": "#5F6B7A" }, "geometry": { "type": "Point", "coordinates": [ -71.05921, 42.3597 ] } },
{ "type": "Feature", "properties": { "label": "Griggs Street — Green Line", "lines": "Green", "station_color": "#00843D" }, "geometry": { "type": "Point", "coordinates": [ -71.13495, 42.34855 ] } },
{ "type": "Feature", "properties": { "label": "Green Street — Orange Line", "lines": "Orange", "station_color": "#ED8B00" }, "geometry": { "type": "Point", "coordinates": [ -71.10741, 42.31052 ] } },
{ "type": "Feature", "properties": { "label": "Haymarket — Green, Orange Lines", "lines": "Green, Orange", "station_color": "#5F6B7A" }, "geometry": { "type": "Point", "coordinates": [ -71.05829, 42.36302 ] } },
{ "type": "Feature", "properties": { "label": "Harvard — Red Line", "lines": "Red", "station_color": "#DA291C" }, "geometry": { "type": "Point", "coordinates": [ -71.11896, 42.37336 ] } },
{ "type": "Feature", "properties": { "label": "Harvard Avenue — Green Line", "lines": "Green", "station_color": "#00843D" }, "geometry": { "type": "Point", "coordinates": [ -71.13135, 42.35024 ] } },
{ "type": "Feature", "properties": { "label": "Heath Street — Green Line", "lines": "Green", "station_color": "#00843D" }, "geometry": { "type": "Point", "coordinates": [ -71.11025, 42.32832 ] } },
{ "type": "Feature", "properties": { "label": "Hawes Street — Green Line", "lines": "Green", "station_color": "#00843D" }, "geometry": { "type": "Point", "coordinates": [ -71.11114, 42.34491 ] } },
{ "type": "Feature", "properties": { "label": "Hynes Convention Center — Green Line", "lines": "Green", "station_color": "#00843D" }, "geometry": { "type": "Point", "coordinates": [ -71.0879, 42.34789 ] } },
{ "type": "Feature", "properties": { "label": "Jackson Square — Orange Line", "lines": "Orange", "station_color": "#ED8B00" }, "geometry": { "type": "Point", "coordinates": [ -71.09959, 42.32313 ] } },
{ "type": "Feature", "properties": { "label": "JFK/UMass — Red Line", "lines": "Red", "station_color": "#DA291C" }, "geometry": { "type": "Point", "coordinates": [ -71.05239, 42.32068 ] } },
{ "type": "Feature", "properties": { "label": "Kenmore — Green Line", "lines": "Green", "station_color": "#00843D" }, "geometry": { "type": "Point", "coordinates": [ -71.09517, 42.34895 ] } },
{ "type": "Feature", "properties": { "label": "Kendall/MIT — Red Line", "lines": "Red", "station_color": "#DA291C" }, "geometry": { "type": "Point", "coordinates": [ -71.08618, 42.36249 ] } },
{ "type": "Feature", "properties": { "label": "Kent Street — Green Line", "lines": "Green", "station_color": "#00843D" }, "geometry": { "type": "Point", "coordinates": [ -71.1142, 42.34407 ] } },
{ "type": "Feature", "properties": { "label": "Boston College — Green Line", "lines": "Green", "station_color": "#00843D" }, "geometry": { "type": "Point", "coordinates": [ -71.16677, 42.34008 ] } },
{ "type": "Feature", "properties": { "label": "Lechmere — Green Line", "lines": "Green", "station_color": "#00843D" }, "geometry": { "type": "Point", "coordinates": [ -71.07658, 42.37157 ] } },
{ "type": "Feature", "properties": { "label": "Longwood Medical Area — Green Line", "lines": "Green", "station_color": "#00843D" }, "geometry": { "type": "Point", "coordinates": [ -71.10005, 42.33596 ] } },
{ "type": "Feature", "properties": { "label": "Longwood — Green Line", "lines": "Green", "station_color": "#00843D" }, "geometry": { "type": "Point", "coordinates": [ -71.10996, 42.3417 ] } },
{ "type": "Feature", "properties": { "label": "Massachusetts Avenue — Orange Line", "lines": "Orange", "station_color": "#ED8B00" }, "geometry": { "type": "Point", "coordinates": [ -71.08342, 42.34151 ] } },
{ "type": "Feature", "properties": { "label": "Mattapan — Mattapan Line", "lines": "Mattapan", "station_color": "#DA291C" }, "geometry": { "type": "Point", "coordinates": [ -71.09249, 42.26762 ] } },
{ "type": "Feature", "properties": { "label": "Medford/Tufts — Green Line", "lines": "Green", "station_color": "#00843D" }, "geometry": { "type": "Point", "coordinates": [ -71.11704, 42.40798 ] } },
{ "type": "Feature", "properties": { "label": "Museum of Fine Arts — Green Line", "lines": "Green", "station_color": "#00843D" }, "geometry": { "type": "Point", "coordinates": [ -71.09551, 42.33771 ] } },
{ "type": "Feature", "properties": { "label": "Magoun Square — Green Line", "lines": "Green", "station_color": "#00843D" }, "geometry": { "type": "Point", "coordinates": [ -71.10639, 42.39368 ] } },
{ "type": "Feature", "properties": { "label": "Milton — Mattapan Line", "lines": "Mattapan", "station_color": "#DA291C" }, "geometry": { "type": "Point", "coordinates": [ -71.06727, 42.27035 ] } },
{ "type": "Feature", "properties": { "label": "Mission Park — Green Line", "lines": "Green", "station_color": "#00843D" }, "geometry": { "type": "Point", "coordinates": [ -71.10976, 42.3332 ] } },
{ "type": "Feature", "properties": { "label": "Malden Center — Orange Line", "lines": "Orange", "station_color": "#ED8B00" }, "geometry": { "type": "Point", "coordinates": [ -71.07411, 42.42663 ] } },
{ "type": "Feature", "properties": { "label": "Maverick — Blue Line", "lines": "Blue", "station_color": "#003DA5" }, "geometry": { "type": "Point", "coordinates": [ -71.03953, 42.36912 ] } },
{ "type": "Feature", "properties": { "label": "Newton Highlands — Green Line", "lines": "Green", "station_color": "#00843D" }, "geometry": { "type": "Point", "coordinates": [ -71.20551, 42.32238 ] } },
{ "type": "Feature", "properties": { "label": "Newton Centre — Green Line", "lines": "Green", "station_color": "#00843D" }, "geometry": { "type": "Point", "coordinates": [ -71.19241, 42.32944 ] } },
{ "type": "Feature", "properties": { "label": "North Station — Green, Orange Lines", "lines": "Green, Orange", "station_color": "#5F6B7A" }, "geometry": { "type": "Point", "coordinates": [ -71.06129, 42.36558 ] } },
{ "type": "Feature", "properties": { "label": "North Quincy — Red Line", "lines": "Red", "station_color": "#DA291C" }, "geometry": { "type": "Point", "coordinates": [ -71.02958, 42.27528 ] } },
{ "type": "Feature", "properties": { "label": "Northeastern University — Green Line", "lines": "Green", "station_color": "#00843D" }, "geometry": { "type": "Point", "coordinates": [ -71.08881, 42.3404 ] } },
{ "type": "Feature", "properties": { "label": "Oak Grove — Orange Line", "lines": "Orange", "station_color": "#ED8B00" }, "geometry": { "type": "Point", "coordinates": [ -71.0711, 42.43668 ] } },
{ "type": "Feature", "properties": { "label": "Orient Heights — Blue Line", "lines": "Blue", "station_color": "#003DA5" }, "geometry": { "type": "Point", "coordinates": [ -71.00474, 42.38687 ] } },
{ "type": "Feature", "properties": { "label": "Park Street — Green, Red Lines", "lines": "Green, Red", "station_color": "#5F6B7A" }, "geometry": { "type": "Point", "coordinates": [ -71.06242, 42.35639 ] } },
{ "type": "Feature", "properties": { "label": "Porter — Red Line", "lines": "Red", "station_color": "#DA291C" }, "geometry": { "type": "Point", "coordinates": [ -71.11915, 42.3884 ] } },
{ "type": "Feature", "properties": { "label": "Prudential — Green Line", "lines": "Green", "station_color": "#00843D" }, "geometry": { "type": "Point", "coordinates": [ -71.0817, 42.34557 ] } },
{ "type": "Feature", "properties": { "label": "Quincy Adams — Red Line", "lines": "Red", "station_color": "#DA291C" }, "geometry": { "type": "Point", "coordinates": [ -71.00715, 42.23339 ] } },
{ "type": "Feature", "properties": { "label": "Quincy Center — Red Line", "lines": "Red", "station_color": "#DA291C" }, "geometry": { "type": "Point", "coordinates": [ -71.00541, 42.25181 ] } },
{ "type": "Feature", "properties": { "label": "Revere Beach — Blue Line", "lines": "Blue", "station_color": "#003DA5" }, "geometry": { "type": "Point", "coordinates": [ -70.99253, 42.40784 ] } },
{ "type": "Feature", "properties": { "label": "Roxbury Crossing — Orange Line", "lines": "Orange", "station_color": "#ED8B00" }, "geometry": { "type": "Point", "coordinates": [ -71.09545, 42.3314 ] } },
{ "type": "Feature", "properties": { "label": "Riverside — Green Line", "lines": "Green", "station_color": "#00843D" }, "geometry": { "type": "Point", "coordinates": [ -71.25268, 42.33735 ] } },
{ "type": "Feature", "properties": { "label": "Reservoir — Green Line", "lines": "Green", "station_color": "#00843D" }, "geometry": { "type": "Point", "coordinates": [ -71.14876, 42.33509 ] } },
{ "type": "Feature", "properties": { "label": "Ruggles — Orange Line", "lines": "Orange", "station_color": "#ED8B00" }, "geometry": { "type": "Point", "coordinates": [ -71.08896, 42.33638 ] } },
{ "type": "Feature", "properties": { "label": "Riverway — Green Line", "lines": "Green", "station_color": "#00843D" }, "geometry": { "type": "Point", "coordinates": [ -71.11193, 42.33168 ] } },
{ "type": "Feature", "properties": { "label": "Stony Brook — Orange Line", "lines": "Orange", "station_color": "#ED8B00" }, "geometry": { "type": "Point", "coordinates": [ -71.10425, 42.31706 ] } },
{ "type": "Feature", "properties": { "label": "Suffolk Downs — Blue Line", "lines": "Blue", "station_color": "#003DA5" }, "geometry": { "type": "Point", "coordinates": [ -70.99712, 42.3905 ] } },
{ "type": "Feature", "properties": { "label": "Savin Hill — Red Line", "lines": "Red", "station_color": "#DA291C" }, "geometry": { "type": "Point", "coordinates": [ -71.05333, 42.31129 ] } },
{ "type": "Feature", "properties": { "label": "Saint Mary's Street — Green Line", "lines": "Green", "station_color": "#00843D" }, "geometry": { "type": "Point", "coordinates": [ -71.10735, 42.34597 ] } },
{ "type": "Feature", "properties": { "label": "Shawmut — Red Line", "lines": "Red", "station_color": "#DA291C" }, "geometry": { "type": "Point", "coordinates": [ -71.06574, 42.29313 ] } },
{ "type": "Feature", "properties": { "label": "South Street — Green Line", "lines": "Green", "station_color": "#00843D" }, "geometry": { "type": "Point", "coordinates": [ -71.15766, 42.3396 ] } },
{ "type": "Feature", "properties": { "label": "Science Park/West End — Green Line", "lines": "Green", "station_color": "#00843D" }, "geometry": { "type": "Point", "coordinates": [ -71.06767, 42.36666 ] } },
{ "type": "Feature", "properties": { "label": "South Station — Red Line", "lines": "Red", "station_color": "#DA291C" }, "geometry": { "type": "Point", "coordinates": [ -71.05524, 42.35227 ] } },
{ "type": "Feature", "properties": { "label": "State — Blue, Orange Lines", "lines": "Blue, Orange", "station_color": "#5F6B7A" }, "geometry": { "type": "Point", "coordinates": [ -71.0576, 42.35898 ] } },
{ "type": "Feature", "properties": { "label": "Sutherland Road — Green Line", "lines": "Green", "station_color": "#00843D" }, "geometry": { "type": "Point", "coordinates": [ -71.1462, 42.34161 ] } },
{ "type": "Feature", "properties": { "label": "Saint Paul Street — Green Line", "lines": "Green", "station_color": "#00843D" }, "geometry": { "type": "Point", "coordinates": [ -71.117, 42.34333 ] } },
{ "type": "Feature", "properties": { "label": "Sullivan Square — Orange Line", "lines": "Orange", "station_color": "#ED8B00" }, "geometry": { "type": "Point", "coordinates": [ -71.07699, 42.38397 ] } },
{ "type": "Feature", "properties": { "label": "Summit Avenue — Green Line", "lines": "Green", "station_color": "#00843D" }, "geometry": { "type": "Point", "coordinates": [ -71.12561, 42.34111 ] } },
{ "type": "Feature", "properties": { "label": "Symphony — Green Line", "lines": "Green", "station_color": "#00843D" }, "geometry": { "type": "Point", "coordinates": [ -71.08506, 42.34269 ] } },
{ "type": "Feature", "properties": { "label": "Tappan Street — Green Line", "lines": "Green", "station_color": "#00843D" }, "geometry": { "type": "Point", "coordinates": [ -71.1387, 42.33846 ] } },
{ "type": "Feature", "properties": { "label": "Tufts Medical Center — Orange Line", "lines": "Orange", "station_color": "#ED8B00" }, "geometry": { "type": "Point", "coordinates": [ -71.06392, 42.34966 ] } },
{ "type": "Feature", "properties": { "label": "Union Square — Green Line", "lines": "Green", "station_color": "#00843D" }, "geometry": { "type": "Point", "coordinates": [ -71.09476, 42.37736 ] } },
{ "type": "Feature", "properties": { "label": "Valley Road — Mattapan Line", "lines": "Mattapan", "station_color": "#DA291C" }, "geometry": { "type": "Point", "coordinates": [ -71.08134, 42.26835 ] } },
{ "type": "Feature", "properties": { "label": "Waban — Green Line", "lines": "Green", "station_color": "#00843D" }, "geometry": { "type": "Point", "coordinates": [ -71.23061, 42.32585 ] } },
{ "type": "Feature", "properties": { "label": "Washington Street — Green Line", "lines": "Green", "station_color": "#00843D" }, "geometry": { "type": "Point", "coordinates": [ -71.14285, 42.34386 ] } },
{ "type": "Feature", "properties": { "label": "Wellington — Orange Line", "lines": "Orange", "station_color": "#ED8B00" }, "geometry": { "type": "Point", "coordinates": [ -71.07708, 42.40237 ] } },
{ "type": "Feature", "properties": { "label": "Wood Island — Blue Line", "lines": "Blue", "station_color": "#003DA5" }, "geometry": { "type": "Point", "coordinates": [ -71.02287, 42.37964 ] } },
{ "type": "Feature", "properties": { "label": "Wollaston — Red Line", "lines": "Red", "station_color": "#DA291C" }, "geometry": { "type": "Point", "coordinates": [ -71.02034, 42.26651 ] } },
{ "type": "Feature", "properties": { "label": "Wonderland — Blue Line", "lines": "Blue", "station_color": "#003DA5" }, "geometry": { "type": "Point", "coordinates": [ -70.99165, 42.41342 ] } },
{ "type": "Feature", "properties": { "label": "Woodland — Green Line", "lines": "Green", "station_color": "#00843D" }, "geometry": { "type": "Point", "coordinates": [ -71.24336, 42.3329 ] } },
{ "type": "Feature", "properties": { "label": "Warren Street — Green Line", "lines": "Green", "station_color": "#00843D" }, "geometry": { "type": "Point", "coordinates": [ -71.14046, 42.34834 ] } }
]
}
